facility_name,category2,latitude,longitude,land_lot_address,phone_number,operating_hours
001스테이지,영화/연극/공연,37.58153269,127.002336,서울특별시 종로구 동숭동 1-115,02-744-0015,10:00-19:00
1987박종철기념관,전시/기념관,37.46938355,126.938152,서울특별시 관악구 신림동 241-13,,정보없음
1MSPACE,영화/연극/공연,37.55760078,126.938198,서울특별시 서대문구 창천동 13-21,,정보없음
2001아울렛 구로 어린이 소극장,영화/연극/공연,37.49807255,126.862677,서울특별시 구로구 고척동 76-41,02-2093-5093,10:00-22:00
313아트프로젝트,전시/기념관,37.59501819,126.989272,서울특별시 성북구 성북동 286-5,02-3446-3137,"화-토 10 am-6 pm, 전시 화-토 11 am-5 pm"
3D블랙아트,전시/기념관,37.547246,127.078304,서울특별시 광진구 능동 18-11,,정보없음
3RDMUSEUM,전시/기념관,37.55163429,126.919113,서울특별시 마포구 서교동 395-12,,10:00-19:00
4.19국립묘지4.19기념관,전시/기념관,37.64839067,127.009071,서울특별시 강북구 수유동 산 7-1,02-996-0419,월-금요일 근무일 09:00-17:00
4.19혁명기념회관,전시/기념관,37.56744493,126.967694,서울특별시 종로구 평동 166,02-737-9556,월-토 08:00-22:00
4차산업혁명체험센터,전시/기념관,37.55467447,127.04049,서울특별시 성동구 행당동 378,02-2286-7811,09:00-18:00
63빌딩63스카이아트미술관,전시/기념관,37.51966416,126.939909,서울특별시 영등포구 여의도동 60,02-789-5663,10:00-20:00
63빌딩한화아쿠아플라넷,관광지,37.51966416,126.939909,서울특별시 영등포구 여의도동 60,1833-7001,10:00-19:00 (입장마감 18:30)
7PICTURES,전시/기념관,37.56566354,126.927005,서울특별시 서대문구 연희동 219-6,,정보없음
가나미디어,영화/연극/공연,37.57292514,127.00162,서울특별시 종로구 연지동 136-46,02-3477-9923,정보없음
가나아트,전시/기념관,37.57499572,126.983939,서울특별시 종로구 관훈동 119,0507-1362-1333,평일 10:00-19:00
가나아트,전시/기념관,37.61224471,126.975182,서울특별시 종로구 평창동 97,0507-1402-5011,매일 10:00-19:00
가람화랑,전시/기념관,37.57428279,126.985614,서울특별시 종로구 관훈동 30-10,0507-1332-6170,정보없음
가스펠재즈,영화/연극/공연,37.49998194,127.039705,서울특별시 강남구 역삼동 725-17,02-553-5888,정보없음
가야극장,영화/연극/공연,37.56497574,126.959222,서울특별시 서대문구 충정로3가 3-397,,정보없음
가양레포츠센터축구장,대형체육시설,37.55996013,126.86556,서울특별시 강서구 가양동 1493,02-6229-6680,주중 :09:00-22:00/주말 :주말 06:00-22:00
가온스테이지,영화/연극/공연,37.5531083,126.917526,서울특별시 마포구 서교동 377-3,0507-1347-8650,24시간 운영
가이아갤러리,전시/기념관,37.5751462,126.983386,서울특별시 종로구 관훈동 144,02-733-3373,"월-토 10:00-18:00, 일 11:00-17:00"
가족사랑전람,전시/기념관,37.59166254,127.014818,서울특별시 성북구 동소문동5가 120,070-4633-1840,정보없음
가톨릭대학교박물관,전시/기념관,37.58490098,127.004771,서울특별시 종로구 혜화동 90-1,02-740-9707,"월-금 10:00-12:40, 14:10-17:00"
가회민화박물관,전시/기념관,37.58150935,126.985229,서울특별시 종로구 가회동 28,02-741-0466,화요일-일요일 10:00-18:00
간송미술관,전시/기념관,37.59446244,126.996239,서울특별시 성북구 성북동 81-2,02-744-7830,10:00-18:00
간송미술관,전시/기념관,37.56804459,127.01089,서울특별시 중구 을지로7가 143,02-744-7830,10:00-18:00
간송박물관,전시/기념관,37.59446244,126.996239,서울특별시 성북구 성북동 81-2,02-744-7830,10:00-18:00
감리교신학대학교역사박물관,전시/기념관,37.56791676,126.961892,서울특별시 서대문구 냉천동 31,02-361-9226,07:00-19:00
강감찬전시관,전시/기념관,37.47197208,126.959371,서울특별시 관악구 봉천동 228,02-879-5618,화-일 10:00-18:00 (동절기 1-2월 10:00-17:00)
강남씨어터,영화/연극/공연,37.49537321,127.033284,서울특별시 강남구 역삼동 829-20,02-6712-0535,정보없음
강남아트홀,영화/연극/공연,37.50010872,127.024865,서울특별시 서초구 서초동 1307,070-8129-7420,정보없음
강남카누클럽,대형레저시설,37.5270468,127.079441,서울특별시 광진구 자양동 564,02-457-4757,09:00-19:00
강남KPOP전용관,영화/연극/공연,37.5062489,127.066848,서울특별시 강남구 대치동 1004-1,0507-1428-5578,정보없음
강동아트센터,영화/연극/공연,37.55122046,127.157343,서울특별시 강동구 상일동 477,02-440-0500,09:00-18:00
강동허브단지,관광지,37.5364816,127.150962,서울특별시 강동구 둔촌동 575-3,02-3425-5000,상시개방
강북구민운동장,대형체육시설,37.62942638,127.037989,서울특별시 강북구 번동 317,02-987-6893,"개방시간 : 06:00-22:00(연중무휴), 대관시간 : 06:00-22:00"
강북구민운동장축구장,대형체육시설,37.62942638,127.037989,서울특별시 강북구 번동 317,02-987-6893,"개방시간 : 06:00-22:00(연중무휴), 대관시간 : 06:00-22:00"
강북문화예술회관,영화/연극/공연,37.64098979,127.013878,서울특별시 강북구 수유동 360-10,02-944-3060,"평일 06:00-22:00, 주말 06:00-18:00"
강북솔밭국악당,영화/연극/공연,37.65469703,127.012711,서울특별시 강북구 우이동 100-5,,매일 9:00-22:00
강서문화원,영화/연극/공연,37.5446931,126.843755,서울특별시 강서구 화곡동 111-90,02-2692-4267,정보없음
강서천문우주과학관(2022년10월예정),전시/기념관,37.58087532,126.814464,서울특별시 강서구 방화동 855,,정보없음
강서하나로마트문화센터,영화/연극/공연,37.57679087,126.812197,서울특별시 강서구 방화동 829-3,02-2669-6100,정보없음
강서한강공원,공원,37.5867642,126.817173,서울특별시 강서구 방화동 2-40,02-3780-0621,00:00-24:00
강풀만화거리,관광지,37.536231,127.130334,서울특별시 강동구 성내동 160-48,02-3425-5252,상시개방
개운산유아숲체험장,관광지,37.59720671,127.025777,서울특별시 성북구 돈암동 산 6-1,02-2241-3669,상시개방
개웅산유아숲체험원,관광지,37.4869062,126.847126,서울특별시 구로구 개봉동 산 53-3,,상시개방
갤러리291,전시/기념관,37.58079919,126.966024,서울특별시 종로구 누상동 29-1,0507-1403-2138,12:00-18:00
갤러리관악,전시/기념관,37.47821067,126.951501,서울특별시 관악구 봉천동 1570-1,02-879-5607,10:00-18:00
갤러리담,전시/기념관,37.57908049,126.983441,서울특별시 종로구 안국동 7-1,02-738-2745,"월-토 12:00-18:00, 일 12:00-17:00"
갤러리두들,전시/기념관,37.51385583,126.89543,서울특별시 영등포구 문래동2가 14-59,,09:00-18:00
갤러리두인,전시/기념관,37.49955481,127.03934,서울특별시 강남구 역삼동 725-11,02-567-1212,평일 10:30-18:30토요일 11:00-17:00 기회전 개최시만 운영
갤러리미,전시/기념관,37.52525477,127.047232,서울특별시 강남구 청담동 118-17,02-542-3004,"월-금 10:00-19:00, 토 10:00-17:00"
갤러리브레송,전시/기념관,37.56142712,126.989953,서울특별시 중구 충무로2가 52-6,0507-1306-2613,"월-토 10:30-18:30, 일 11:00-18:00"
갤러리세줄,전시/기념관,37.6134223,126.975145,서울특별시 종로구 평창동 464-13,02-391-9171,11:00-21:00
갤러리스칸디아,전시/기념관,37.56772646,127.005485,서울특별시 중구 을지로6가 18-79,02-2260-7010,09:00-17:00
갤러리아트플러스,전시/기념관,37.57320429,126.987034,서울특별시 종로구 낙원동 283-35,02-732-7710,09:00-18:00
갤러리원,전시/기념관,37.52751645,127.045901,서울특별시 강남구 청담동 101-5,02-514-3439,"월-금 : 10:00-18:00, 토 : 방문시 사전예약"
갤러리인사아트,전시/기념관,37.57486032,126.984086,서울특별시 종로구 관훈동 103,02-760-4722,화요일-토요일 11시부터 19시까지
갤러리자인제노,전시/기념관,37.57963328,126.972136,서울특별시 종로구 창성동 130-5,02-737-5751,11:00-18:00
갤러리품,전시/기념관,37.56757579,126.969176,서울특별시 중구 정동 25-2,02-318-2338,10:00-18:00
갤러리K,전시/기념관,37.5511821,126.98765,서울특별시 용산구 용산동2가 산 1-11,02-1833-8223,10:00-19:00
갤러리LVS,전시/기념관,37.52209649,127.027229,서울특별시 강남구 신사동 565-18,02-3443-7475,09:00-18:00
갤러리W가회,전시/기념관,37.58263973,126.984467,서울특별시 종로구 가회동 16-17,02-745-7253,"전시별 상이, 홈페이지 참조"
거창박물관,전시/기념관,37.57883739,127.036584,서울특별시 동대문구 제기동 1140-55,02-960-6790,10:00-18:00
건국대학교박물관,전시/기념관,37.53918267,127.074712,서울특별시 광진구 화양동 1,0507-1430-3880,10:00-16:00
걷기교육문화원,영화/연극/공연,37.46729972,127.034959,서울특별시 서초구 양재동 204,02-523-2383,정보없음
겸재정선미술관,전시/기념관,37.57222297,126.838412,서울특별시 강서구 가양동 243-1,02-2659-2206,"3월-10월 10:00-18:00, 11월-2월 10:00-17:00, 공휴일 10:00-17:00, 1시간 전 입장마감"
경복궁,명승지,37.57590409,126.976842,서울특별시 종로구 세종로 1-1,02-3700-3900,운영시간상이
경복궁아트홀,영화/연극/공연,37.58335259,126.970697,서울특별시 종로구 효자동 70-1,02-305-0525,정보없음
경인미술관,전시/기념관,37.57459086,126.985723,서울특별시 종로구 관훈동 30-1,02-733-4448,10:00-18:00
경주사업총괄본부,대형레저시설,37.60650314,127.02851,서울특별시 성북구 하월곡동 88-678,02-918-0542,10:00-18:00
경찰박물관,전시/기념관,37.5720573,126.962196,서울특별시 종로구 행촌동 211-1,02-3150-3681,9:30-17:30
경춘선숲길갤러리,전시/기념관,37.62530282,127.094051,서울특별시 노원구 공릉동 29-53,,12:00-22:00
경향갤러리,전시/기념관,37.56817327,126.969976,서울특별시 중구 정동 22,02-6731-6750,"월-금 10:00-21:00, 토 10:00-19:00, 일 12:00-19:00"
경향아트힐,영화/연극/공연,37.56817327,126.969976,서울특별시 중구 정동 22,,정보없음
경험과상상,영화/연극/공연,37.53259352,126.897171,서울특별시 영등포구 당산동5가 7-2,02-6949-2016,10:00-22:00
경화실,전시/기념관,37.56206474,126.852482,서울특별시 강서구 등촌동 717,02-2658-7712,10:00-19:00
경희궁,명승지,37.57176907,126.967985,서울특별시 종로구 신문로2가 1-126,02-724-0274,09:00-18:00
경희대학교자연사박물관,전시/기념관,37.59394914,127.054891,서울특별시 동대문구 회기동 1-5,02-961-0142,"월-금 10:00-15:00,수 10:00-20:00"
경희대학교중앙박물관,전시/기념관,37.59394914,127.054891,서울특별시 동대문구 회기동 1-5,02-961-0141,10:00-17:00
계남공원서울유아숲체험현장,관광지,37.50962582,126.855977,서울특별시 양천구 신정동 산 102,02-2620-3575,상시개방
고당기념관,전시/기념관,37.565459,126.990095,서울특별시 중구 저동2가 4 고당기념관,02-2265-0220,09:30-17:30
고덕마을활력소,영화/연극/공연,37.56028078,127.165071,서울특별시 강동구 고덕동 225-10,02-441-2006,10:00-18:00
고려대학교백주년기념관,전시/기념관,37.58870342,127.031698,서울특별시 성북구 안암동5가 1-2,02-3290-1511,월-토 10:00-17:00
고위드피트니스보라매골프,대형체육시설,37.49209014,126.923508,서울특별시 동작구 신대방동 395-65,0507-1397-8484,"평일 오전 6:00-오전 12:00, 토요일 오전 6:00-오후 8:00, 일요일 오전 10:00-오후 8:00"
고척스카이돔,대형체육시설,37.49821257,126.867089,서울특별시 구로구 고척동 63-6,02-2128-2300,행사별 상이
고촌이종근기념관,전시/기념관,37.55967811,126.963202,서울특별시 서대문구 충정로3가 368,070-7094-4510,"하절기(3-10월) 10:00-17:00, 동절기(11-2월) 10:00-16:00"
고트,대형체육시설,37.52657201,127.041294,서울특별시 강남구 청담동 83-2,0507-1347-2451,"주중 10:00-22:00, 주말 08:00-20:00"
골든블루마리나,대형레저시설,37.5124362,126.995962,서울특별시 서초구 반포동 650,02-599-0900,"월화수목 14:00-22:00, 주말 14:00-23:00"
골프리더,대형체육시설,37.49974746,126.863482,서울특별시 구로구 고척동 76-23,02-2617-7979,24시간 영업
골프앤,대형체육시설,37.53488531,127.091307,서울특별시 광진구 구의동 593-15,0507-1358-0187,06:00-24:00
골프에비뉴,대형체육시설,37.51253906,127.036076,서울특별시 강남구 논현동 249-6,02-3444-5551,"주중 08:00-22:00,주말 08:00-21:00"
골프존 성수제이펍,대형체육시설,37.54790553,127.064945,서울특별시 성동구 성수동2가 281-8,0507-1402-0054,매일10:00-새벽 03:00
골프존파크 ,대형체육시설,37.65984743,127.068904,서울특별시 노원구 상계동 1318,02-1661-9313,매일 08:00-00:00
골프존파크 ,대형체육시설,37.57105683,127.075114,서울특별시 동대문구 장안동 336,02-2247-1212,"평일 AM 06:00-AM 00:00, 주말 공휴일 AM 06:00-AM 00:00"
골프존파크 노고산 ,대형체육시설,37.55400394,126.936732,서울특별시 마포구 노고산동 107-17,02-717-0759,매일 09:00-01:00
공간222,영화/연극/공연,37.58938075,127.008782,서울특별시 성북구 동소문동2가 222,070-7562-9980,정보없음
공간4567,영화/연극/공연,37.48291914,127.046084,서울특별시 강남구 도곡동 456-7,0507-1334-2980,매일 06:00-02:00
공간사일삼,전시/기념관,37.51467644,126.890333,서울특별시 영등포구 문래동4가 31-48,,13:00-19:00
공간아울,영화/연극/공연,37.58187588,127.002293,서울특별시 종로구 동숭동 1-27,02-3675-0116,정보없음
공간황금향,전시/기념관,37.62663349,126.911428,서울특별시 은평구 갈현동 285-166,,정보없음
공간M아트센터,영화/연극/공연,37.59185861,127.014026,서울특별시 성북구 동소문동5가 15,02-927-2489,00:00-24:00
공공일클럽,영화/연극/공연,37.55100099,126.924017,서울특별시 마포구 서교동 360-18,,18:00-02:00
공아트스페이스,전시/기념관,37.57547648,126.983857,서울특별시 종로구 관훈동 118-2,02-735-9938,10:00-18:30
공예트렌드페어,전시/기념관,37.51182391,127.059159,서울특별시 강남구 삼성동 159,02-398-7939,10:00-18:00
공터,관광지,37.65284711,127.091497,서울특별시 노원구 중계동 산 102,02-2116-0545,정보없음
공평도시유적전시관,전시/기념관,37.57168081,126.98353,서울특별시 종로구 공평동 17,02-724-0135,09:00-18:00
과학전시관동부분관,전시/기념관,37.57489173,127.083439,서울특별시 중랑구 면목동 380,02-2209-9906,화-목 09:30-17:30
관문사성보박물관,전시/기념관,37.47375033,127.022282,서울특별시 서초구 우면동 56,02-3460-5300,10:00-18:00
관세박물관,전시/기념관,37.51830058,127.033779,서울특별시 강남구 논현동 71,02-510-1083,10:00-17:00
관악구민운동장,대형체육시설,37.47512278,126.957456,서울특별시 관악구 봉천동 산 56-117,02-2081-2660,06:00-22:00
관악문화원,영화/연극/공연,37.46759765,126.944871,서울특별시 관악구 신림동 209-1,02-885-5975,09:00-17:00
관악산공원서울유아숲체험현장,관광지,37.47413237,126.949416,서울특별시 관악구 봉천동 산 175-36,02-8796-5874,상시개방
관악산공원서울유아숲체험현장,관광지,37.46736547,126.909969,서울특별시 금천구 독산동 산 199-1,02-2627-1655,정보없음
관악산서울유아숲체험현장,관광지,37.470894,126.964038,서울특별시 관악구 봉천동 산 25,02-8796-5874,상시개방
관악산야외식물원,관광지,37.46205513,126.948165,서울특별시 관악구 신림동 205-1,02-879-6524,24시 운영
관악산자연공원,공원,37.465156,126.944485,서울특별시 관악구 신림동 산 27-1,02-2627-1653,00:00-24:00
관훈갤러리,전시/기념관,37.57090999,126.985444,서울특별시 종로구 인사동 235,02-733-6469,10:30-18:00
관훈미술관,전시/기념관,37.57367857,126.984735,서울특별시 종로구 관훈동 192-11,02-733-6469,10:30-18:30
광나루안전체험관,전시/기념관,37.55131484,127.077174,서울특별시 광진구 능동 18,02-2049-4061,10:00-17:00
광나루한강공원,공원,37.54821546,127.118175,서울특별시 강동구 천호동 523,02-3780-0501,00:00-24:00
광나루한강공원광나루유원지야구장,대형체육시설,37.53794823,127.112818,서울특별시 송파구 풍납동 45-3,02-3780-0833,"08:00-11:00, 11:00-14:00, 14:00-17:00"
광야아트센터,영화/연극/공연,37.5238902,127.039645,서울특별시 강남구 청담동 86,02-741-9182,정보없음
광진교8번가,영화/연극/공연,37.54514626,127.112688,서울특별시 강동구 천호동 527-2,02-120,매일 10:00-22:00
광태소극장,영화/연극/공연,37.46878628,126.93563,서울특별시 관악구 신림동 1535-17,,매일 10:00-22:00
광화문광장,공원,37.57162282,126.976788,서울특별시 종로구 세종로 1-68,02-120,상시개방
광화문아트홀,영화/연극/공연,37.57420982,126.964661,서울특별시 종로구 사직동 284-1,02-725-2311,09:00-22:00
교보아트스페이스,전시/기념관,37.57095784,126.977929,서울특별시 종로구 종로1가 1,02-1544-1900,11:00-20:00
구관,영화/연극/공연,37.58367334,127.003013,서울특별시 종로구 동숭동 1-9,,11:00-20:00
구로아트밸리,영화/연극/공연,37.4965583,126.888975,서울특별시 구로구 구로동 101,02-2029-1700,정보없음
구로안전체험교실,관광지,37.49422749,126.882548,서울특별시 구로구 구로동 409-60,02-2684-8119,09:30-17:00
구로청소년문화예술센터,영화/연극/공연,37.49485972,126.8911,서울특별시 구로구 구로동 90,02-6101-0780,09:00-18:00
구름아래소극장,영화/연극/공연,37.55411346,126.928599,서울특별시 마포구 서교동 337-11,02-3280-8800,정보없음
구립서초유스센터,영화/연극/공연,37.48550591,127.010358,서울특별시 서초구 서초동 1535-6,02-3486-1318,"월-토 09:00-21:00, 일 09:00-18:00"
구세군아트홀,영화/연극/공연,37.56011237,126.962282,서울특별시 서대문구 충정로3가 476,,정보없음
구세군역사박물관,전시/기념관,37.56799609,126.973957,서울특별시 중구 정동 1-23,02-725-1180,월-토 오전 10:00-오후 6:00
구의야구공원,대형체육시설,37.54721164,127.096818,서울특별시 광진구 구의동 164-5,02-3436-2890,"하절기(4-9월) : 조기 05:00-08:00, 주간 08:00-19:00, 야간 19:00-05:00, 동절기(10-3월) : 조기 06:00-09:00, 주간 09:00-18:00, 야간 18:00-06:00"
국가무형문화재전수교육관,영화/연극/공연,37.51009307,127.044625,서울특별시 강남구 삼성동 112-2,02-566-6300,10:00-19:00
국군무기발전실,전시/기념관,37.53731405,126.978466,서울특별시 용산구 용산동1가 8,02-709-3114,화-일 09:30-18:00
국기원기념관,전시/기념관,37.50090193,127.029677,서울특별시 강남구 역삼동 635-1,02-567-1058,"월-금 AM 09:00-11:30 / PM 1:00-5:30,점심시간 AM 11:30-PM 1:00)"
국립고궁박물관,전시/기념관,37.57659162,126.974975,서울특별시 종로구 세종로 1-57,02-3701-7500,10:00-18:00 (수·토요일은 10:00-21:00)
국립공원산악박물관,전시/기념관,37.68732834,127.034761,서울특별시 도봉구 도봉동 405,02-901-0788,10:00-16:00
국립국악원,영화/연극/공연,37.47771881,127.009818,서울특별시 서초구 서초동 740-4,02-580-3300,10:00-18:00
국립국악원연희마당,영화/연극/공연,37.47771881,127.009818,서울특별시 서초구 서초동 740-4,02-580-3302,토 20:00-21:30
국립국악원예악당,영화/연극/공연,37.4802402,127.014215,서울특별시 서초구 서초동 700,02-580-3300,화-일 10:00-18:00
국립국악원우면당,영화/연극/공연,37.4802402,127.014215,서울특별시 서초구 서초동 700,02-580-3333,화-일 10:00-18:00
국립국악원풍류사랑방,영화/연극/공연,37.47771881,127.009818,서울특별시 서초구 서초동 740-4,02-580-3300,화-일 10:00-18:00
국립극단소극장판,영화/연극/공연,37.55314654,126.968279,서울특별시 용산구 서계동 1,1644-2003,정보없음
국립극장,영화/연극/공연,37.55199491,126.999267,서울특별시 중구 장충동2가 산 14-67,02-2280-4114,정보없음
국립극장공연예술박물관,전시/기념관,37.55199491,126.999267,서울특별시 중구 장충동2가 산 14-67,02-2280-5806,10:00-18:00
국립기상박물관,전시/기념관,37.570222,126.966204,서울특별시 종로구 송월동 1-1 국립기상박물관,070-7850-8493,10:00-17:00
국립대한민국임시정부기념관,전시/기념관,37.57599973,126.954417,서울특별시 서대문구 현저동 산 5-5,02-772-8708,오전 10시-오후 6시 (입장시간: 관람 종료 1시간 전에 입장 마감)
국립민속박물관,전시/기념관,37.57590409,126.976842,서울특별시 종로구 세종로 1-1,02-3704-3114,09:00-18:00
국립산림과학원 산림과학관,전시/기념관,37.5940106,127.044831,서울특별시 동대문구 청량리동 207,02-961-2526,"학습목적 학교단체 관람: 화요일-금요일, 개인 및 일반단체 관람: 토요일-일요일 하절기(10:00-17:00) / 동절기(10:00-16:00)"
국립산림과학원홍릉수목원,관광지,37.5940106,127.044831,서울특별시 동대문구 청량리동 207,02-961-2777,"평일 10:30-15:30 3월-11월(화-금)-숲해설(10시30분,13시30분,15시30분), 주말 09:00-18:00 3월-10월(하절기)-자유관람, 주말 09:00-17:00 11월-2월(동절기)-자유관람, 주말 10:30-14:00 3월-11월-숲해설(10시30분,14시)"
국립어린이과학관,전시/기념관,37.58203191,126.997016,서울특별시 종로구 와룡동 2-70,02-3668-3350,관람시간 오전 9:30-오후 5:30
국립예술단공연연습장,영화/연극/공연,37.4802402,127.014215,서울특별시 서초구 서초동 700,,정보없음
국립정동극장세실,영화/연극/공연,37.56672262,126.976533,서울특별시 중구 정동 3-7,02-751-1500,월-금 오전 9시-오후6시
국립중앙박물관,전시/기념관,37.52470224,126.97774,서울특별시 용산구 용산동6가 168-6,02-2077-9000,"월, 화, 목, 금, 일요일: 10:00-18:00 (입장 마감: 17:30), 수, 토요일: 10:00-21:00 (입장 마감: 20:30)"
국립중앙박물관국립한글박물관,전시/기념관,37.5210688,126.980486,서울특별시 용산구 용산동6가 168-6,02-2124-6200,"관람 시간 월-금, 일요일 10:00-18:00, 토요일 10:00-21:00"
국립체육박물관(2023년예정),전시/기념관,37.5203397,127.115518,서울특별시 송파구 방이동 88,,정보없음
국립한국문학관(2024년예정),전시/기념관,37.63533679,126.934877,서울특별시 은평구 진관동 산 106-17,,정보없음
국립항공박물관,전시/기념관,37.55686977,126.808872,서울특별시 강서구 공항동 1373-5,02-6940-3198,10:00-18:00
국립현대미술관,전시/기념관,37.64074004,127.039389,서울특별시 도봉구 창동 601-107,02-995-0995,정보없음
국립현대미술관,전시/기념관,37.57862803,126.980088,서울특별시 종로구 소격동 165,02-3701-9500,"월 화 목 금 일 10:00-18:00, 수 토 10:00-21:00"
국립현대미술관,전시/기념관,37.56608683,126.973726,서울특별시 중구 정동 5-1,02-2022-0600,10:00-18:00
국립현충원,전시/기념관,37.49988073,126.971027,서울특별시 동작구 동작동 294-3,1522-1555,06:00-18:00
국민대학교박물관,전시/기념관,37.61028784,126.998521,서울특별시 성북구 정릉동 861-1,02-909-4210,"평일 10:00-17:00, 평일 10:00-16:00 방학 중"
국세홍보관,전시/기념관,37.57414969,126.9799,서울특별시 종로구 수송동 104,,"화요일-일요일, 9시-18시 (마감 한 시간 전 입장)"
국악기전시관,전시/기념관,37.5759125,126.989813,서울특별시 종로구 운니동 49-1,,정보없음
국제갤러리,전시/기념관,37.58072067,126.980574,서울특별시 종로구 소격동 48,02-735-8449,매일 10:00-18:00
국제뷰티산업교역협회,전시/기념관,37.4807624,126.880679,서울특별시 금천구 가산동 371-41,0507-1413-4640,상시운영
국제수면건강박람회,전시/기념관,37.51182391,127.059159,서울특별시 강남구 삼성동 159,02-2039-5976,10:00-18:00
국제예술대학교아트센터,영화/연극/공연,37.51759648,127.031379,서울특별시 강남구 논현동 75-4,02-542-8197,정보없음
국제의료기기병원설비전시회,전시/기념관,37.51182391,127.059159,서울특별시 강남구 삼성동 159,02-551-0102,10:00-18:00(일요일 17:00)
국제콘서트홀,영화/연극/공연,37.5168447,127.030625,서울특별시 강남구 논현동 80-7,02-543-8196,정보없음
국제환경산업기술그린에너지전,전시/기념관,37.51182391,127.059159,서울특별시 강남구 삼성동 159,02-3407-1542,10:00-18:00
국토발전전시관,전시/기념관,37.56681018,126.970082,서울특별시 중구 정동 28-5,02-3425-8900,화요일-일요일 오전 9시 30분-오후 5시 30분
국화소극장,영화/연극/공연,37.50478291,126.941357,서울특별시 동작구 상도동 170-26,02-822-5707,정보없음
국회의사당국회박물관,전시/기념관,37.53291197,126.916404,서울특별시 영등포구 여의도동 1,02-6788-3664,"평일 10:00-18:00,토요일 10:00-13:00"
국회의사당둔치운동장,대형체육시설,37.53291197,126.916404,서울특별시 영등포구 여의도동 1,02-6788-2719,06:00-18:00
군자아트센터,영화/연극/공연,37.55588791,127.077779,서울특별시 광진구 군자동 476-10,02-456-0613,09:00-22:00
궁산땅굴역사전시관,전시/기념관,37.57266755,126.838366,서울특별시 강서구 마곡동 산 3,02-2600-6552,10:00-16:00
권진규아틀리에,전시/기념관,37.59432869,127.021659,서울특별시 성북구 동선동3가 250-1,02-3675-3401,6월-10월 매월 마지막주 토요일 16:00-17:00
그라운드시소,전시/기념관,37.57784039,126.972916,서울특별시 종로구 통의동 35-17,070-4473-9746,10:00-19:00
그라운드시소,전시/기념관,37.5647299,126.98173,서울특별시 중구 소공동 1,02-1522-1796,11:00-20:00
그라운드시소성수,전시/기념관,37.54676837,127.065279,서울특별시 성동구 성수동2가 280-6,070-4473-9742,화-일 10:00-19:00
그랜드컨퍼런스룸,영화/연극/공연,37.51182391,127.059159,서울특별시 강남구 삼성동 159,02-6000-0114,정보없음
그랜드하얏트서울그랜드볼룸,영화/연극/공연,37.53976298,126.996241,서울특별시 용산구 한남동 747-7,02-797-1234,정보없음
그린아트홀,영화/연극/공연,37.50904922,126.886987,서울특별시 구로구 신도림동 337,02-3439-7748,09:00-21:00(규정시간 외에도 대관가능합니다.)
그린피아골프,대형체육시설,37.66252098,127.045534,서울특별시 도봉구 방학동 712-6,02-3493-5210,"평일 09:00-23:00,주말 08:00-22:00"
극장봄,영화/연극/공연,37.58754787,127.007362,서울특별시 성북구 삼선동1가 35,070-4127-8318,유동적
근현대사기념관,전시/기념관,37.64344107,127.002831,서울특별시 강북구 수유동 산 73-23,02-903-7580,09:00-18:00
글로벌비즈익시비션,전시/기념관,37.50662596,127.054608,서울특별시 강남구 삼성동 143-48,02-6671-6005,정보없음
글로벌에프앤씨,전시/기념관,37.50868065,127.056817,서울특별시 강남구 삼성동 157-10,02-6000-2500,09:00-18:00
금고미술관,전시/기념관,37.52863723,126.923399,서울특별시 영등포구 여의도동 16-1,02-6255-5060,09:00-18:00
금보성아트센터,전시/기념관,37.61262055,126.978078,서울특별시 종로구 평창동 111-16,02-396-8744,11:00-18:00
금속산업대전,전시/기념관,37.52827004,126.916437,서울특별시 영등포구 여의도동 17-1,02-783-8261,2022. 9. 21(수)-23(금) 오후5시까지
금천구청금나래아트홀,영화/연극/공연,37.45706565,126.896037,서울특별시 금천구 시흥동 1020,02-2627-2985,매일 09:00-19:00
금천문화원,영화/연극/공연,37.44639673,126.904445,서울특별시 금천구 시흥동 937-2,0507-1379-8552,정보없음
금천사이언스큐브,전시/기념관,37.45012744,126.916541,서울특별시 금천구 시흥동 1010-1,02-2627-2190,09:00-18:00
금천예술공장,영화/연극/공연,37.46882476,126.891928,서울특별시 금천구 독산동 333-7,02-807-4800,09:00-18:00
금호미술관,전시/기념관,37.57746671,126.979913,서울특별시 종로구 사간동 78,02-720-5114,10:00-18:00
기독교음악예술원,영화/연극/공연,37.56218482,127.009309,서울특별시 중구 장충동1가 38-51,02-2268-8685,정보없음
기독문화원,영화/연극/공연,37.45044081,126.905633,서울특별시 금천구 시흥동 907-3,02-805-3807,정보없음
기생충박물관,전시/기념관,37.55388664,126.850809,서울특별시 강서구 화곡동 1097,02-2601-3284,"월-금요일 10:00-16:00 (15:40 입장 마감),토요일 10:00-14:00 (13:40 입장 마감)"
기생충전시관,전시/기념관,37.55388664,126.850809,서울특별시 강서구 화곡동 1097,02-2601-3284,정보없음
기아360,전시/기념관,37.52755858,127.042887,서울특별시 강남구 압구정동 518,02-518-0360,9:00 AM-9:00 PM
긱라이브하우스,영화/연극/공연,37.55637961,126.932043,서울특별시 마포구 동교동 185-10,02-3141-5292,정보없음
길동생태문화센터,영화/연극/공연,37.53826544,127.154619,서울특별시 강동구 둔촌동 558,02-472-2770,09:00-18:00
길동주민센터,영화/연극/공연,37.53456231,127.142686,서울특별시 강동구 길동 228-6,02-3425-7850,9:00-오후 6:00
김달진미술연구소,전시/기념관,37.60004663,126.95666,서울특별시 종로구 홍지동 44,02-730-6214,정보없음
김달진미술자료박물관,전시/기념관,37.60004663,126.95666,서울특별시 종로구 홍지동 44,02-730-6216,10:00-17:00
김대범소극장,영화/연극/공연,37.55342856,126.926448,서울특별시 마포구 서교동 338-39,02-324-1421,정보없음
김리아갤러리,전시/기념관,37.52636,127.046853,서울특별시 강남구 청담동 100-31,0507-1469-7967,11:00-18:00
김세중미술관,전시/기념관,37.54201785,126.963883,서울특별시 용산구 효창동 5-390,02-717-5129,오전 11시-오후 5시
김수영문학관,전시/기념관,37.65992371,127.023802,서울특별시 도봉구 방학동 498-31,02-3494-1127,09:00-17:40
김숙경가구조형소,전시/기념관,37.59762823,126.962293,서울특별시 종로구 부암동 185-6,02-373-6987,11:00-18:00
김영섭사진화랑,전시/기념관,37.57431964,126.984166,서울특별시 종로구 관훈동 168,02-733-6331,정보없음
김옥길기념관,전시/기념관,37.56472807,126.944445,서울특별시 서대문구 대신동 92,02-392-2622,정보없음
김종영미술관,전시/기념관,37.6130367,126.977511,서울특별시 종로구 평창동 114-8,02-3217-6484,"3월-10월 10:00-18:00, 11월-2월 10:00-17:00"
김중업건축문화의집,전시/기념관,37.61501747,127.044069,서울특별시 성북구 장위동 230-49,02-6906-3136,10:00-17:00
김청기감독기념관,전시/기념관,37.55923229,126.985598,서울특별시 중구 남산동2가 30-4,043-217-1976,금10:30-23:59토10:30-23:59일10:30-19:00월10:30-23:59화10:30-23:59수10:30-23:59목10:30-23:59
김현주갤러리,전시/기념관,37.58349841,126.980979,서울특별시 종로구 팔판동 12,02-732-4666,"월-금 10:00-18:00, 토-일 10:00-17:00"
김혜정아뜰리에미술학원,전시/기념관,37.48536752,127.037773,서울특별시 강남구 도곡동 914-2,1588-8340,정보없음
김희수아트센터,영화/연극/공연,37.59051371,127.043048,서울특별시 동대문구 청량리동 206-46,0507-1365-7911,11:00-18:00
꽃초롱자연학습장,관광지,37.45982721,127.062599,서울특별시 서초구 내곡동 265,02-2155-6876,정보없음
꿀맛스마트교육체험교실,관광지,37.5731997,127.025619,서울특별시 동대문구 신설동 109-5,02-311-1376,정보없음
꿈갤러리,전시/기념관,37.57275513,126.986162,서울특별시 종로구 인사동 170,,정보없음
꿈나무극장,영화/연극/공연,37.48988027,126.88656,서울특별시 구로구 구로동 741-27,02-830-2562,정보없음
꿈빛극장,영화/연극/공연,37.60375521,127.022204,서울특별시 성북구 길음동 1286-8,02-6953-3201,10:00-12:00(2시간) 13:00-17:00(4시간) 18:00-22:00(4시간)-22시 이후 (1시간)
꿈의숲아트센터,영화/연극/공연,37.62025446,127.044325,서울특별시 강북구 번동 90,02-2289-5401,정보없음
꿈의숲아트센터,영화/연극/공연,37.62025446,127.044325,서울특별시 강북구 번동 90,02-2289-5401,정보없음
꿈의숲아트센터,전시/기념관,37.62025446,127.044325,서울특별시 강북구 번동 90,02-2289-5445,정보없음
꿩고개공원서울유아숲체험현장,관광지,37.58303225,126.812896,서울특별시 강서구 방화동 산 136-6,02-2657-8688,상시개방
나니아의옷장,영화/연극/공연,37.59458843,127.01683,서울특별시 성북구 동선동4가 209,070-8778-7278,매일 10:00-22:00
나몰라홀,영화/연극/공연,37.58328618,127.003293,서울특별시 종로구 동숭동 1-42,02-3481-8843,정보없음
나무갤러리,전시/기념관,37.57389314,126.981882,서울특별시 종로구 견지동 46-1,02-2011-1700,"평일 09:30-18:00, 주말 10:00-17:00"
나무갤러리,전시/기념관,37.57883464,126.984377,서울특별시 종로구 재동 34-1,02-745-2207,11:00-18:30
나사렛기념관,전시/기념관,37.54739475,126.869513,서울특별시 양천구 목동 600-7,02-2643-8591,정보없음
나온씨어터,영화/연극/공연,37.58770803,126.999406,서울특별시 종로구 명륜1가 36-4,0507-1360-3677,정보없음
낙산전시관,전시/기념관,37.58045382,127.007275,서울특별시 종로구 동숭동 50-111,02-743-7985,상시개방
난지한강공원,공원,37.56597971,126.877508,서울특별시 마포구 상암동 482-132,02-3780-0611,00:00-24:00
난지한강공원난지마리나,대형레저시설,37.56221224,126.884619,서울특별시 마포구 상암동 487-167,,정보없음
남산골전통정원,공원,37.55954227,126.994739,서울특별시 중구 필동2가 84-1,02-2264-4412,"하절기(4월-10월) 09:00-21:00,동절기(11월-3월) 09:00-20:00"
남산공원,공원,37.55194638,126.988092,서울특별시 중구 예장동 산 5-6,02-3783-5900,상시개방
남산공원남산야외식물원,관광지,37.54297029,126.994588,서울특별시 용산구 이태원동 259-16,02-798-3771,24시 운영
남산공원남산케이블카,관광지,37.55692491,126.984078,서울특별시 중구 회현동1가 산 1-19,02-753-2403,10:00-23:00
남산공원서울유아숲체험현장,관광지,37.54157554,126.996941,서울특별시 용산구 이태원동 258-148,02-3783-5900,상시개방
남산서울타워,관광지,37.5511821,126.98765,서울특별시 용산구 용산동2가 산 1-11,02-3455-9277,상시개방
남산실감형스튜디오(2022년9월예정),영화/연극/공연,37.55760964,126.99175,서울특별시 중구 예장동 산 5-84,02-318-1741,정보없음
남산예술센터,영화/연극/공연,37.55913006,126.988389,서울특별시 중구 예장동 8-19,02-758-2000,매일 09:30-22:30
남산예술원,영화/연극/공연,37.55028135,126.98243,서울특별시 용산구 후암동 339-4,070-4897-5561,정보없음
남산창작센터,영화/연극/공연,37.55760964,126.99175,서울특별시 중구 예장동 산 5-84,02-318-1741,매일 09:30-22:30
남인사마당,영화/연극/공연,37.57148216,126.987337,서울특별시 종로구 인사동 43-2,02-730-7282,정보없음
남파김삼준문화복지기념관,전시/기념관,37.46759765,126.944871,서울특별시 관악구 신림동 209-1,02-885-5975,매일 09:00-17:00
내여페,영화/연극/공연,37.58229402,127.002561,서울특별시 종로구 동숭동 1-58,070-4307-5145,정보없음
내유외강씨어터,영화/연극/공연,37.58270506,127.002157,서울특별시 종로구 동숭동 1-33,070-8863-0220,정보없음
네스트나다,영화/연극/공연,37.55479126,126.928867,서울특별시 마포구 서교동 336-5,02-555-3199,"목요일 18:00-22:00 ,금요일 18:00-22:00 ,토요일 17:00-22:00"
네오션게이트,전시/기념관,37.56817327,126.969976,서울특별시 중구 정동 22,0507-1416-5202,정보없음
네오아트홀,영화/연극/공연,37.50154346,127.025367,서울특별시 서초구 서초동 1305-2,070-8857-4085,정보없음
네팔문화원,영화/연극/공연,37.50309603,127.034733,서울특별시 강남구 역삼동 640-13,02-2272-4804,매일 09:30-18:00
노량진문화원,영화/연극/공연,37.51255302,126.955439,서울특별시 동작구 본동 47-6,02-816-0050,월-금 10:00-16:00
노량진야구장,대형체육시설,37.51501192,126.944524,서울특별시 동작구 노량진동 13-8,02-820-9585,06:00-22:00
노량진축구장,대형체육시설,37.51501192,126.944524,서울특별시 동작구 노량진동 13-8,02-820-9585,정보없음
노바골프,대형체육시설,37.49154164,127.0822,서울특별시 강남구 일원동 683-9,0507-1495-5593,10:00-24:00
노원문화예술회관,영화/연극/공연,37.65023685,127.080267,서울특별시 노원구 중계동 364-3,02-951-3355,정보없음
노원어린이극장,영화/연극/공연,37.65445005,127.063692,서울특별시 노원구 상계동 723,02-2289-3400,화-일 09:00-22:00
노원재활용센터,전시/기념관,37.65473265,127.073945,서울특별시 노원구 중계동 210-7,02-933-8289,"평일: 오전 9시-오후7시,토요일/일요일: 오전 9시-오후 6시"
노을소극장,영화/연극/공연,37.58296732,127.003236,서울특별시 종로구 동숭동 1-51,02-921-9723,정보없음
노을여가센터,영화/연극/공연,37.56968508,126.880073,서울특별시 마포구 상암동 481-6,02-300-5574,정보없음
녹번동시집박물관,전시/기념관,37.60688985,126.929284,서울특별시 은평구 녹번동 120-29,,정보없음
놀터예술공방,영화/연극/공연,37.58944908,127.006897,서울특별시 성북구 동소문동1가 47,070-4790-6051,정보없음
농업기술센터전통우리음식장류교육장,관광지,37.46815153,127.097832,서울특별시 강남구 세곡동 432-2,02-445-6667,정보없음
농업박물관,전시/기념관,37.56649912,126.968556,서울특별시 중구 충정로1가 75-1,02-2080-5727,"3월-10월: 9:30-18:00, 11월-2월:9:30-17:30"
누아갤러리,전시/기념관,37.55081382,126.916494,서울특별시 마포구 서교동 494,0507-1401-0254,"월,화,수,목,금: 11:00-18:00, 토:11:00-17:00"
눈빛극장,영화/연극/공연,37.58710995,126.999785,서울특별시 종로구 명륜1가 36-13,02-6404-5005,정보없음
뉴서울필하모닉오케스트라,영화/연극/공연,37.51311015,127.059758,서울특별시 강남구 삼성동 159,02-6002-6291,24시간 운영
다도화랑,전시/기념관,37.5229909,127.026086,서울특별시 강남구 신사동 567-36,02-542-0755,10:00-18:00
다락옥수,영화/연극/공연,37.54219225,127.017077,서울특별시 성동구 옥수동 401-1,0507-1329-7542,평일 09:00-18:00
다리소극장,영화/연극/공연,37.55721147,126.923029,서울특별시 마포구 동교동 158-2,02-338-7830,정보없음
다목적공설운동장,대형체육시설,37.54924248,126.842445,서울특별시 강서구 화곡동 산 60-1,02-2600-4195,00:00-24:00
다문화박물관,전시/기념관,37.61878209,126.932521,서울특별시 은평구 불광동 13-27,02-323-6848,"평일(월-금) 13:00-18:00,주말(토),공휴일 10:00-18:00"
다보성컨설팅,전시/기념관,37.57528783,126.986167,서울특별시 종로구 경운동 88,02-730-7566,"평일 09:00-18:00, 주말 09:00-16:00"
다은비,전시/기념관,37.5285349,126.919764,서울특별시 영등포구 여의도동 15-11,02-761-5898,매일 09:00-18:00(13-14 휴게시간)
다이나믹메이즈,관광지,37.57189615,126.987231,서울특별시 종로구 인사동 43,02-2034-0600,02-2034-0600
단막극장,영화/연극/공연,37.58331254,127.004396,서울특별시 종로구 동숭동 12-8,02-765-1544,정보없음
단코스튜디오,영화/연극/공연,37.49933085,127.042877,서울특별시 강남구 역삼동 724-45,02-556-2377,정보없음
달밤엔씨어터,영화/연극/공연,37.58400032,127.002681,서울특별시 종로구 혜화동 194,02-985-5654,정보없음
담벼락미디어,전시/기념관,37.56631742,126.977829,서울특별시 중구 태평로1가 31,02-731-2120,정보없음
담소,영화/연극/공연,37.58081329,127.003979,서울특별시 종로구 동숭동 1-144,02-556-4305,17:30-22:30
답십리공원서울유아숲체험현장,관광지,37.57066476,127.061482,서울특별시 동대문구 답십리동 2-300,02-2127-4398,상시개방
답십리영화미디어아트센터,전시/기념관,37.57179637,127.063764,서울특별시 동대문구 답십리동 산 2-121,02-2247-4007,화-일요일 09:30-17:30
대림미술관,전시/기념관,37.57750388,126.973364,서울특별시 종로구 통의동 35-1,02-720-0667,"화-일 11:00-20:00, 토 11:00-21:00"
대림운동장,대형체육시설,37.49967021,126.893997,서울특별시 영등포구 대림동 780,02-2670-4096,06:00-22:00
대림축구장,대형체육시설,37.49967021,126.893997,서울특별시 영등포구 대림동 780,02-2670-4096,06:00-22:00
대모산공원서울유아숲체험현장,관광지,37.4799752,127.075626,서울특별시 강남구 일원동 436,02-3423-6283,상시개방
대모실외골프연습장,대형체육시설,37.48059845,127.085994,서울특별시 강남구 일원동 736,02-459-1188,"월-금 06:00-22:30,토 07:00-19:00,일 10:00-19:00"
대안공간틈새,전시/기념관,37.58218888,127.00225,서울특별시 종로구 동숭동 1-28,02-743-5483,정보없음
대안예술공간이포,전시/기념관,37.51406258,126.897246,서울특별시 영등포구 문래동3가 54-37,0507-1412-7731,11:00-19:00
대원뮤지엄,전시/기념관,37.5297718,126.964742,서울특별시 용산구 한강로3가 40-999,02-6373-3365,매일 11:00-20:00
대학로극장쿼드,영화/연극/공연,37.583699,127.003717,서울특별시 종로구 동숭동 1-5,1577-0369,"평일(월-금) 9:00-20:00, 주말 및 공휴일 10:00-18:00"
대학로단막극장,영화/연극/공연,37.58331254,127.004396,서울특별시 종로구 동숭동 12-8,,정보없음
대학로뮤지컬센터,영화/연극/공연,37.58288935,127.004283,서울특별시 종로구 동숭동 25-5,02-2135-1507,정보없음
대학로바탕골소극장,영화/연극/공연,37.58186091,127.00258,서울특별시 종로구 동숭동 1-60,02-764-8760,10:00-22:00
대학로연습실,영화/연극/공연,37.58316157,127.003475,서울특별시 종로구 동숭동 1-43,,정보없음
대학로예술극장,영화/연극/공연,37.58209615,127.003178,서울특별시 종로구 동숭동 1-67,02-3668-0007,정보없음
대학로올래홀,영화/연극/공연,37.58160041,127.003554,서울특별시 종로구 동숭동 1-97,02-766-7733,정보없음
대학로자유극장,영화/연극/공연,37.58274873,127.003608,서울특별시 종로구 동숭동 1-45,0507-1370-0661,10:00-22:00
대한민국교육박람회,전시/기념관,37.51182391,127.059159,서울특별시 강남구 삼성동 159,02-6000-6680,정보없음
대한민국국토도시디자인대전,전시/기념관,37.49111549,127.030284,서울특별시 서초구 서초동 1338-23,02-2003-7334,정보없음
대한민국막걸리엑스포,전시/기념관,37.486449,127.035766,서울특별시 강남구 도곡동 950-9,031-697-8260,"금,토: 오전 10시-18시 (17시 30분 입장마감),일: 오전 10시-17시 (16시 30분 입장마감)"
대한민국맥주산업박람회,전시/기념관,37.51182391,127.059159,서울특별시 강남구 삼성동 159,02-565-0501,10:00-18:00
대한민국세계여성발명대회및여성발명품박람회,전시/기념관,37.50008187,127.032938,서울특별시 강남구 역삼동 647-9,,정보없음
대한민국역사박물관,전시/기념관,37.57371361,126.978339,서울특별시 종로구 세종로 82-1,,10:00-18:00
대한민국예술원,전시/기념관,37.49559889,127.002496,서울특별시 서초구 반포동 산 94-4,02-3479-7224,정보없음
대한민국예술인센터,영화/연극/공연,37.52707541,126.870746,서울특별시 양천구 목동 923-6,02-2655-3000,정보없음
대한민국조경*정원박람회,전시/기념관,37.51182391,127.059159,서울특별시 강남구 삼성동 159,02-515-4800,10:00-18:00(입장은 오후 5시까지)
대한민국지방자치경영대전,전시/기념관,37.51182391,127.059159,서울특별시 강남구 삼성동 159,,정보없음
대한적십자100주년기념관,전시/기념관,37.55981721,126.987991,서울특별시 중구 남산동3가 32-2,02-3705-3705,09:00-18:00
대현산공원서울유아숲체험현장,관광지,37.5531739,127.029385,서울특별시 성동구 금호동1가 산 37-1,02-2293-7646,정보없음
댕로홀,영화/연극/공연,37.58185809,127.003722,서울특별시 종로구 동숭동 1-78,070-8600-8342,매일 15:00-22:00
더굿씨어터,영화/연극/공연,37.58398159,127.002065,서울특별시 종로구 혜화동 185,02-741-7251,매일 12:00-18:00
더그라운드,전시/기념관,37.57966539,126.972677,서울특별시 종로구 창성동 117-10,02-3443-7475,정보없음
더네이쳐홀딩스,전시/기념관,37.53408394,126.961398,서울특별시 용산구 신계동 40-1,02-1588-2906,정보없음
더레퍼런스,전시/기념관,37.58228897,126.971805,서울특별시 종로구 효자동 50-7,070-4150-3105,화-일 11:00-19:00
더샵갤러리,전시/기념관,37.52460391,127.03378,서울특별시 강남구 신사동 633-3,1577-8674,09:00-18:00
더숲아트시네마,영화/연극/공연,37.65417942,127.061435,서울특별시 노원구 상계동 727-1,02-951-0206,10:00-22:00
더스마티움,전시/기념관,37.47575693,127.105601,서울특별시 강남구 자곡동 591,02-459-1971,"운영시간 : 평 일 (10:00-16:00),관람회차 : 2 회 (10시,14시)"
더스윙블랙,대형체육시설,37.54992752,127.175866,서울특별시 강동구 상일동 502-2,0507-1386-0783,"평일 06:00-23:00,주말 09:00-21:00"
더스테이지,영화/연극/공연,37.55634126,126.937303,서울특별시 서대문구 창천동 18-29,02-312-9940,정보없음
더씨어터,영화/연극/공연,37.57405066,127.001659,서울특별시 종로구 효제동 64-2,02-743-3382,정보없음
더이음,전시/기념관,37.54581348,126.955904,서울특별시 마포구 신공덕동 9-26,02-469-3895,매일 09:00-19:00
더작은재단,전시/기념관,37.5833184,126.984816,서울특별시 종로구 가회동 1-29,02-743-1801,정보없음
더킹연습실,영화/연극/공연,37.48394999,126.98636,서울특별시 서초구 방배동 954-25,,00:00-24:00
더프라자 골프 레인지,대형체육시설,37.46913769,127.041632,서울특별시 서초구 양재동 331,0507-1327-6734,"월-금 06:00-23:00,토-일 09:00-23:00"
덕성여자대학교박물관,전시/기념관,37.64950908,127.016395,서울특별시 도봉구 쌍문동 419,02-901-8131,10:00-16:00
덕수궁,명승지,37.56608683,126.973726,서울특별시 중구 정동 5-1,02-771-9951,화-일 09:00-21:00
덕수궁미술관,전시/기념관,37.56608683,126.973726,서울특별시 중구 정동 5-1,02-2022-0600,10:00-18:00
도곡근린공원,공원,37.4900516,127.044951,서울특별시 강남구 도곡동 산 31-8,02-3423-6248,00:00-24:00
도봉구야외눈썰매장,대형레저시설,37.67920106,127.047211,서울특별시 도봉구 도봉동 628,02-1588-3585,정보없음
도봉튜빙눈썰매장,대형레저시설,37.67920106,127.047211,서울특별시 도봉구 도봉동 628,02-990-5114,정보없음
도산안창호기념관,전시/기념관,37.52395086,127.035603,서울특별시 강남구 신사동 649-9,02-541-1800,매일 10:00-17:00
도스토리연구소,관광지,37.50109974,126.856233,서울특별시 구로구 고척동 145-166,02-6326-6769,정보없음
독도상설전시장,전시/기념관,37.57184786,126.976168,서울특별시 종로구 세종로 81-3,02-399-1111,11:00-18:00
독산동잔디축구장,대형체육시설,37.46327361,126.884934,서울특별시 금천구 독산동 1086,02-809-1012,00:00-24:00
돈화문교육전시장,전시/기념관,37.57693514,126.991105,서울특별시 종로구 권농동 127-4,0507-1337-6444,10:00-17:00
동대문디자인플라자,전시/기념관,37.56804459,127.01089,서울특별시 중구 을지로7가 143,02-2153-0000,10:00-20:00
동대문역사문화공원,공원,37.56804459,127.01089,서울특별시 중구 을지로7가 143,02-2266-7188,상시개방
동대문역사문화공원동대문운동장기념관,전시/기념관,37.56804459,127.01089,서울특별시 중구 을지로7가 143,02-2153-0201,화-일 10:00-18:00
동덕아트갤러리,전시/기념관,37.57493292,126.983316,서울특별시 종로구 관훈동 151-4,02-732-6458,10:00-18:00
동덕여대공연예술센터,영화/연극/공연,37.583699,127.003717,서울특별시 종로구 동숭동 1-5,,정보없음
동덕여자대학교공연예술센터,영화/연극/공연,37.58371442,127.003343,서울특별시 종로구 동숭동 1-6,02-940-4578,14:00-22:00
동덕여자대학교박물관,전시/기념관,37.60681483,127.041176,서울특별시 성북구 하월곡동 23-1,02-940-4232,평일 10:00-17:00
동랑연극앙상블,영화/연극/공연,37.5618419,127.006669,서울특별시 중구 장충동1가 31-5,02-778-9651,정보없음
동서울아트홀,영화/연극/공연,37.53416451,127.091891,서울특별시 광진구 구의동 595,02-3436-7777,정보없음
동숭무대소극장,영화/연극/공연,37.58869101,126.999169,서울특별시 종로구 명륜1가 33-30,02-765-7073,정보없음
동연디자인,전시/기념관,37.55921601,126.927592,서울특별시 서대문구 창천동 376,02-588-5255,08:30-17:30
동자아트홀,영화/연극/공연,37.55167943,126.972905,서울특별시 용산구 동자동 45,02-6388-7978,정보없음
동작문화원,영화/연극/공연,37.50444553,126.941088,서울특별시 동작구 상도동 176-3,02-822-8500,정보없음
동화소극장,영화/연극/공연,37.58378095,126.998569,서울특별시 종로구 명륜2가 208-5,02-1661-6981,정보없음
두남재아트센터,영화/연극/공연,37.49550563,127.03106,서울특별시 강남구 역삼동 827-20,02-588-3360,평일 09:00-18:00
두레홀3관,영화/연극/공연,37.58247727,127.003268,서울특별시 종로구 동숭동 1-73,02-744-5978,00:00-24:00
두리춤터,영화/연극/공연,37.49310443,126.98915,서울특별시 서초구 방배동 794-29,02-533-2141,정보없음
두산아트센터,영화/연극/공연,37.57181233,127.001,서울특별시 종로구 연지동 270,02-708-5001,정보없음
두산아트센터스페이스111,영화/연극/공연,37.57181233,127.001,서울특별시 종로구 연지동 270,02-708-5001,"월요일 오전 10:00-오후 7:00,화요일 오전 10:00-오후 10:00수요일 오전 10:00-오후 10:00,목요일 오전 10:00-오후 10:00,금요일 오전 10:00-오후 10:00,토요일 오전 10:00-오후 10:00,일요일 오전 10:00-오후 10:00"
둘로스소극장,영화/연극/공연,37.56927909,126.990727,서울특별시 종로구 관수동 112,02-2266-0955,매일 00:00-24:00
둘리뮤지엄,전시/기념관,37.65242986,127.027639,서울특별시 도봉구 쌍문동 산 240-5,02-990-2200,"1회차 10:00-13:00,2회차 14:00-17:00"
드림시어터,영화/연극/공연,37.58226095,127.002772,서울특별시 종로구 동숭동 1-63,0507-1327-0221,정보없음
드림전시관,전시/기념관,37.57215064,126.977792,서울특별시 종로구 세종로 100,,정보없음
드림플러스투어,영화/연극/공연,37.48375305,127.126486,서울특별시 송파구 문정동 89-10,02-1544-8015,09:30-18:00
드림하우스갤러리,전시/기념관,37.53734941,127.011572,서울특별시 용산구 한남동 50-1,080-783-3000,정보없음
드림홀,영화/연극/공연,37.55030958,126.915803,서울특별시 마포구 서교동 394-44,,09:00-00:00
디앤지홀,영화/연극/공연,37.50843284,127.11608,서울특별시 송파구 방이동 124-12,0507-1406-8829,24시간 운영연중무휴
디에스엠아트홀,영화/연극/공연,37.57297651,126.974351,서울특별시 종로구 도렴동 65,,00:00-24:00
디에스와이글로벌,전시/기념관,37.52077514,127.020714,서울특별시 강남구 신사동 523-14,02-3141-0232,정보없음
디자인멀티플래닝,전시/기념관,37.49107148,126.983026,서울특별시 서초구 방배동 2267,02-533-1280,정보없음
디지털한글박물관,전시/기념관,37.57915505,126.813835,서울특별시 강서구 방화동 827,02-2124-6200,정보없음
디지티컨텐츠공방,영화/연극/공연,37.54364576,126.946893,서울특별시 마포구 염리동 172-15,,공연에따라
디커뮤니케이션,전시/기념관,37.48684563,127.12049,서울특별시 송파구 문정동 642-3,02-332-8011,정보없음
디큐브아트센터,영화/연극/공연,37.50812307,126.888213,서울특별시 구로구 신도림동 692,02-2211-3000,"화-금 11:00-20:00, 주말 11:00-19:00"
딜쿠샤,전시/기념관,37.57304231,126.963476,서울특별시 종로구 행촌동 1-89,070-4126-8853,10:00-17:30
딴따라댄스홀,영화/연극/공연,37.55918855,126.920883,서울특별시 마포구 연남동 568-51,,정보없음
떡부엌살림박물관,전시/기념관,37.57489958,126.990638,서울특별시 종로구 와룡동 164-2,02-741-5447,10:00-18:00
뚝섬미술관,전시/기념관,37.54721278,127.048359,서울특별시 성동구 성수동1가 656-281,02-555-5035,"월-금 10:00-19:00, 토-일 10:00-20:00"
뚝섬유수지체육공원정수식물원,관광지,37.54839879,127.040626,서울특별시 성동구 성수동1가 676-5,02-460-2905,매일 05:30-21:00
뚝섬한강공원,공원,37.5278619,127.073807,서울특별시 광진구 자양동 435,02-3780-0521,00:00-24:00
뚝섬한강공원뚝섬눈썰매장,대형레저시설,37.5297972,127.067887,서울특별시 광진구 자양동 112,02-3780-0847,기간별 상이
뚝섬한강공원전망문화콤플렉스,영화/연극/공연,37.53087732,127.065983,서울특별시 광진구 자양동 97-5,02-3780-0517,평일 및 주말 10:00-21:00
뜻밖의극장,영화/연극/공연,37.59228802,127.018008,서울특별시 성북구 동선동1가 85-79,02-921-5080,정보없음
띠아트,영화/연극/공연,37.55280429,126.922691,서울특별시 마포구 서교동 358-121,0507-1354-9894,매일 11:00-20:00
라디오가가,영화/연극/공연,37.55230423,126.913832,서울특별시 마포구 서교동 384-12,02-335-1251,10:00-22:00
라메르갤러리,전시/기념관,37.57258198,126.984868,서울특별시 종로구 관훈동 198-1,0507-1361-5454,"화요일 10:30-12:00, 수-월 10:30-18:00"
라온아트홀,영화/연극/공연,37.58185298,127.002805,서울특별시 종로구 동숭동 1-61,0507-1366-4076,11:00-20:00
라움아트센터,영화/연극/공연,37.50839127,127.039775,서울특별시 강남구 역삼동 680-1,02-538-3366,매일 09:00-21:00
라율아트홀,영화/연극/공연,37.48244524,127.012615,서울특별시 서초구 서초동 1451-38,02-522-7278,10:00-18:00
라트어린이극장,영화/연극/공연,37.48428837,127.042315,서울특별시 강남구 도곡동 514-2,02-560-0999,10:00-17:00
래미안갤러리,전시/기념관,37.47925202,127.120139,서울특별시 송파구 문정동 623,1588-3588,10:00-18:00
럭키골프클럽,대형체육시설,37.63831832,127.028655,서울특별시 강북구 번동 417-106,02-998-4888,매일06:00-22:00
레드빅스페이스,영화/연극/공연,37.55213295,126.919458,서울특별시 마포구 서교동 372-9,02-323-8544,24시간 운영
레드힐골프스튜디오,대형체육시설,37.48737263,127.00459,서울특별시 서초구 서초동 1507-20,0507-1346-8587,매일 10:00-22:00
레인지엑스,대형체육시설,37.55385711,127.143944,서울특별시 강동구 명일동 306-1,02-426-7707,"월-금 06:30-23:00,토-일 09:00-21:00"
레인지엑스반포,대형체육시설,37.50105393,127.011633,서울특별시 서초구 반포동 51-5,02-595-8114,06:30-22:30
레인지엑스삼성,대형체육시설,37.5078269,127.061059,서울특별시 강남구 대치동 945,02-553-1872,"평일 06:30-22:30,주말 09:00-19:00"
렘넌트문화센터,영화/연극/공연,37.55797384,126.849189,서울특별시 강서구 등촌동 659,02-3661-2000,정보없음
로봇과학관(2023년1월예정),전시/기념관,37.65552277,127.048958,서울특별시 도봉구 창동 1-7,,정보없음
로봇스토리,전시/기념관,37.51896944,126.933291,서울특별시 영등포구 여의도동 53-1,02-792-4400,정보없음
로얄아트앤뮤직코리아,영화/연극/공연,37.48689948,127.015459,서울특별시 서초구 서초동 1623-12,02-532-1725,08:00-23:00
로얄크루져,대형레저시설,37.53481462,126.911584,서울특별시 영등포구 여의도동 81-8,0507-1408-5243,"평일 11:00-06:30,"
로운아뜨리움,영화/연극/공연,37.52707541,126.870746,서울특별시 양천구 목동 923-6,02-2061-9500,매일 09:30-19:00
로운아트홀,영화/연극/공연,37.52707541,126.870746,서울특별시 양천구 목동 923-6,02-2061-2600,9:00-19:00
로즈아트홀,영화/연극/공연,37.61638248,127.063266,서울특별시 노원구 월계동 68-25,02-9876-5689,00:00-24:00
록갤러리,전시/기념관,37.57320793,126.986576,서울특별시 종로구 인사동 11,02-738-2398,11:00-17:00
롤러팩토리,영화/연극/공연,37.53488435,126.903081,서울특별시 영등포구 당산동6가 296,070-8805-4613,정보없음
롤링뮤지엄,전시/기념관,37.53731405,126.978466,서울특별시 용산구 용산동1가 8,02-709-3200,10:00-18:00
롤링스톤즈,영화/연극/공연,37.55636159,126.932677,서울특별시 마포구 동교동 185-1,02-332-9439,정보없음
롤링홀,영화/연극/공연,37.54849752,126.920121,서울특별시 마포구 서교동 402-22,02-325-6071,매일 12:00-22:00
롯데백화점본점샤롯데홀,영화/연극/공연,37.5647299,126.98173,서울특별시 중구 소공동 1,,매일11:00-20:00
롯데월드,관광지,37.51130961,127.098142,서울특별시 송파구 잠실동 40-1,1661-2000,10:00-22:00
롯데월드몰롯데월드아쿠아리움,관광지,37.51375196,127.104447,서울특별시 송파구 신천동 29,1661-2000,10:00-22:00
롯데월드민속박물관,전시/기념관,37.51130961,127.098142,서울특별시 송파구 잠실동 40-1,1661-2000,주중11:00-19:00 주말및공휴일11:00-20:00
롯데월드민속박물관놀이마당,영화/연극/공연,37.51130961,127.098142,서울특별시 송파구 잠실동 40-1,02-411-2000,"주중: 11 : 00am 19 : 00pm,입장 및 매표 마감시간 18:30,주말 및 공휴일,11 : 00am 20 : 00pm,입장 및 매표 마감시간 19:00"
롯데월드샤롯데씨어터,영화/연극/공연,37.51130961,127.098142,서울특별시 송파구 잠실동 40-1,1644-0078,정보없음
롯데월드언더씨킹덤,관광지,37.63753667,126.9179,서울특별시 은평구 진관동 63,,정보없음
롯데콘서트홀,영화/연극/공연,37.51375196,127.104447,서울특별시 송파구 신천동 29,1544-7744,정보없음
루벤,전시/기념관,37.57286526,126.985653,서울특별시 종로구 인사동 186,02-738-0321,매주 금요일은 작가 재량
루츠알레씨스토어,영화/연극/공연,37.52556298,127.048174,서울특별시 강남구 청담동 117-38,02-2064-3373,11:00-20:00
룸어씨어터,영화/연극/공연,37.58229402,127.002561,서울특별시 종로구 동숭동 1-58,,화-일 13:00-20:00
뤼미에르,전시/기념관,37.57177712,126.970538,서울특별시 종로구 신문로2가 1-116,02-517-2134,10:00-19:00
르메이에르씨어터,영화/연극/공연,37.58075445,127.004174,서울특별시 종로구 동숭동 1-145,02-747-2232,정보없음
리더스VSE골프,대형체육시설,37.46575802,127.101226,서울특별시 강남구 세곡동 581,02-451-0708,"평일 07:00-23:00,주말 09:00-19:00"
리디안뮤직,영화/연극/공연,37.55442013,126.930351,서울특별시 마포구 창전동 5-73,070-8223-9945,"평일,일요일 10:00-22:30,목,금,토요일 10:00-22:30"
리쉬이야기,전시/기념관,37.51644895,127.01688,서울특별시 서초구 잠원동 10-28,02-3448-1110,"평일,09:30-18:00"
리즈아뜰리에,영화/연극/공연,37.55251545,126.873542,서울특별시 강서구 염창동 298,070-4671-7748,매일 10:30-20:30
리코디아아트홀,영화/연극/공연,37.5095633,127.018618,서울특별시 서초구 반포동 703-12,02-582-8715,정보없음
리홀아트갤러리,전시/기념관,37.59456901,126.990966,서울특별시 성북구 성북동 279-2,02-336-6877,12:00-18:00
마노갤러리,전시/기념관,37.58518552,126.985437,서울특별시 종로구 가회동 1-71,02-514-8888,11:00-18:00
마당세실극장,영화/연극/공연,37.5786826,127.004642,서울특별시 종로구 동숭동 192-18,02-742-8836,00:00-24:00
마들근린공원노원마들스타디움,대형체육시설,37.64438255,127.059922,서울특별시 노원구 상계동 770-2,02-2289-6855,06:00-22:00
마로니에다목적홀,영화/연극/공연,37.580334,127.002515,서울특별시 종로구 동숭동 1-124,,정보없음
마로니에야외공연장,영화/연극/공연,37.580334,127.002515,서울특별시 종로구 동숭동 1-124,,정보없음
마루아트홀,영화/연극/공연,37.58229402,127.002561,서울특별시 종로구 동숭동 1-58,070-4618-5753,정보없음
마리아칼라스홀,영화/연극/공연,37.50249514,127.066034,서울특별시 강남구 대치동 983-10,02-558-4588,정보없음
마스크오브미라클,대형체육시설,37.57105683,127.075114,서울특별시 동대문구 장안동 336,,06:00-00:00
마을예술창작소닷라인TV,전시/기념관,37.58502422,126.939126,서울특별시 서대문구 홍제동 356-102,070-4312-9098,평일 09:00-18:00
마인드디자인,전시/기념관,37.52481818,127.047811,서울특별시 강남구 청담동 119-9,02-2231-2011,정보없음
마포구_1711-01서울유아숲체험장,관광지,37.5795486,126.883109,서울특별시 마포구 상암동 1761,02-3153-9553,상시개방
마포아트센터아트홀맥,영화/연극/공연,37.54990609,126.945534,서울특별시 마포구 대흥동 30-3,02-3274-8600,정보없음
마포아트센터플레이맥,영화/연극/공연,37.54990609,126.945534,서울특별시 마포구 대흥동 30-3,02-3274-8600,정보없음
만들기체험학습장,전시/기념관,37.53707416,126.828182,서울특별시 양천구 신월동 51-2,02-2698-3829,10:00-18:00
만리동예술인주택,영화/연극/공연,37.55419456,126.962088,서울특별시 중구 만리동2가 218-105,02-3147-1206,09:00-1800
만물전시관,전시/기념관,37.54281953,126.991122,서울특별시 용산구 이태원동 260-17,02-795-9625,정보없음
만천곤충,전시/기념관,37.52026381,126.901353,서울특별시 영등포구 영등포동4가 151-2,02-2675-8724,매일10:00-18:00
맑은샘아트홀,영화/연극/공연,37.50536204,126.889371,서울특별시 구로구 구로동 8-16,,24시간 운영
맛있는극장,영화/연극/공연,37.58624869,127.00075,서울특별시 종로구 혜화동 109-4,0507-1349-1084,매일 10:00-20:00
망원한강공원,공원,37.55166181,126.911756,서울특별시 마포구 합정동,02-3780-0601,00:00-24:00
매듭박물관(동림매듭공방),전시/기념관,37.58178357,126.985613,서울특별시 종로구 가회동 11-7,02-3673-2778,10:00-18:00
메가쇼,전시/기념관,37.50948867,127.056065,서울특별시 강남구 삼성동 156-13,02-6677-3477,정보없음
메디컬코리아,전시/기념관,37.51182391,127.059159,서울특별시 강남구 삼성동 159,070-4710-2991,정보없음
메리홀소극장,영화/연극/공연,37.55146931,126.943025,서울특별시 마포구 신수동 1-1,02-705-8743,10:00-22:00
메쎄E앤D,전시/기념관,37.55277886,127.076787,서울특별시 광진구 군자동 243,02-515-4885,정보없음
메종드라뮤지끄,영화/연극/공연,37.48360599,127.059738,서울특별시 강남구 개포동 168-11,02-3462-4982,정보없음
명동난타극장,영화/연극/공연,37.56345745,126.983765,서울특별시 중구 명동2가 50-14,02-739-8288,공연일정확인
명동성당꼬스트홀,영화/연극/공연,37.56367587,126.986776,서울특별시 중구 명동2가 1-1,02-778-6295,09:00-19:00
명동성당문화관,전시/기념관,37.56367587,126.986776,서울특별시 중구 명동2가 1-1,02-774-1784,09:00-19:00
명동예술극장,영화/연극/공연,37.56404145,126.984202,서울특별시 중구 명동1가 54,1644-2003,정보없음
명인박물관,전시/기념관,37.58016659,126.985186,서울특별시 종로구 가회동 208-7,02-766-0272,10:00-18:00
명인의전당,전시/기념관,37.47771881,127.009818,서울특별시 서초구 서초동 740-4,02-580-3300,"09:00-18:00, 공연이 있는 날은 21:00까지 연장 운영"
명일공원서울유아숲체험현장,관광지,37.54925832,127.164574,서울특별시 강동구 상일동 산 26-1,02-3425-6444,상시개방
명작극장,영화/연극/공연,37.58229402,127.002561,서울특별시 종로구 동숭동 1-58,02-747-9988,정보없음
모던아트그룹,전시/기념관,37.60317462,126.927508,서울특별시 은평구 녹번동 83-54,02-391-0685,9:00-18:00
모스틀리필하모닉오케스트라,영화/연극/공연,37.53485709,127.000269,서울특별시 용산구 한남동 685-46,02-3285-8808,정보없음
모차르트홀,영화/연극/공연,37.48641666,127.004525,서울특별시 서초구 서초동 1515-3,02-3472-8222,정보없음
목금토갤러리,전시/기념관,37.58227606,127.003645,서울특별시 종로구 동숭동 1-80,02-764-0700,"10:00-18:00, 공휴일 12:00-18:00"
목동종합운동장,대형체육시설,37.53072795,126.879233,서울특별시 양천구 목동 914,02-2640-3848,"하절기(4-9월) : 조기 05:00-08:00, 주간 08:00-19:00, 야간 19:00-05:00 동절기(10-3월) : 조기 06:00-09:00, 주간 09:00-18:00, 야간 18:00-06:00"
목동종합운동장목동야구장,대형체육시설,37.53072795,126.879233,서울특별시 양천구 목동 914,02-2640-3808,"하절기(4-9월) : 조기 05:00-08:00, 주간 08:00-19:00, 야간 19:00-05:00 동절기(10-3월) : 조기 06:00-09:00, 주간 09:00-18:00, 야간 18:00-06:00"
몬스터스쿨,영화/연극/공연,37.58153326,127.004302,서울특별시 종로구 동숭동 50-44,0507-1305-3249,공연에따라
몬스터코리아오피셜,전시/기념관,37.51464285,127.02721,서울특별시 강남구 논현동 39-1,,정보없음
몸과마음연구원,영화/연극/공연,37.53728425,126.964406,서울특별시 용산구 원효로2가 8-35,050-2110-0114,정보없음
몽유도원도전시관,전시/기념관,37.59161102,126.963343,서울특별시 종로구 부암동 328-2,02-379-7131,9:00-18:00
몽촌토성몽촌역사관,전시/기념관,37.5203397,127.115518,서울특별시 송파구 방이동 88,02-2152-5900,09:00-18:00
무중력지대,영화/연극/공연,37.59735327,127.015043,서울특별시 성북구 동선동5가 147-10,070-4042-2018,"평일 10:00-22:00,토요일 12:00-19:00"
무중력지대,영화/연극/공연,37.53470865,126.902088,서울특별시 영등포구 당산동6가 305-4,02-2671-2225,10:00-22:00
무중력지대무악재,전시/기념관,37.5824248,126.950579,서울특별시 서대문구 홍제동 26-1,02-6385-0009,"평일 10-21, 토요일 11-17"
묵전서예,영화/연극/공연,37.62089857,127.080865,서울특별시 노원구 공릉동 270-25,,13:00-20:30
문래예술공장,영화/연극/공연,37.51321703,126.900126,서울특별시 영등포구 문래동1가 30,02-2676-4300,정보없음
문래예술종합지원센터,영화/연극/공연,37.51301035,126.894145,서울특별시 영등포구 문래동2가 20-2,02-2634-2220,"11:00-20:00,토 11:00-18:00"
문학의집서울,영화/연극/공연,37.55836557,126.989372,서울특별시 중구 예장동 2-20,02-778-1026,월-토 10시-17시까지
문화공간아이원,영화/연극/공연,37.4488043,126.902416,서울특별시 금천구 시흥동 987-12,02-3286-0077,10:00-19:00
문화공간이육사,전시/기념관,37.59813809,127.032602,서울특별시 성북구 종암동 65-13,02-928-0264,10:00-18:00
문화비축기지,관광지,37.57034669,126.895031,서울특별시 마포구 성산동 670,02-376-8410,10:00-18:00
문화연구원소금향,영화/연극/공연,37.55501987,126.967199,서울특별시 중구 만리동1가 62-7,0507-1311-7420,월-금 09:00-18:00
문화예술공원유아숲체험장,관광지,37.46988402,127.032022,서울특별시 서초구 양재동 200,02-2155-6863,매일09:00-18:00
문화일보홀,영화/연극/공연,37.56712921,126.968645,서울특별시 중구 충정로1가 68,02-3701-5832,정보없음
문화정원아트홀,영화/연극/공연,37.4718013,126.896009,서울특별시 금천구 독산동 296-9,02-839-1155,00:00-24:00
물빛극장,영화/연극/공연,37.58030622,127.003529,서울특별시 종로구 동숭동 1-133,02-6404-5005,정보없음
뭐든지소극장,영화/연극/공연,37.57669052,127.01001,서울특별시 종로구 창신동 630-1,0504-1380-2462,09:00-22:00
뮤지스땅스,영화/연극/공연,37.55488999,126.957692,서울특별시 마포구 아현동 735-1,02-313-7865,정보없음
뮤지엄김치간,전시/기념관,37.57341354,126.985059,서울특별시 종로구 관훈동 196-10,02-6002-6456,화요일-일요일 10:00-18:00 (마지막 입장 17:30)
뮤지엄스쿨,관광지,37.49865828,127.03295,서울특별시 강남구 역삼동 823-26,0507-1334-3239,정보없음
뮤지컬하우스호연재,영화/연극/공연,37.55263918,127.008474,서울특별시 중구 신당동 353-8,02-2234-3687,공연일정
뮤직쇼웨딩전용관,영화/연극/공연,37.55319621,126.921175,서울특별시 마포구 서교동 357-5,02-739-8288,정보없음
뮤팩,영화/연극/공연,37.56496903,127.035915,서울특별시 성동구 홍익동 133,,24시간 영업
미당서정주의집,전시/기념관,37.47344652,126.9734,서울특별시 관악구 남현동 1071-11,02-879-5609,화-일 10:00-18:00 (동절기 1-2월 10:00-17:00)
미디액트,영화/연극/공연,37.55446945,126.931024,서울특별시 마포구 창전동 5-5,02-3141-6300,"평일 10:00-22:30,주말 10:00-18:30"
미래전람,전시/기념관,37.52079083,126.926912,서울특별시 영등포구 여의도동 36-2,02-2238-0345,10:00-18:00
미송아트홀,영화/연극/공연,37.5837539,126.99742,서울특별시 종로구 명륜3가 127,0507-1330-5791,매일10:00-23:00
미술문화,전시/기념관,37.57209731,126.985392,서울특별시 종로구 인사동 194-4,02-720-4646,"평일: 10:00-18:30, 주말: 10:30-18:00"
미아리예술극장,영화/연극/공연,37.5977556,127.021265,서울특별시 성북구 돈암동 641-1,02-6956-9045,정보없음
미즈메디문화센터,영화/연극/공연,37.55248441,126.835412,서울특별시 강서구 내발산동 700-14,1588-2701,08:30-17:30
민속극장풍류,영화/연극/공연,37.51009307,127.044625,서울특별시 강남구 삼성동 112-2,02-3011-2178,정보없음
민주인권기념관,전시/기념관,37.54094595,126.971538,서울특별시 용산구 갈월동 98-8,031-361-9574,정보없음
밀물아트센타,전시/기념관,37.47366813,127.052932,서울특별시 강남구 개포동 1166,02-578-6810,정보없음
밀알미술관,전시/기념관,37.48578186,127.082072,서울특별시 강남구 일원동 713,02-3412-0061,09:30-17:00
바라아트홀,영화/연극/공연,37.52369998,127.026511,서울특별시 강남구 신사동 569-2,02-3445-0153,정보없음
바라캇서울,영화/연극/공연,37.58086403,126.980654,서울특별시 종로구 소격동 55,02-730-1949,"화-일요일, 10:00-18:00"
바로크챔버홀,영화/연극/공연,37.48173214,127.014511,서울특별시 서초구 서초동 1450-2,02-3473-2500,정보없음
바이오코리아,전시/기념관,37.51182391,127.059159,서울특별시 강남구 삼성동 159,1661-0810,9:00-18:00
박노수미술관,전시/기념관,37.5813192,126.966819,서울특별시 종로구 옥인동 168-2,02-2148-4171,10:00-18:00
박물관은살아있다,전시/기념관,37.57189615,126.987231,서울특별시 종로구 인사동 43,02-2034-0600,매일11:00-18:00(입장마감 17:00)
박여숙화랑,전시/기념관,37.54409716,126.990253,서울특별시 용산구 이태원동 262-23,0507-1445-7575,10:00-18:00
박을복자수박물관,전시/기념관,37.65381553,127.008489,서울특별시 강북구 우이동 86-4,02-990-7000,월-금 12:00-17:00
반딧불이유아숲체험장,관광지,37.64915283,127.040085,서울특별시 도봉구 창동 677,02-2091-3756,상시개방
반얀트리클럽앤스파서울눈썰매장,대형레저시설,37.55007101,127.000497,서울특별시 중구 장충동2가 201,02-2250-8000,매일 11:00-18:00
반줄,영화/연극/공연,37.56906835,126.986184,서울특별시 종로구 관철동 12-16,02-735-5437,"평일 11:30-22:20, 토 12:30-22:20, 일 13:30-21:20"
반포공설운동장,대형체육시설,37.50053764,126.994264,서울특별시 서초구 반포동 15-2,02-2155-8711,"평일 06:00-22:00 ,주말 06:00-22:00"
반포한강공원,공원,37.513114,127.001705,서울특별시 서초구 잠원동 122-1,02-591-5943,24시간
밤섬생태체험관,전시/기념관,37.53254326,126.931788,서울특별시 영등포구 여의도동 84-6,,10:00-17:00
방배공원서울유아숲체험현장,관광지,37.47817159,126.99478,서울특별시 서초구 방배동 산 44,02-2155-6114,정보없음
방이동생태학습관,전시/기념관,37.51213193,127.140302,서울특별시 송파구 방이동 443-15,02-2147-3380,금 오후 2시-3시 30분
배명야구장,대형체육시설,37.49865269,127.097556,서울특별시 송파구 석촌동 220,02-414-5820,문의
배봉산공원서울유아숲체험현장,관광지,37.58404643,127.065311,서울특별시 동대문구 휘경동 43-54,02-2127-4772,상시개방
배봉산유아숲체험장,관광지,37.5875347,127.066793,서울특별시 동대문구 휘경동 산 6-35,02-2127-4772,상시개방
배재학당역사박물관,전시/기념관,37.56378783,126.972089,서울특별시 중구 정동 34-5,02-319-5578,오전 10시-오후5시
백련공원,공원,37.58691863,126.927452,서울특별시 서대문구 홍은동 산 11-2,02-330-1395,00:00-24:00
백련산매바위유아숲체험장,관광지,37.5841633,126.930589,서울특별시 서대문구 홍은동 산 19-19,02-330-1776,정보없음
백석콘서바토리,영화/연극/공연,37.48075395,126.996678,서울특별시 서초구 방배동 981-10,02-520-0690,정보없음
백성희장민호극장,영화/연극/공연,37.55314654,126.968279,서울특별시 용산구 서계동 1,1644-2003,정보없음
백송화랑,전시/기념관,37.573304,126.985298,서울특별시 종로구 관훈동 197-9,02-730-5824,매일 10:30-19:00
백악미술관,전시/기념관,37.57363884,126.984139,서울특별시 종로구 관훈동 192-21,02-734-4205,"10:00-18:00, 수요일 10:00-15:00"
백암아트홀,전시/기념관,37.51067112,127.065879,서울특별시 강남구 삼성동 170-5,02-559-1333,정보없음
백제예술대학아트센터,영화/연극/공연,37.51067112,127.065879,서울특별시 강남구 삼성동 170-5,02-559-1333,정보없음
백지장지하창고,영화/연극/공연,37.49500529,126.893739,서울특별시 구로구 구로동 73-10,,00:00-24:00
베리컴퍼니1관,영화/연극/공연,37.58232369,127.004776,서울특별시 종로구 동숭동 25-25,02-3674-2525,공연일정확인
베이커리페어,전시/기념관,37.51182391,127.059159,서울특별시 강남구 삼성동 159,02-6000-1422,정보없음
베짱이유아숲체험장,관광지,37.46736547,126.909969,서울특별시 금천구 독산동 산 199-1,02-2627-1655,정보없음
베짱이홀,영화/연극/공연,37.54846765,126.921536,서울특별시 마포구 상수동 313-3,02-322-4241,정보없음
베토벤하우스,영화/연극/공연,37.48600572,127.010108,서울특별시 서초구 서초동 1536-6,02-584-0845,정보없음
베페,전시/기념관,37.51182391,127.059159,서울특별시 강남구 삼성동 159,02-556-2236,2023년 2월 9일(목)-12일(일) 10:00-18:00
벤처,전시/기념관,37.52830994,126.91967,서울특별시 영등포구 여의도동 15-14,,정보없음
변종하기념미술관,전시/기념관,37.59824682,126.985995,서울특별시 성북구 성북동 330-484,02-764-2591,10:00-15:00
보나장신구박물관,전시/기념관,37.57367857,126.984735,서울특별시 종로구 관훈동 192-11,02-732-6621,10:30-18:30
보라매공원,공원,37.4938686,126.921806,서울특별시 동작구 신대방동 722,02-2181-1190,00:00-24:00
보라매안전체험관,전시/기념관,37.49277134,126.917025,서울특별시 동작구 신대방동 722,02-2027-4100,9:00-17:00
보원요,영화/연극/공연,37.57426477,126.984877,서울특별시 종로구 관훈동 38,,정보없음
복합문화공간몽향,영화/연극/공연,37.55652399,126.934996,서울특별시 서대문구 창천동 62-11,0507-1327-7580,"매일,00:00-24:00"
본다빈치,전시/기념관,37.51660215,127.065741,서울특별시 강남구 삼성동 100-6,02-540-0329,오전 10시-오후 8시
봄날아트홀,영화/연극/공연,37.57999004,127.004253,서울특별시 종로구 동숭동 1-153,0507-1303-7883,수-월 13:00-22:00
봄스크린,대형체육시설,37.48570578,126.895513,서울특별시 구로구 구로동 191-7,0507-1356-7896,07:00-24:00
봉제역사관이음피움,전시/기념관,37.57481417,127.010374,서울특별시 종로구 창신동 647-50,02-747-6471,"전시: 화-일 10:00-18:00, 체험: 화-일 10:30-17:00"
봉화산옹기테마공원,관광지,37.61265372,127.088519,서울특별시 중랑구 신내동 777,,정보없음
봉화산유아숲체험장,관광지,37.61513774,127.085097,서울특별시 중랑구 묵동 23-1,02-2094-2385,상시개방
부띠크모나코뮤지엄,전시/기념관,37.49743406,127.024517,서울특별시 서초구 서초동 1316-5,02-535-5844,정보없음
북극곰소극장,영화/연극/공연,37.57738079,127.005733,서울특별시 종로구 이화동 28-18,,정보없음
북서울꿈의숲,공원,37.62025446,127.044325,서울특별시 강북구 번동 90,02-2289-4000,00:00-24:00
북아현아트홀,영화/연극/공연,37.56183981,126.955438,서울특별시 서대문구 북아현동 1012-2,02-360-8667,09:00-18:00
북촌나래홀,영화/연극/공연,37.57886034,126.988435,서울특별시 종로구 원서동 174,02-988-2258,정보없음
북촌동양문화박물관,전시/기념관,37.58399035,126.98337,서울특별시 종로구 삼청동 35-35,02-723-0190,10:30-19:00
북촌문화센터,영화/연극/공연,37.57908833,126.986276,서울특별시 종로구 계동 105,02-2133-1371,월요일-금요일 9:00-18:00 / 토요일-일요일 09:00-17:00
북촌박물관,전시/기념관,37.58043233,126.984767,서울특별시 종로구 가회동 170-4,02-766-8402,"평일 10:00-18:00,토요일 10:00-18:00"
북촌생활사박물관,전시/기념관,37.58449548,126.982997,서울특별시 종로구 삼청동 35-177,02-736-3957,"화-일 10:00-18:00,동절기 11:00-17:00"
북촌전망대,영화/연극/공연,37.58308342,126.982779,서울특별시 종로구 삼청동 35-62,0507-1311-5688,11:00-19:30
북촌전통공예체험관,영화/연극/공연,37.58252379,126.986029,서울특별시 종로구 가회동 11-91,02-741-2148,"매일 10:00-18:00 3-11월,매일 10:00-17:00 11-2월"
북촌창우극장,영화/연극/공연,37.5789075,126.98886,서울특별시 종로구 원서동 158-1,070-8098-4416,정보없음
북촌한옥역사관,전시/기념관,37.5823065,126.987062,서울특별시 종로구 계동 25,02-747-8630,10:00-18:00
북한산공원서울유아숲체험현장,관광지,37.62108049,127.008412,서울특별시 강북구 미아동 산 108-19,02-901-6927,상시개방
북한산캠핑장,관광지,37.65015822,126.937826,서울특별시 은평구 진관동 330-14,02-381-3947,정보없음
분재박물관,전시/기념관,37.45313676,127.075803,서울특별시 서초구 내곡동 1-376,02-577-0002,"09:00-19:00, 일요일 12:00-19:00"
불과얼음,영화/연극/공연,37.54942741,126.909358,서울특별시 마포구 합정동 393-18,02-596-5518,정보없음
불교미술전시관,전시/기념관,37.57442907,126.982615,서울특별시 종로구 견지동 39-7,02-734-8369,정보없음
불교중앙박물관,전시/기념관,37.57389314,126.981882,서울특별시 종로구 견지동 46-1,02-2011-1960,"하절기(3월-10월) AM 10:00-PM 18:00,동절기(11월-2월) AM 10:00-PM 17:00"
불암산공원서울유아숲체험장,관광지,37.64335737,127.10885,서울특별시 노원구 공릉동 26-21,02-2116-0545,정보없음
불암산공원서울유아숲체험현장,관광지,37.65442716,127.082718,서울특별시 노원구 중계동 산 95-1,02-2116-0545,정보없음
불암산나비정원,전시/기념관,37.65548005,127.080632,서울특별시 노원구 중계동 산 42-3,02-936-0900,10:00-17:00 (입장마감 16:30)
불암산산림치유센터,관광지,37.65407051,127.081094,서울특별시 노원구 중계동 산 95-2,02-2116-0545,10:00-16:00
불암산생태학습관,전시/기념관,37.65622302,127.080337,서울특별시 노원구 중계동 산 40-4,02-2116-2725,정보없음
불암산스포츠타운 축구장,대형체육시설,37.63877923,127.08324,서울특별시 노원구 공릉동 141,02-2289-6855,"06:00-22:00, 기상상황에 따라 조명 변동"
불암산종합스타디움야구장,대형체육시설,37.63877923,127.08324,서울특별시 노원구 공릉동 141,02-2289-6858,06:00-22:00
브라질문화원,영화/연극/공연,37.46803806,126.959294,서울특별시 관악구 신림동 산 56-1,,월-금 : 10:00-19:00 (점심시간 12:00-13:00 휴관)
브릭스씨어터,영화/연극/공연,37.5809598,127.003708,서울특별시 종로구 동숭동 1-93,0507-1379-8281,정보없음
브이매직,영화/연극/공연,37.55469418,127.077783,서울특별시 광진구 군자동 1-10,02-443-7765,정보없음
브이센터,전시/기념관,37.56539313,127.147715,서울특별시 강동구 고덕동 402-6,070-4278-8470,"토,일 11:00-18:00 (17:00 입장마감)"
블라인드아트홀,영화/연극/공연,37.53766929,127.079897,서울특별시 광진구 자양동 774-23,0507-1321-2182,00:00-24:00
블랙박스공공,영화/연극/공연,37.583699,127.003717,서울특별시 종로구 동숭동 1-5,1577-0369,"평일(월-금) 9:00-20:00, 주말 및 공휴일 10:00-18:00"
블랙아트,전시/기념관,37.56200053,126.986564,서울특별시 중구 충무로2가 11-1,02-2201-4568,평일 10:00-21:30 티켓마감 20:30
블러섬랜드,영화/연극/공연,37.5452785,126.926324,서울특별시 마포구 상수동 271,0507-1422-8599,평일 02:00-24:00
블루스퀘어,영화/연극/공연,37.54086944,127.002485,서울특별시 용산구 한남동 727-56,1544-1591,정보없음
블루스퀘어신한카드홀,영화/연극/공연,37.54086944,127.002485,서울특별시 용산구 한남동 727-56,1544-1591,정보없음
비볼드커뮤니케이션즈,전시/기념관,37.5725433,126.998643,서울특별시 종로구 인의동 28-25,02-2276-0811,정보없음
비젼골프클럽,대형체육시설,37.64825463,127.078487,서울특별시 노원구 중계동 364-14,02-938-7229,06:00-22:00
빛의시어터,전시/기념관,37.55862873,127.111707,서울특별시 광진구 광장동 22-1,1670-2827,"일-목 10:00-19:00, 금-토 10:00-20:00"
사각사각플레이스,영화/연극/공연,37.51762763,127.086736,서울특별시 송파구 잠실동 1-1,02-420-1160,정보없음
사단법인서울특별시미술관협의회,전시/기념관,37.61212183,126.975675,서울특별시 종로구 평창동 465-16,02-6367-7070,정보없음
사당문화회관,영화/연극/공연,37.48471669,126.969613,서울특별시 동작구 사당동 248-6,02-588-4111,"평일 06:00-22:00,토요일 06:00-18:00"
사비나미술관,전시/기념관,37.63019168,126.929193,서울특별시 은평구 진관동 99-8,02-736-4371,10:00-18:00
사비나미술관,전시/기념관,37.57651506,126.984575,서울특별시 종로구 안국동 159,02-736-4371,오전 10시-오후 6시(5시 입장마감)
사유,영화/연극/공연,37.53805103,127.001937,서울특별시 용산구 한남동 682-5,02-2289-9050,11:00-22:00
사육신역사관,전시/기념관,37.51345799,126.949411,서울특별시 동작구 노량진동 152-3,070-7204-3258,9:00-18:00 / 동절기(11월-2월) 9:00-17:30
사직공원,공원,37.57560348,126.967833,서울특별시 종로구 사직동 1-28,02-739-7205,상시개방
산림문학관,전시/기념관,37.55836557,126.989372,서울특별시 중구 예장동 2-20,02-778-1026,10시-17시
산울림소극장,영화/연극/공연,37.5550833,126.930109,서울특별시 마포구 서교동 327-9,02-334-5915,11:00-18:00
살곶이체육공원축구장,대형체육시설,37.55425506,127.049695,서울특별시 성동구 사근동 102-1,02-2286-6090,00:00-24:00
살롱드H,전시/기념관,37.52128158,127.04845,서울특별시 강남구 청담동 31-2,,정보없음
삼모아트센터,영화/연극/공연,37.48231224,126.929023,서울특별시 관악구 신림동 1638-1,02-883-2667,"월-금: 오전9시-오후5시30분,토요일: 오전9시30분-오후3시"
삼익아트홀,영화/연극/공연,37.51404673,127.029551,서울특별시 강남구 논현동 58-3,0507-1422-1300,00:00-24:00
삼일로갤러리,전시/기념관,37.56347814,126.987985,서울특별시 중구 저동1가 20-2,02-3789-9640,09:00-18:00
삼일로창고극장,영화/연극/공연,37.56347814,126.987985,서울특별시 중구 저동1가 20-2,02-3789-9640,매일 09:00-18:00
삼정스포렉스,대형체육시설,37.60952,126.9217,서울특별시 은평구 대조동 231,02-357-1979,09:00-24:00 새벽시간에도 게임가능
삼정스포츠,대형체육시설,37.60952,126.9217,서울특별시 은평구 대조동 231,02-357-1979,09:00-24:00 새벽시간에도 게임가능
삼주골프연습장,대형체육시설,37.47754335,126.899549,서울특별시 금천구 독산동 954-1,02-857-0500,정보없음
삼청공원,공원,37.58853917,126.985932,서울특별시 종로구 삼청동 산 2-1,02-2148-4150,상시개방
삼청공원유아숲체험장,관광지,37.58797869,126.984087,서울특별시 종로구 삼청동 산 2-2,02-731-0320,상시개방
상도공원서울유아숲체험현장,관광지,37.49925322,126.948006,서울특별시 동작구 상도동 533-3,02-820-1639,상시개방
상도근린공원유아숲체험장,관광지,37.49925322,126.948006,서울특별시 동작구 상도동 533-3,02-820-1639,상시개방
상명대학교박물관,전시/기념관,37.61058458,126.975762,서울특별시 종로구 평창동 577-7,02-781-7920,월-금 10:00-17:00(16:30까지 입장가능)
상명대학교박물관,전시/기념관,37.60410891,126.955159,서울특별시 종로구 홍지동 7-1,02-781-7920,평일 10:00-17:00  하계방학기간 이용시간 10:00-15:00
상명아트센터,영화/연극/공연,37.60410891,126.955159,서울특별시 종로구 홍지동 7-1,02-2287-7186,09:00-22:00
상명아트센터계당홀,영화/연극/공연,37.60410891,126.955159,서울특별시 종로구 홍지동 7-1,02-2287-7186,00:00-24:00
상명아트센터콘서트홀,영화/연극/공연,37.60410891,126.955159,서울특별시 종로구 홍지동 7-1,02-2287-7186,공연일정문의
상명아트홀2관,영화/연극/공연,37.58337305,127.002736,서울특별시 종로구 동숭동 1-38,02-2075-2173,정보없음
상상나눔씨어터,영화/연극/공연,37.49998807,126.884098,서울특별시 구로구 구로동 501,1661-5054,정보없음
상상유니브,영화/연극/공연,37.56386259,126.966155,서울특별시 서대문구 미근동 21-1,02-362-9825,10:00-22:00
상암디지털공연장,영화/연극/공연,37.57701082,126.8901,서울특별시 마포구 상암동 1651,070-7565-7286,정보없음
상원미술관,전시/기념관,37.61162836,126.976569,서울특별시 종로구 평창동 456-5,02-396-3185,10:30-17:30
상원스포월드 골프장,대형체육시설,37.61128641,126.916477,서울특별시 은평구 구산동 1-24,02-383-4842,"평일 08:00-23:00,주말, 공휴일 10:00-18:00"
상표디자인권전,전시/기념관,37.51182391,127.059159,서울특별시 강남구 삼성동 159,02-3459-2794,10:00-17:00
새김아트한국전각예술원,영화/연극/공연,37.58797869,126.984087,서울특별시 종로구 삼청동 산 2-2,02-732-5515,정보없음
새한스크린골프연습장,대형체육시설,37.57506253,127.072572,서울특별시 동대문구 장안동 310-8,02-2216-0252,00:00-24:00
새힘아트홀,영화/연극/공연,37.58814536,127.052407,서울특별시 동대문구 회기동 66-1,,정보없음
샘터화랑,전시/기념관,37.52616492,127.0448,서울특별시 강남구 청담동 80-17,02-514-5122,"월-금 10:00-18:00,토요일 10:00-17:00"
생각꿈틀미술관,전시/기념관,37.47233002,127.043005,서울특별시 서초구 양재동 309,02-578-0270,10:00-18:00
생각하는박물관,전시/기념관,37.58259927,126.987408,서울특별시 종로구 계동 2-59,02-723-7814,10:00-18:00
생명과학박물관,전시/기념관,37.52392536,126.872015,서울특별시 양천구 목동 405-207,02-2654-8887,10:00-18:00
샬트르성바오로수녀회역사박물관,전시/기념관,37.56222799,126.987827,서울특별시 중구 명동2가 1-6,02-3706-3255,"오전 10:00-11:30, 오후 13:30-16:30"
서강대학교박물관,전시/기념관,37.55146931,126.943025,서울특별시 마포구 신수동 1-1,02-705-8215,평일 10:00-15:00(12-13 휴게시간)
서강대학교스티브김아트홀,영화/연극/공연,37.55146931,126.943025,서울특별시 마포구 신수동 1-1,02-705-8743,정보없음
서경대학교공연예술센터,영화/연극/공연,37.58352506,127.00215,서울특별시 종로구 혜화동 179-4,02-742-6767,공연마다 상이
서교스퀘어,영화/연극/공연,37.55081382,126.916494,서울특별시 마포구 서교동 494,02-6351-7531,오전 10시-오후 10시
서교예술실험센터,영화/연극/공연,37.55248121,126.920947,서울특별시 마포구 서교동 369-8,02-333-0246,11:00-20:00 예술다방 운영
서달산수목학습원,관광지,37.4991608,126.958822,서울특별시 동작구 흑석동 330,02-820-1639,상시개방
서달산유아숲체험장,관광지,37.49877155,126.956744,서울특별시 동작구 상도동 산 49-36,02-820-1639,상시개방
서대문독립공원,공원,37.57460851,126.955612,서울특별시 서대문구 현저동 101,02-3140-8305,00:00-24:00
서대문돌산구장,대형체육시설,37.60293469,126.947004,서울특별시 서대문구 홍은동 10-177,02-360-8690,"주중 :06:00-21:00, 주말 :06:00-21:00"
서대문문화체육회관,영화/연극/공연,37.58075973,126.931557,서울특별시 서대문구 홍은동 산 26-155,02-3217-1592,정보없음
서대문문화회관,영화/연극/공연,37.58617841,126.926489,서울특별시 서대문구 홍은동 331-9,02-360-8612,평일 9:00-18:00
서대문아트홀,영화/연극/공연,37.5653582,126.964771,서울특별시 서대문구 충정로2가 76,031-403-3826,정보없음
서대문자연사박물관,전시/기념관,37.57675199,126.937858,서울특별시 서대문구 연희동 141-52,02-330-8899,"3월-10월 평일 09:00-18:00 17시까지 가능,토요일·공휴일 09:00-19:00 18시까지 가능,11월-2월 평일 09:00-17:00 16시까지 가능,토요일·공휴일 09:00-18:00 17시까지 가능"
서대문형무소역사관,전시/기념관,37.57460851,126.955612,서울특별시 서대문구 현저동 101,02-360-8590,"여름철(3월-10월): 09:30-18:00,겨울철(11월-2월): 09:30-17:00,입장 마감은 관람 종료 30분 전,주말 및 공휴일 사전예약 필수"
서서울미술관(2024년예정),전시/기념관,37.45807525,126.894936,서울특별시 금천구 독산동 1151,,정보없음
서소문성지역사박물관,전시/기념관,37.56056785,126.968867,서울특별시 중구 의주로2가 16-4,02-3147-2401,09:30-17:30
서연아트홀,영화/연극/공연,37.58390331,127.000575,서울특별시 종로구 명륜2가 21-10,070-5180-5956,매일11:00-20:00
서오릉공원서울유아숲체험현장,관광지,37.6374225,126.912727,서울특별시 은평구 진관동 387-3,02-359-0090,정보없음
서완소극장,영화/연극/공연,37.58420677,127.000444,서울특별시 종로구 명륜2가 21-23,070-8613-1239,정보없음
서울갤러리,전시/기념관,37.56741989,126.977874,서울특별시 중구 태평로1가 25,02-2000-9777,09:00-18:00
서울공예박물관,전시/기념관,37.57664817,126.983533,서울특별시 종로구 안국동 175-112,02-6450-7000,10:00-18:00 
서울광장,공원,37.56533387,126.977698,서울특별시 중구 태평로2가 17-3,02-2133-5627,00:00-24:00
서울교육박물관,전시/기념관,37.58126545,126.98387,서울특별시 종로구 화동 2,02-2011-5780,평일 : 09:00-18:00 / 토ㆍ일요일 : 09:00-17:00
서울교통공사교육문화센터,영화/연극/공연,37.56118603,127.056399,서울특별시 성동구 용답동 223-5,02-6110-8012,정보없음
서울국제도서전,전시/기념관,37.51182391,127.059159,서울특별시 강남구 삼성동 159,02-733-8402,11:00-18:00 
서울국제문구전시회,전시/기념관,37.51182391,127.059159,서울특별시 강남구 삼성동 159,02-2278-7891,10:00-18:00 
서울국제발명전시회,전시/기념관,37.51182391,127.059159,서울특별시 강남구 삼성동 159,02-3459-2843,10:00-18:00 
서울국제수산식품전시회,전시/기념관,37.51182391,127.059159,서울특별시 강남구 삼성동 159,02-6000-2804,"2022. 05. 18(수)-20(금), 3일간 (수요일,목요일 10:00-17:00 / 금요일 10:00-16:00)"
서울국제스포츠레저산업전,전시/기념관,37.51182391,127.059159,서울특별시 강남구 삼성동 159,02-555-7153,2022년 2월17일(목)-20일(일) 4일간/10:00-18:00 (단 마지막날은 17:00까지)
서울국제오디오쇼,전시/기념관,37.51182391,127.059159,서울특별시 강남구 삼성동 159,02-582-9847,10:00-18:00(입장마감 17:30)
서울국제유아교육전&키즈페어,전시/기념관,37.51182391,127.059159,서울특별시 강남구 삼성동 159,02-3453-8887,10:00-18:00
서울국제주류와인박람회,전시/기념관,37.51182391,127.059159,서울특별시 강남구 삼성동 159,02-761-2516,"2023.6.22(목)-24(토), 11시-19시"
서울국제치과기자재전시회,전시/기념관,37.51182391,127.059159,서울특별시 강남구 삼성동 159,02-498-9146,오전 9시 30분-오후 6시 
서울국제화장품앤미용산업박람회,전시/기념관,37.51182391,127.059159,서울특별시 강남구 삼성동 159,02-761-2512,10:00-18:00
서울기록원,전시/기념관,37.60722537,126.934431,서울특별시 은평구 녹번동 7-1,02-350-5601,10:00-17:00
서울남산국악당,영화/연극/공연,37.55954227,126.994739,서울특별시 중구 필동2가 84-1,02-2261-0500,공연일정확인
서울놀이마당,전시/기념관,37.50936664,127.098198,서울특별시 송파구 잠실동 47,02-414-1985,정보없음
서울대학교미술관,전시/기념관,37.46803806,126.959294,서울특별시 관악구 신림동 산 56-1,02-880-9504,10:00-18:00
서울대학교병원의학박물관,전시/기념관,37.58045239,126.997196,서울특별시 종로구 연건동 28-21,02-740-8799,평일 10:00-17:00
서울도시건축센터,전시/기념관,37.56853308,126.968747,서울특별시 종로구 신문로2가 6,02-739-2900,관람시간 10:00-18:00
서울도시건축전시관,전시/기념관,37.56688375,126.976702,서울특별시 중구 태평로1가 60-6,02-736-8050,10:00-18:00
서울도시재생이야기관,전시/기념관,37.56917079,126.968714,서울특별시 종로구 신문로2가 7-3,070-4160-3963,10:00-19:00
서울돈화문국악당,영화/연극/공연,37.57727785,126.990671,서울특별시 종로구 와룡동 12-2,02-3210-7001,정보없음
서울로7017,공원,37.557546,126.976608,서울특별시 중구 남대문로5가 67-4 서울특별시로7017편의시설,02-313-7017,00:00-24:00
서울로미디어캔버스,전시/기념관,37.55663319,126.968148,서울특별시 중구 만리동1가 38,02-2133-2712,전시일정확인
서울리빙디자인페어,전시/기념관,37.51182391,127.059159,서울특별시 강남구 삼성동 159,02-2262-7193,10:30-19:00
서울마리나,대형레저시설,37.53481462,126.911584,서울특별시 영등포구 여의도동 81-8,0507-1402-8400,매일 10:00-22:00
서울머니쇼,전시/기념관,37.51182391,127.059159,서울특별시 강남구 삼성동 159,02-780-1040,정보없음
서울메트로미술관,전시/기념관,37.57603202,126.973347,서울특별시 종로구 적선동 88-1,1577-1234,07:00-22:00
서울무용센터,영화/연극/공연,37.58322816,126.927739,서울특별시 서대문구 홍은동 304-1,02-304-9100,09:00-18:00
서울무형문화재,전시/기념관,37.57876715,126.985743,서울특별시 종로구 재동 53-1,02-745-6444,정보없음
서울무형문화재교육전시장,전시/기념관,37.57693514,126.991105,서울특별시 종로구 권농동 127-4,0507-1337-6444,10:00-17:00
서울문화예술대학교,영화/연극/공연,37.58034485,127.004258,서울특별시 종로구 동숭동 1-149,1588-7101,정보없음
서울뮤직홀,영화/연극/공연,37.60461491,126.963838,서울특별시 종로구 평창동 595,02-3216-0286,정보없음
서울사진미술관(2023년12월예정),전시/기념관,37.65552277,127.048958,서울특별시 도봉구 창동 1-7,,정보없음
서울새활용플라자,영화/연극/공연,37.55868506,127.057851,서울특별시 성동구 용답동 250-14,02-2153-0400,월-금 10:00-18:00
서울생활사박물관,전시/기념관,37.62017392,127.076936,서울특별시 노원구 공릉동 622,02-3399-2900,9:00-18:00(입장마감 : 오후 5시 30분)
서울숲,공원,37.54546216,127.03933,서울특별시 성동구 성수동1가 720,02-460-2905,생태숲 05:30-21:30
서울숲공원가족마당,영화/연극/공연,37.54546216,127.03933,서울특별시 성동구 성수동1가 720,02-460-2905,00:00-24:00
서울숲수도박물관,전시/기념관,37.53982701,127.042263,서울특별시 성동구 성수동1가 642-1,02-3146-5921,"평일 10:00-19:00 동절기,평일 10:00-20:00 하절기,주말 10:00-18:00 동절기, 공휴일,주말 10:00-19:00 하절기, 공휴일"
서울숲유아숲체험장,관광지,37.54307015,127.041799,서울특별시 성동구 성수동1가 685-20,02-460-2905,상시개방
서울스윙아트홀,영화/연극/공연,37.55918855,126.920883,서울특별시 마포구 연남동 568-51,,19:00-23:30
서울스포츠과학관,전시/기념관,37.59269721,127.073026,서울특별시 중랑구 상봉동 136-18,02-490-2700,09:00-18:00
서울시네마테크,관광지,37.5641882,126.99211,서울특별시 중구 초동 64-11,,정보없음
서울시립과학관,전시/기념관,37.64199411,127.077437,서울특별시 노원구 하계동 21,02-970-4500,오전 09:30-오후 5:30
서울시립남서울미술관,전시/기념관,37.47605354,126.979466,서울특별시 관악구 남현동 1059-13,02-598-6246,"평일(화-금) 오전 10시-오후 8시, 토,일,공휴일 오전 10시-오후 6시"
서울시립대학교박물관 ,전시/기념관,37.58257758,127.059988,서울특별시 동대문구 전농동 694,02-6490-6587,관람시간 : 오전 10:00-12:00
서울시립미술관,전시/기념관,37.56410607,126.973699,서울특별시 중구 서소문동 37,02-2124-8800,"평일(화-금) 오전 10시-오후 8시,-하절기(3-10월) 오전 10시-오후 7시, 동절기(11-2월) 오전 10시-오후 6시, 문화가 있는 날 운영 마지막 수요일 오전 10시-오후 10시"
서울시립북서울미술관,전시/기념관,37.64066045,127.066866,서울특별시 노원구 중계동 508,02-2124-5201,"평일 10:00-20:00, 주말 10:00-19:00"
서울시종합자료관,전시/기념관,37.56455419,126.975614,서울특별시 중구 서소문동 37,,월-금 09:00-18:00
서울시창작공간잠실창작스튜디오,영화/연극/공연,37.51619968,127.07594,서울특별시 송파구 잠실동 10,02-423-6674,정보없음
서울시청신청사다목적홀,영화/연극/공연,37.56631742,126.977829,서울특별시 중구 태평로1가 31,02-2133-5632,09:00-18:00
서울시티필하모닉오케스트라,영화/연극/공연,37.51311015,127.059758,서울특별시 강남구 삼성동 159,02-6002-6290,정보없음
서울식물원,관광지,37.57224441,126.832843,서울특별시 강서구 마곡동 812,02-2104-9716,"주제원(주제정원, 온실)09:30-18:00"
서울아레나(2024년1월예정),영화/연극/공연,37.65640904,127.05196,서울특별시 도봉구 창동 1-23,,정보없음
서울암사동유적전시관,전시/기념관,37.55985237,127.130833,서울특별시 강동구 암사동 139-2,02-3426-3867,"화-일 09:30-18:00,화-일 입장시간-17:30"
서울애니메이션센터,영화/연극/공연,37.5598231,126.983074,서울특별시 중구 회현동2가 10-1,02-3455-8341,"애니소풍 10:00-18:00 (발권마감: 오후 5시),만화의집 10:00-20:00"
서울약령시한의약박물관,전시/기념관,37.58060041,127.037587,서울특별시 동대문구 제기동 1082,02-969-9241,매일 10:00-17:00 동절기(11월-12월)매일 10:00-18:00 하절기(3월-10월)
서울에너지드림센터,전시/기념관,37.56311306,126.891465,서울특별시 마포구 상암동 1535-3,02-3151-0562,10:00-17:00
서울여자대학교박물관,전시/기념관,37.62878266,127.088992,서울특별시 노원구 공릉동 126,02-970-5311,"평일 : 오전 10시부터 오후 4시까지,방학 중에는 오전 10시부터 오후 3시까지"
서울역문화관,영화/연극/공연,37.55472785,126.969526,서울특별시 중구 봉래동2가 122-11,,10:00-19:00
서울역사박물관,전시/기념관,37.57049685,126.971075,서울특별시 종로구 신문로2가 2-1,02-724-0274,9:00-18:00 (입장마감 : 17:30)
서울역오픈콘서트홀,영화/연극/공연,37.55472785,126.969526,서울특별시 중구 봉래동2가 122-11,,상시개방
서울연극센터,영화/연극/공연,37.5842156,126.999662,서울특별시 종로구 명륜2가 8-67,02-743-9333,09:00-18:00
서울연극센터(2022년11월예정),영화/연극/공연,37.58338956,127.001322,서울특별시 종로구 명륜4가 1,,정보없음
서울요트협동조합,대형레저시설,37.53481462,126.911584,서울특별시 영등포구 여의도동 81-8,02-761-1290,10:00-21:00
서울우리소리박물관,전시/기념관,37.57715793,126.989622,서울특별시 종로구 와룡동 5-9,02-742-2600,"09:00-18:00(화-금, 일요일),09:00-19:00(토요일)"
서울월드컵경기장,대형체육시설,37.56828845,126.897273,서울특별시 마포구 성산동 515,02-2128-2939,행사에 따라
서울월드컵경기장보조경기장,대형체육시설,37.5714878,126.898431,서울특별시 마포구 성산동 499,02-2128-2966,예약제
서울웨딩페어웨딩박람회,전시/기념관,37.50759108,127.060579,서울특별시 강남구 대치동 944-31,1644-1397,정보없음
서울창포원,관광지,37.68953917,127.047162,서울특별시 도봉구 도봉동 4-1,02-954-0031,07:00-22:00
서울캐릭터앤라이선싱페어,전시/기념관,37.51182391,127.059159,서울특별시 강남구 삼성동 159,02-6000-8571,2023.7.13(목)-16(일)
서울특별시과학전시관,전시/기념관,37.49632442,126.886254,서울특별시 구로구 구로동 443,02-854-0457,평일 09:00-17:00
서울특별시교육청과학전시관,전시/기념관,37.46881648,126.959411,서울특별시 관악구 봉천동 238,02-881-3000,"평일: 15:00-17:00,토,일: 10:00-17:00"
서울특별시산악문화체험센터,전시/기념관,37.56937581,126.879942,서울특별시 마포구 상암동 481-231,02-306-8848,"매주 화요일-금요일 10:00-21:00,매주 토요일-일요일 10:00-18:00"
서울특별시청서소문청사서울특별시종합자료관,전시/기념관,37.56455419,126.975614,서울특별시 중구 서소문동 37,,평일 09:00-19:00
서울특별시청시민청,영화/연극/공연,37.56631742,126.977829,서울특별시 중구 태평로1가 31,02-739-5817,09:00-21:00
서울패션아트홀,영화/연극/공연,37.56726556,127.012111,서울특별시 중구 신당동 251-7,02-3670-4567,공연확인
서울퍼포밍아트홀,영화/연극/공연,37.54990609,126.945534,서울특별시 마포구 대흥동 30-3,02-3274-8600,정보없음
서울풍물시장전통문화체험관,관광지,37.5731997,127.025619,서울특별시 동대문구 신설동 109-5,02-2133-5551,매일 10시-18시(점심시간 12시-13시 / 접수마감 17시 30분)
서울하수도과학관,전시/기념관,37.5604667,127.060365,서울특별시 성동구 용답동 247-6,02-2211-2540,09:00-17:00
서울한양도성,명승지,37.59557848,126.985552,서울특별시 성북구 성북동 산 25-1,02-2133-2656,상시개방
서울혁신센터,영화/연극/공연,37.60940705,126.934954,서울특별시 은평구 녹번동 7,02-389-7513,09:00-16:00
서울혁신파크,영화/연극/공연,37.60940705,126.934954,서울특별시 은평구 녹번동 7,02-389-7512,월-금09:00-18:00
서초문화원,영화/연극/공연,37.48182784,127.035957,서울특별시 서초구 양재동 25,,정보없음
서초수학박물관,전시/기념관,37.4888091,127.019039,서울특별시 서초구 서초동 1628-5,02-597-2333,정보없음
서초아트센터,영화/연극/공연,37.48702693,127.022,서울특별시 서초구 서초동 1605-4,,매일00:00-24:00
서초전통예술원,영화/연극/공연,37.48430827,127.021788,서울특별시 서초구 서초동 1431-10,02-588-8209,정보없음
서촌공간서로,영화/연극/공연,37.58159654,126.967857,서울특별시 종로구 옥인동 62,02-730-2502,정보없음
석은미술문화재단,전시/기념관,37.59824682,126.985995,서울특별시 성북구 성북동 330-484,02-764-2591,"10:00-15:00, 전시 하루 전까지 사전 관람예약 필수"
석촌호수아뜰리에,영화/연극/공연,37.50677711,127.098244,서울특별시 송파구 잠실동 47,02-2147-3246,정보없음
선갤러리,전시/기념관,37.57292267,126.985722,서울특별시 종로구 인사동 184,02-734-0458,10:00-18:00
선농단역사문화관,전시/기념관,37.58118377,127.031889,서울특별시 동대문구 제기동 274-1,02-3295-5561,매일 10:00-17:00 동절기(11-2월)매일 10:00-18:00 하절기(3-10월)
선돌극장,영화/연극/공연,37.58681262,126.999765,서울특별시 종로구 명륜1가 46-11,02-747-3226,정보없음
선유도공원,공원,37.54238323,126.901819,서울특별시 영등포구 당산동 1,02-2631-9368,06:00-24:00
설렘아트홀,영화/연극/공연,37.54704913,127.072382,서울특별시 광진구 화양동 111-73,,24시간 운영
설맞이명절선물전,전시/기념관,37.51182391,127.059159,서울특별시 강남구 삼성동 159,02-515-4855,2022.12.14-12.17 오전 11:00-오후 18:00 (마지막날은 17:00 까지)
설앤컴퍼니,영화/연극/공연,37.51134263,127.028818,서울특별시 강남구 논현동 133-11,,정보없음
섬유센터이벤트홀,영화/연극/공연,37.50759108,127.060579,서울특별시 강남구 대치동 944-31,02-528-3355,정보없음
성곡미술관,전시/기념관,37.57351051,126.969704,서울특별시 종로구 신문로2가 1-101,02-737-7650,10:00-18:00
성균관대야구장,대형체육시설,37.67920106,127.047211,서울특별시 도봉구 도봉동 628,02-954-4105,정보없음
성균관대학교박물관,전시/기념관,37.58722841,126.993115,서울특별시 종로구 명륜3가 53-21,02-760-1216,"월요일-금요일 10:00-16:00,(단, 폐관시간 30분전까지 입실하여 주십시오.)"
성균소극장,영화/연극/공연,37.5841854,126.997947,서울특별시 종로구 명륜2가 149,02-747-5035,공연에따라
성내유수지생태공원,관광지,37.52640008,127.119708,서울특별시 송파구 방이동 88-13,02-410-1114,상시개방
성미산마을극장,영화/연극/공연,37.55948054,126.909919,서울특별시 마포구 성산동 249-10,02-322-0345,정보없음
성북구립미술관,전시/기념관,37.5948372,126.994887,서울특별시 성북구 성북동 246,02-6925-5011,10:00-18:00
성북구립최만린미술관,전시/기념관,37.61065979,127.004288,서울특별시 성북구 정릉동 716-16,02-6952-5016,10:00-18:00
성북마을극장,영화/연극/공연,37.59164697,127.017351,서울특별시 성북구 동선동1가 4-7,0507-1419-4155,매일10:00-22:00
성북생활체육공설운동장,대형체육시설,37.6086202,127.042284,서울특별시 성북구 하월곡동 산 2-1,02-909-3497,05:30-22:00
성북선잠박물관,전시/기념관,37.5932329,126.99822,서울특별시 성북구 성북동 66-21,02-744-0025,화-일 오전 10시-오후 6시(오후 5시 30분 입장마감)
성북예술창작터,영화/연극/공연,37.59005225,127.004123,서울특별시 성북구 성북동1가 74-1,02-2038-9989,10:00-18:00 매주 화요일-토요일(입장은 관람종료 30분 전까지)
성북전시관,전시/기념관,37.59446244,126.996239,서울특별시 성북구 성북동 81-2,02-744-7830,10:00-18:00
성수메이커스페이스,영화/연극/공연,37.54392181,127.061316,서울특별시 성동구 성수동2가 277-43,02-2205-0503,평일 10:00-07:00
성수미술관,전시/기념관,37.51375196,127.104447,서울특별시 송파구 신천동 29,1544-7744,"10:30-19:00, 평일 30분 전 입장 및 매표 마감, 주말 공휴일 1시간 전 입장 및 매표 마감"
성수소극장,영화/연극/공연,37.53666546,127.058408,서울특별시 성동구 성수동2가 225-10,02-6396-5785,정보없음
성수수제화희망플랫폼,전시/기념관,37.54648711,127.050729,서울특별시 성동구 성수동2가 300-20,02-2286-7783,10:00-17:30
성수아트홀,영화/연극/공연,37.54542883,127.046948,서울특별시 성동구 성수동1가 656-323,02-2204-7570,매일09:00-18:00
성수연방,영화/연극/공연,37.54140761,127.056908,서울특별시 성동구 성수동2가 322-4,,10:30-21:00
성신여자대학교박물관,전시/기념관,37.591652,127.022146,서울특별시 성북구 돈암동 173-1 성신여자대학교,02-920-7715,평일 10:00-17:00
성신여자대학교정원박광훈복식박물관,전시/기념관,37.632038,127.027124,서울특별시 강북구 미아동 147,02-920-2659,오전 10시-오후 5시
성암아트센터,영화/연극/공연,37.51105342,127.043021,서울특별시 강남구 논현동 268-16,02-543-0826,정보없음
성재전통건축자료관,전시/기념관,37.58025143,126.988007,서울특별시 종로구 원서동 135-2,02-742-1311,10:00-17:00
세계골프역사박물관,전시/기념관,37.50809527,127.062,서울특별시 강남구 대치동 945-5,02-2192-3005,10:00-17:00
세계장신구박물관,전시/기념관,37.5809772,126.981806,서울특별시 종로구 화동 75-3,02-730-1610,10:00-18:00 사전예약제
세명대학교민송아트홀2관,영화/연극/공연,37.58398159,127.002065,서울특별시 종로구 혜화동 185,,매일 11:00-21:00
세미콘코리아,전시/기념관,37.51182391,127.059159,서울특별시 강남구 삼성동 159,02-531-7800,10:00-17:00
세븐럭용산카지노(2023년1월예정),대형레저시설,37.53216815,126.960884,서울특별시 용산구 한강로3가 40-969,,정보없음
세븐럭카지노,대형레저시설,37.51201518,127.05754,서울특별시 강남구 삼성동 159,02-3466-6000,00:00-24:00
세븐럭카지노,대형레저시설,37.55545508,126.9755,서울특별시 중구 남대문로5가 395,02-2021-6000,00:00-24:00
세실극장,영화/연극/공연,37.56672262,126.976533,서울특별시 중구 정동 3-7,02-751-1500,09:00-18:00
세영씨앤유더레인지,대형체육시설,37.5102359,127.020819,서울특별시 서초구 반포동 707,0507-1305-8663,"주중 06:00-23:00,주말 07:00-22:00"
세우아트센터,영화/연극/공연,37.58194665,127.003984,서울특별시 종로구 동숭동 1-86,070-7542-5089,정보없음
세운전자박물관,전시/기념관,37.56928143,126.99524,서울특별시 종로구 장사동 116-4,,13:00-18:00
세일아트홀,영화/연극/공연,37.4972385,127.039064,서울특별시 강남구 역삼동 727-13,02-555-4714,정보없음
세일화방,전시/기념관,37.55359968,126.92751,서울특별시 마포구 서교동 338-52,02-323-0773,정보없음
세종대왕기념관,전시/기념관,37.59099289,127.042703,서울특별시 동대문구 청량리동 산 1-157,02-969-8851,"여름철(3월-10월) 여는시간 : 오전 9시-오후 6시 (표마감: 오후 5시 30분),겨울철(11월-2월)여는시간 : 오전 9시-오후 5시 30분 (표마감: 오후 5시)"
세종대학교박물관,전시/기념관,37.55160814,127.073183,서울특별시 광진구 군자동 98,02-3408-3876,월-금 10:00-15:00
세종마을상촌재,전시/기념관,37.5818557,126.969678,서울특별시 종로구 옥인동 19-16,02-6013-1142,화-일요일 09:00-18:00
세종마을한옥체험관,전시/기념관,37.5818557,126.969678,서울특별시 종로구 옥인동 19-16,02-6013-1142,9:30-17:30
세종문화회관,영화/연극/공연,37.57184786,126.976168,서울특별시 종로구 세종로 81-3,02-399-1000,정보없음
세종문화회관,영화/연극/공연,37.57184786,126.976168,서울특별시 종로구 세종로 81-3,02-399-1000,정보없음
세종문화회관,영화/연극/공연,37.57184786,126.976168,서울특별시 종로구 세종로 81-3,02-399-1000,정보없음
세종문화회관,영화/연극/공연,37.57184786,126.976168,서울특별시 종로구 세종로 81-3,02-399-1000,정보없음
세종문화회관,영화/연극/공연,37.57184786,126.976168,서울특별시 종로구 세종로 81-3,02-399-1000,정보없음
세종문화회관,전시/기념관,37.57184786,126.976168,서울특별시 종로구 세종로 81-3,02-399-1114,정보없음
세종이야기,전시/기념관,37.57184786,126.976168,서울특별시 종로구 세종로 81-3,02-399-1173,오전 10시-오후6시30분(오후6시 입장 마감)
세컨드뮤지엄,영화/연극/공연,37.58243583,126.969621,서울특별시 종로구 옥인동 19-57,,"Tue-Sat 11:00-20:00, Sun 11:00-17:00"
세화미술관,전시/기념관,37.56964251,126.972139,서울특별시 종로구 신문로1가 226,02-2002-7787,10:00-18:00
센트럴시티밀레니엄홀,영화/연극/공연,37.50393518,127.002413,서울특별시 서초구 반포동 19-3,02-6282-0114,정보없음
소극장가변,영화/연극/공연,37.58856577,127.012271,서울특별시 성북구 삼선동3가 5-2,02-747-8573,정보없음
소극장공유,영화/연극/공연,37.58760122,127.003206,서울특별시 종로구 혜화동 37-1,070-5014-0096,월-금 11:00-17:30
소극장더켠,영화/연극/공연,37.61481002,127.029109,서울특별시 강북구 미아동 61-52,,24시간 운영
소극장무극,영화/연극/공연,37.5818577,127.00086,서울특별시 종로구 명륜4가 111-2,0507-1321-6602,10:00-22:00
소극장창덕궁,영화/연극/공연,37.57683211,126.990476,서울특별시 종로구 와룡동 119-1,02-742-7278,정보없음
소극장혜화당,영화/연극/공연,37.58122414,127.004021,서울특별시 종로구 동숭동 1-89,02-742-1505,정보없음
소리소극장,영화/연극/공연,37.49962405,127.137509,서울특별시 송파구 오금동 152-3,,10:00-22:00
소요대,관광지,37.65775513,126.991069,서울특별시 강북구 우이동 산 68-1,02-909-0497,"하절기(3-11월)에는 04시부터 17시까지, 동절기(12-2월)에는 04시부터 16시까지"
소월아트홀,영화/연극/공연,37.55931111,127.036007,서울특별시 성동구 행당동 142-16,02-2204-6400,09:00-18:00
손기정기념관,전시/기념관,37.5558005,126.964709,서울특별시 중구 만리동2가 6-1,02-313-7985,"동절기 10:00-17:00, 하절기 10:00-18:00"
손기정전시관,전시/기념관,37.5558005,126.964709,서울특별시 중구 만리동2가 6-1,02-364-1936,"관람시간 : 동절기 10:00-17:00, 하절기 10:00-18:00"
손병희선생묘소,명승지,37.65922618,127.005727,서울특별시 강북구 우이동 산 28-1,02-909-0497,상시개방
송은,전시/기념관,37.52416279,127.044121,서울특별시 강남구 청담동 92-9,02-3448-0100,11:00-18:30
송은갤러리,전시/기념관,37.50700127,127.063532,서울특별시 강남구 대치동 947-3,0507-1466-0259,11:00-18:30
송파마을예술창작소 다락,영화/연극/공연,37.50192074,127.110344,서울특별시 송파구 송파동 2-13,0507-1411-2249,정보없음
송파메이커스페이스,관광지,37.53249314,127.114213,서울특별시 송파구 풍납동 281-1,0507-1352-8889,정보없음
송파문화원,영화/연극/공연,37.51068239,127.075937,서울특별시 송파구 잠실동 84,02-414-0354,정보없음
송파브이아트홀,영화/연극/공연,37.49322416,127.145879,서울특별시 송파구 거여동 37,02-443-7765,매일10:00-19:00
송파쌤미래교육센터,영화/연극/공연,37.50038417,127.158813,서울특별시 송파구 마천동 산 2,02-477-0995,"평일 09:00-18:00 화-금요일, 점심시간 12:00-12:30"
송파쌤미래교육센터,영화/연극/공연,37.47761484,127.124962,서울특별시 송파구 문정동 634,,정보없음
송파예술마루,전시/기념관,37.52205403,127.097762,서울특별시 송파구 신천동 1-1,02-414-3512,정보없음
송파책박물관,전시/기념관,37.49888418,127.104383,서울특별시 송파구 가락동 910,02-2147-2486,10:00-18:00 (입장마감: 폐관 30분전)
쇳대박물관,전시/기념관,37.57748624,127.008183,서울특별시 종로구 이화동 9-84,02-766-6494,10:00-18:00
쇼골프,대형체육시설,37.51942067,126.93861,서울특별시 영등포구 여의도동 61-5,02-761-7758,매일 06:00-23:00
쇼비티,영화/연극/공연,37.58329492,127.003057,서울특별시 종로구 동숭동 1-41,02-319-9877,정보없음
쇼팽의집,영화/연극/공연,37.54925683,127.093567,서울특별시 광진구 구의동 58-8,02-453-1380,정보없음
수락산공원서울유아숲체험현장,관광지,37.68332766,127.090168,서울특별시 노원구 상계동 산 155-1,02-2116-0545,정보없음
수입상품전시회,전시/기념관,37.51182391,127.059159,서울특별시 강남구 삼성동 159,02-792-4833,"2022년 6월 23일(목)-6월 25일(토), 10:00-17:00"
숙명여자대학교문신미술관,전시/기념관,37.543832,126.965458,서울특별시 용산구 청파동3가 115 숙명여자대학교,02-2077-7052,10:00-17:00
숙명여자대학교박물관,전시/기념관,37.543832,126.965458,서울특별시 용산구 청파동3가 115 숙명여자대학교,02-710-9134,10:00-17:00
순위아트홀,영화/연극/공연,37.50154346,127.025367,서울특별시 서초구 서초동 1305-2,070-8857-4084,정보없음
숨프로젝트,전시/기념관,37.51373319,127.036565,서울특별시 강남구 논현동 247-13,02-585-5022,정보없음
숭실대학교한국기독교박물관,전시/기념관,37.49642897,126.955158,서울특별시 동작구 상도동 511,02-820-0752,평일 10:00-16:30
숭인공원서울유아숲체험현장,관광지,37.58075788,127.00756,서울특별시 종로구 동숭동 50-146,0507-1409-4152,상시개방
숭인공원숭인재,전시/기념관,37.57659462,127.01732,서울특별시 종로구 숭인동 58-447,02-2148-4152,00:00-24:00
숭인공원유아숲체험장,관광지,37.57863452,127.018207,서울특별시 종로구 숭인동 56-136,0507-1409-4152,매일00:00-24:00
쉼박물관,전시/기념관,37.59950369,126.955678,서울특별시 종로구 홍지동 36-20,02-396-9277,화-일 10:00-18:00
쉽게골프,대형체육시설,37.54541423,127.054706,서울특별시 성동구 성수동2가 300-7,,AM 7:00-PM 22:00
슈퍼맨아트홀,영화/연극/공연,37.55030958,126.915803,서울특별시 마포구 서교동 394-44,02-6393-5037,정보없음
슈피겐홀,영화/연극/공연,37.51136781,127.048517,서울특별시 강남구 삼성동 114-9,02-6713-6410,"평일 11:00-22:00,주말 10:00-22:00"
스마트공장 · 자동화산업전,전시/기념관,37.51182391,127.059159,서울특별시 강남구 삼성동 159,02-6000-1087,2023. 3. 8(수)-10(금)
스마트서울전시관,전시/기념관,37.56631742,126.977829,서울특별시 중구 태평로1가 31,02-2133-7874,매일 10:00-18:00 사전예약을 통한 전시관람
스마트인테리어테스트베드센터상설전시장,전시/기념관,37.56237581,126.837752,서울특별시 강서구 마곡동 792-2,,정보없음
스위트팩토리,전시/기념관,37.53742313,126.892792,서울특별시 영등포구 양평동5가 21,02-2670-6396,"평일 10:00-18:00, 토요일 10:00-14:00"
스카이씨어터,영화/연극/공연,37.58298283,127.002649,서울특별시 종로구 동숭동 1-48,070-4106-8889,정보없음
스쿠버블루,대형레저시설,37.51902266,127.056403,서울특별시 강남구 삼성동 58-6,02-555-5155,정보없음
스타갤러리,전시/기념관,37.52339385,127.038517,서울특별시 강남구 신사동 666-15,02-511-0878,11:00-20:00
스타골프크럽,대형체육시설,37.48353701,127.129627,서울특별시 송파구 문정동 97-4,02-403-8771,정보없음
스타비스코리아,전시/기념관,37.50948764,127.054788,서울특별시 강남구 삼성동 127-11,02-780-1040,정보없음
스튜디오76,영화/연극/공연,37.57967397,127.004279,서울특별시 종로구 동숭동 187-12,,정보없음
스튜디오블루,영화/연극/공연,37.58247727,127.003268,서울특별시 종로구 동숭동 1-73,0507-1328-9207,"평일 19:00-22:00,주말 14:00-22:00"
스튜디오아미띠에,영화/연극/공연,37.55975275,126.830889,서울특별시 강서구 마곡동 774-1,,00:00-24:00
스튜디오SK소극장,영화/연극/공연,37.58390229,126.997118,서울특별시 종로구 명륜3가 122-2,0507-1440-3339,금-일 12:00-22:00
스페이스1959,영화/연극/공연,37.57889089,127.004928,서울특별시 종로구 동숭동 192-10,,정보없음
스페이스207,영화/연극/공연,37.44701293,127.056667,서울특별시 서초구 신원동 659,02-577-5207,매일 10:30-23:00
스페이스22,전시/기념관,37.49783995,127.028579,서울특별시 강남구 역삼동 825,02-3469-0822,화-일11:00-19:00
스페이스브릭,영화/연극/공연,37.55120202,126.919689,서울특별시 마포구 서교동 395-15,0507-1420-3951,"평일(월-목), 금요일, 토/일/공휴일: 10:00-20:00 , 13:00-23:00"
스페이스신선,전시/기념관,37.53736772,127.001275,서울특별시 용산구 한남동 683-138,02-793-7400,11:00-20:00
스페이스오뉴월,전시/기념관,37.59442555,126.99942,서울특별시 성북구 성북동 51-2,070-4401-6741,11:00-18:30
스페이스원,전시/기념관,37.54532379,126.985086,서울특별시 용산구 용산동2가 1-480,,정보없음
스페이스이끼,전시/기념관,37.59230596,126.99187,서울특별시 성북구 성북동 217-140,0507-1374-0407,화-일 11:00-18:00
스페이스캔,전시/기념관,37.59489839,126.99945,서울특별시 성북구 성북동 46-7,02-766-7606,수-토10:00-18:00
스페이스C,전시/기념관,37.52407043,127.032812,서울특별시 강남구 신사동 627-8,02-547-9177,"4월-10월 10:00-19:00, 11월-3월 10:00-18:00"
스페이스K(강서),전시/기념관,37.56109293,126.830975,서울특별시 강서구 마곡동 772,02-3665-8918,10:00-18:00
스포애니,대형체육시설,37.60009953,126.915568,서울특별시 은평구 역촌동 85-12,02-383-5555,"평일 00:00-24:00,토 00:00-23:00,일 10:00-18:00"
승설재,전시/기념관,37.58008904,126.984619,서울특별시 종로구 가회동 141,02-741-5766,12:00-18:30
시립광진청소년수련관대극장,영화/연극/공연,37.54631857,127.106555,서울특별시 광진구 광장동 313-3,02-2204-3100,"월-토요일-09:00-22:00,일요일, 법정공휴일-09:30-18:00"
시립목동청소년센터,영화/연극/공연,37.53071939,126.875499,서울특별시 양천구 목동 918,02-2642-1318,매일 06:00-22:00 프로그램에 따라 유동적
시몬느핸드백박물관,전시/기념관,37.51903912,127.022964,서울특별시 강남구 신사동 536-17,02-3444-0912,"화-토 10am-7pm,일 11am-7pm"
시온아트홀,영화/연극/공연,37.58298283,127.002649,서울특별시 종로구 동숭동 1-48,070-8719-9106,정보없음
식민지역사박물관,전시/기념관,37.54578472,126.966836,서울특별시 용산구 청파동2가 42-8,02-2139-0427,10:30-18:00 (입장은 17:30까지)
신길골프연습장,대형체육시설,37.50815475,126.920158,서울특별시 영등포구 신길동 459-5,02-846-7720,"주중 05:30-22:00, 주말 06:00-21:30"
신당창작아케이드,영화/연극/공연,37.5670201,127.019649,서울특별시 중구 황학동 370-1,02-2232-8833,정보없음
신문박물관,전시/기념관,37.56986776,126.977657,서울특별시 종로구 세종로 139-8,02-2020-1880,화요일-일요일 오전 10시-오후 6시 30분 (매표마감 오후 6시) *일민미술관의 기획전이 있는 기간에는 기존 운영시간에서 30분 연장 운영합니다. (매표마감 오후 6시 30분)
신사공원서울유아숲체험현장,관광지,37.59304305,126.909484,서울특별시 은평구 신사동 98-46,02-351-8004,정보없음
신연아트홀,영화/연극/공연,37.58326484,127.002439,서울특별시 종로구 동숭동 1-37,02-3676-0282,정보없음
신영체임버홀,영화/연극/공연,37.52129732,126.928885,서울특별시 영등포구 여의도동 34-8,02-541-3184,매일12:00-22:00
신월야구장,대형체육시설,37.52648878,126.832653,서울특별시 양천구 신월동 149-20,02-2699-6407,09:00-11:50 12:00-14:50 15:00-17:50 18:00-20:50
신정산우렁바위유아숲체험원,관광지,37.51052362,126.857048,서울특별시 양천구 신정동 621,02-2620-3575,상시개방
신촌문화발전소,영화/연극/공연,37.55796298,126.939755,서울특별시 서대문구 창천동 4-113,02-330-4393,10:00-18:00 
신한류플러스,영화/연극/공연,37.5500498,126.912061,서울특별시 마포구 합정동 472,02-338-3366,10:00-20:00
신한아트홀,영화/연극/공연,37.51766928,127.035823,서울특별시 강남구 논현동 106-4,02-2151-7699,매일00:00-24:00
신한PLAY스퀘어,영화/연극/공연,37.5515008,126.91395,서울특별시 마포구 서교동 490,1644-2961,정보없음
신한PLAY스퀘어드림홀,영화/연극/공연,37.5515008,126.91395,서울특별시 마포구 서교동 490,1644-2961,정보없음
신한PLAY스퀘어라이브홀,영화/연극/공연,37.5515008,126.91395,서울특별시 마포구 서교동 490,1644-2961,정보없음
실험누리과학관,전시/기념관,37.49662252,127.055233,서울특별시 강남구 대치동 1024,02-552-3166,화-일 10:00-18:00
심산아트홀,영화/연극/공연,37.49885315,126.990516,서울특별시 서초구 반포동 114-3,02-3477-2862,공연에따라
심여화랑,전시/기념관,37.57763896,126.98092,서울특별시 종로구 사간동 37-1,02-739-7517,"화-토 11:00-18:00, 일 12:00-17:00"
쌀박물관,전시/기념관,37.56649912,126.968556,서울특별시 중구 충정로1가 75-1,02-2080-5681,"매주 화-일요일,하절기 (3-10월) 09:30-18:00,동절기 (11-2월) 09:30-17:30"
쌈지길,전시/기념관,37.57426477,126.984877,서울특별시 종로구 관훈동 38,02-736-0088,10:30-20:30
쌍문공원서울유아숲체험현장,관광지,37.65298213,127.029991,서울특별시 도봉구 쌍문동 산 82,02-2091-3756,상시개방
썬시스템,전시/기념관,37.48418577,127.121364,서울특별시 송파구 문정동 651-4,02-557-7323,정보없음
썬앤문전용관,영화/연극/공연,37.56817327,126.969976,서울특별시 중구 정동 22,02-769-4779,10:00-20:00
썸데이즈홀,영화/연극/공연,37.58252612,127.002656,서울특별시 종로구 동숭동 1-64,,정보없음
쎄듀컬쳐센터,영화/연극/공연,37.49275968,127.040414,서울특별시 강남구 역삼동 798-15,0507-1401-4764,매일 09:00-22:00
씨랄라워터파크,대형레저시설,37.5177939,126.900077,서울특별시 영등포구 문래동3가 55-16,1522-9661,10:00-19:00
씨씨오씨,전시/기념관,37.47470668,126.882342,서울특별시 금천구 가산동 345-29,02-837-6611,10AM-7PM
씨어터조이,영화/연극/공연,37.5786826,127.004642,서울특별시 종로구 동숭동 192-18,0507-1312-6314,00:00-24:00
씨어터쿰,영화/연극/공연,37.58442274,126.999528,서울특별시 종로구 명륜2가 8,0507-1416-0030,매일00:00-24:00
씽크타운,영화/연극/공연,37.50393518,127.002413,서울특별시 서초구 반포동 19-3,02-6282-5777,정보없음
아난티클럽,영화/연극/공연,37.5258888,127.04227,서울특별시 강남구 청담동 89-15,02-516-3774,정보없음
아라리오갤러리,전시/기념관,37.57787249,126.988509,서울특별시 종로구 원서동 228,02-541-5701,11:00-18:00
아라리오뮤지엄인스페이스,전시/기념관,37.5777622,126.988358,서울특별시 종로구 원서동 219,02-736-5700,10:00-19:00 (화-일)
아라아트,전시/기념관,37.57342884,126.983629,서울특별시 종로구 견지동 85-24,02-733-1981,AM 10:00-PM 7:00 (전시 별 관람시간 상이)
아람골프스튜디오,대형체육시설,37.52719195,127.051695,서울특별시 강남구 청담동 109-1,02-6396-6501,07:00-22:00
아랍문화제,전시/기념관,37.51182391,127.059159,서울특별시 강남구 삼성동 159,02-551-7130,2022.9.16(금)-9.24(토) 10:00-18:00제15회 아랍문화제 마지막 날인 9월 24일 (토)는 오후 4시에 행사가 마감될 예정입니다.
아르코미술관,전시/기념관,37.58050229,127.003256,서울특별시 종로구 동숭동 1-130,02-760-4850,11:00-19:00
아르코예술극장,영화/연극/공연,37.58118552,127.003,서울특별시 종로구 동숭동 1-111,02-3668-0007,오후 3:00-오후 8:00
아름지기,영화/연극/공연,37.57777193,126.973767,서울특별시 종로구 통의동 35-23,02-741-8373,정보없음
아리랑작은전시관,전시/기념관,37.57232508,126.986105,서울특별시 종로구 인사동 193,02-723-7311,정보없음
아리랑작은전시관,전시/기념관,37.56100005,126.9941,서울특별시 중구 필동2가 7-3,,10:00-18:00
아모레퍼시픽미술관,전시/기념관,37.52879118,126.968674,서울특별시 용산구 한강로2가 424,02-6040-2345,10:00-18:00
아세아요트,대형레저시설,37.46183379,127.035374,서울특별시 서초구 양재동 217,,00:00-24:00
아스가르드씨어터,영화/연극/공연,37.58367047,127.002564,서울특별시 종로구 혜화동 201,0507-1318-6014,11:00-20:00
아시아고아트홀,영화/연극/공연,37.52220936,127.031666,서울특별시 강남구 신사동 628-2,02-3448-8668,07:00-24:00
아시아공원,공원,37.51068239,127.075937,서울특별시 송파구 잠실동 84,02-412-0270,00:00-24:00
아시아호텔아트페어,전시/기념관,37.5594119,126.98322,서울특별시 중구 회현동2가 87,02-741-6320,월-토 10:00-18:00
아신갤러리,전시/기념관,37.58093636,126.984868,서울특별시 종로구 가회동 74,031-775-8266,10:00-17:00
아울로스아트홀,영화/연극/공연,37.48677605,126.906096,서울특별시 동작구 신대방동 686-70,,정보없음
아이이코리아,전시/기념관,37.66350006,127.037388,서울특별시 도봉구 방학동 690-87,070-8253-4987,정보없음
아이파크몰아디다스올인파크,대형체육시설,37.5297718,126.964742,서울특별시 용산구 한강로3가 40-999,02-2012-3810,00:00-24:00
아자스쿨,관광지,37.50619483,127.052403,서울특별시 강남구 삼성동 142-26,,정보없음
아차산유아숲체험장,관광지,37.56241086,127.09568,서울특별시 광진구 중곡동 143-146,02-450-1655,상시개방
아차산체육공원아차산배수지축구장,대형체육시설,37.54896182,127.096503,서울특별시 광진구 구의동 38-4,02-3437-7234,정보없음
아터테인,영화/연극/공연,37.57531238,126.928774,서울특별시 서대문구 연희동 708-2,02-6160-8445,14:00-18:00
아트로,전시/기념관,37.53028936,126.921969,서울특별시 영등포구 여의도동 13-3,02-2029-3111,00:00-24:00
아트사이드,전시/기념관,37.57826837,126.972946,서울특별시 종로구 통의동 32,02-725-1020,화-토 10시-18시
아트선재센터,전시/기념관,37.57946353,126.981839,서울특별시 종로구 소격동 144-2,02-733-8949,금12:00-19:00토12:00-19:00일12:00-19:00화12:00-19:00수12:00-21:00목12:00-19:00
아트센터나비,전시/기념관,37.56969128,126.980304,서울특별시 종로구 서린동 99,02-2121-1031,월-금11:00-18:00
아트센터이다,전시/기념관,37.4810863,127.015245,서울특별시 서초구 서초동 700,02-730-4368,10:00-18:00
아트스페이스그로브,전시/기념관,37.63542815,127.024181,서울특별시 강북구 번동 449-12,02-322-3216,12:00-18:00
아트스페이스H,전시/기념관,37.59205529,127.00241,서울특별시 성북구 성북동 132-3,02-766-5000,"화-토 11:00-18:00, 일 11:00-17:00"
아트에디션,전시/기념관,37.49567866,127.071912,서울특별시 강남구 대치동 514,02-521-9613,9:00-18:00
아트원씨어터1관,영화/연극/공연,37.58026828,127.004007,서울특별시 종로구 동숭동 1-142,02-762-0010,정보없음
아트원씨어터2관,영화/연극/공연,37.58026828,127.004007,서울특별시 종로구 동숭동 1-142,02-762-0010,정보없음
아트원씨어터3관,영화/연극/공연,37.58026828,127.004007,서울특별시 종로구 동숭동 1-142,02-762-0010,정보없음
아트파크,전시/기념관,37.58375987,126.980424,서울특별시 종로구 팔판동 115-5,02-733-8500,10:30-18:00
아트포레스트1관,영화/연극/공연,37.58249115,127.003096,서울특별시 종로구 동숭동 1-66,02-3672-0900,매일11:00-19:00
아트포레스트2관,영화/연극/공연,37.58249115,127.003096,서울특별시 종로구 동숭동 1-66,02-3672-0900,매일11:00-19:00
아트홀가얏고을,영화/연극/공연,37.50479491,127.048457,서울특별시 강남구 역삼동 705-27,02-553-0067,11:00-21:00
아트홀봄,영화/연극/공연,37.51160872,126.927226,서울특별시 동작구 대방동 345-1,02-810-5075,정보없음
아트홀제이,영화/연극/공연,37.51645448,127.11432,서울특별시 송파구 방이동 45-2,,09:00-23:00
아틀리에서울,전시/기념관,37.57335915,126.986085,서울특별시 종로구 관훈동 7,02-730-7837,정보없음
아티스탄홀,영화/연극/공연,37.58309546,127.002103,서울특별시 종로구 동숭동 1-35,02-1661-6981,정보없음
안녕인사동,영화/연극/공연,37.57446687,126.983552,서울특별시 종로구 관훈동 155-2,02-6954-2910,매일 10:00-22:00
안똔체홉극장,영화/연극/공연,37.51371335,127.061909,서울특별시 강남구 삼성동 160-21,02-742-7753,19:00-22:00
안똔체홉극장,영화/연극/공연,37.58308878,126.997023,서울특별시 종로구 명륜3가 140-4,02-742-7753,19:00-22:00
안중근의사기념관,전시/기념관,37.55346849,126.980404,서울특별시 중구 남대문로5가 471,02-3789-1016,"하절기(3월-10월) / 10:00-18:00,동절기(11월-2월) / 10:00-17:00,종료 1시간 전 입장 마감"
알과핵소극장,영화/연극/공연,37.57990114,127.003569,서울특별시 종로구 동숭동 1-131,02-745-8833,정보없음
알부스갤러리,영화/연극/공연,37.53819992,127.005905,서울특별시 용산구 한남동 723-6,0507-1429-8050,"화-토 : 오전 10시-오후 6,일요일, 공휴일 : 오전 10시-오후 5시"
암사골프아카데미,대형체육시설,37.55140946,127.124099,서울특별시 강동구 암사동 510,0507-1447-1872,"주중 06:00-23:00,주말 10:00-20:00"
암사동선사유적박물관,전시/기념관,37.55985237,127.130833,서울특별시 강동구 암사동 139-2,02-3425-6520,"관람시간: 09:30-18:00,입장시간: 09:30-17:30"
암사어린이극장,영화/연극/공연,37.56345434,127.133357,서울특별시 강동구 암사동 116-22,02-481-8808,13:00-16:00
압구정예홀,영화/연극/공연,37.5278619,127.036312,서울특별시 강남구 신사동 640-2,02-541-8367,정보없음
압구정풋살스튜디오,대형체육시설,37.52664785,127.037303,서울특별시 강남구 신사동 658,0507-1345-8884,매일 06:00-23:50
애임코리아,전시/기념관,37.52371135,126.972351,서울특별시 용산구 용산동5가 24-1,02-3452-1855,정보없음
앤드유,전시/기념관,37.56714881,126.979022,서울특별시 중구 무교동 24-2,070-7733-7694,09:00-18:00
야외공연장,영화/연극/공연,37.57844311,127.062735,서울특별시 동대문구 전농동 산 32-20,,정보없음
양재시민의숲,공원,37.4730498,127.036977,서울특별시 서초구 양재동 236,02-575-3895,00:00-24:00
양재시민의숲매헌윤봉길의사기념관,전시/기념관,37.4730498,127.036977,서울특별시 서초구 양재동 236,02-578-3388,"하절기(3월-10월) 10:00-18:00,동절기(11월-2월) 10:00-17:00,종료 30분 전 입장마감"
양재천얼음썰매장,대형레저시설,37.48914198,127.061986,서울특별시 강남구 개포동 648-1,02-445-1416,10시-16시
양천문화원,영화/연극/공연,37.51076244,126.870207,서울특별시 양천구 신정동 1325-3,02-2651-5300,정보없음
양천해누리체육공원,대형체육시설,37.51154311,126.872397,서울특별시 양천구 신정동 330-4,02-2652-3453,"06:00-20:00, 일출 일몰시간에 따라 월별 운영시간 상이"
양화진문화원,영화/연극/공연,37.54437976,126.910908,서울특별시 마포구 합정동 114-4,02-332-9171,정보없음
양화한강공원,공원,37.54450522,126.893351,서울특별시 영등포구 양화동 1-4,02-3780-0581,00:00-24:00
어린이교통안전체험장,관광지,37.550559,126.88171,서울특별시 영등포구 양화동 156-5,,"오전 10:00-12:00, 오후 13:30-15:30 (월-금요일)"
어린이대공원,관광지,37.5520117,127.078772,서울특별시 광진구 능동 18,02-450-9311,05:00-22:00
어린이대공원잔디축구장,대형체육시설,37.5520117,127.078772,서울특별시 광진구 능동 18,02-450-9321,정보없음
어린이민속박물관,전시/기념관,37.57590409,126.976842,서울특별시 종로구 세종로 1-1,02-3704-3014,09:00-18:00
어린이회관 눈썰매장,대형레저시설,37.547246,127.078304,서울특별시 광진구 능동 18-11,02-2204-6028,10:00-17:00
어린이회관얼음썰매장,대형레저시설,37.547246,127.078304,서울특별시 광진구 능동 18-11,02-2204-6028,정보없음
어반무브먼트살롱댄서스라운지,전시/기념관,37.55051055,126.920557,서울특별시 마포구 서교동 405-6,,정보없음
어쿠스틱홀릭,영화/연극/공연,37.55526871,126.928585,서울특별시 마포구 서교동 328-18,0507-1395-3441,시설별 상이
언더스탠드에비뉴아트스탠드,영화/연극/공연,37.5436228,127.043586,서울특별시 성동구 성수동1가 685-704,02-2290-2317,"매일 10:00-22:00 카페 서울숲,매일 10:00-19:00 엄마 손만두 소풍,매일 11:00-20:00 쓰담슈즈"
언더스테이지,영화/연극/공연,37.53663557,127.000702,서울특별시 용산구 한남동 683-132,02-331-6301,화-일12:00-21:00
업스테이지,영화/연극/공연,37.58010131,127.004279,서울특별시 종로구 동숭동 1-150,070-4792-8342,공연일정에 따라 변동
엉클캔들,영화/연극/공연,37.55614463,126.927644,서울특별시 마포구 서교동 330-5,02-323-8819,11:00-21:00
에버레저,대형레저시설,37.54898907,127.108301,서울특별시 광진구 광장동 148-11,02-456-7211,예약제
에스이와이아트,전시/기념관,37.57864393,126.973432,서울특별시 종로구 통의동 7-31,02-720-1864,정보없음
에스팩토리,영화/연극/공연,37.54282174,127.058906,서울특별시 성동구 성수동2가 273-13,02-1800-6310,매일 10:00-22:00
에스페란토문화원,영화/연극/공연,37.56200183,126.98861,서울특별시 중구 충무로2가 12-3,,정보없음
에이블짐골프아카데미신논현역,대형체육시설,37.5045713,127.02359,서울특별시 서초구 반포동 748-8,0507-1396-2696,"평일 06:00-00:00 ,평일 PM 22:00 까지,주말 09:00-21:00,공휴일 09:00-21:00"
에이비군단,전시/기념관,37.52463454,126.99636,서울특별시 용산구 동빙고동 32-18,02-6405-9633,정보없음
에이스마케팅,전시/기념관,37.51800293,127.020185,서울특별시 강남구 신사동 511-1,02-541-2984,정보없음
에이치씨어터,영화/연극/공연,37.57759644,127.004725,서울특별시 종로구 이화동 57,1566-0507,영업시간매일 09:00-23:00
에이치앤티디엠씨,전시/기념관,37.53751822,127.006092,서울특별시 용산구 한남동 723-30,,정보없음
에이틴에이치,대형체육시설,37.5108254,127.057184,서울특별시 강남구 삼성동 153-38,02-538-1838,"평일 10시-22시 ,주말 및 공휴일 10시-20시"
에이틴에이치,대형체육시설,37.50908722,127.044075,서울특별시 강남구 역삼동 683-10,02-563-1818,07:00-22:00
에픽합주실,영화/연극/공연,37.58418521,126.99736,서울특별시 종로구 명륜2가 216-1,02-744-0152,매일 18:00
엔비다이버스,대형레저시설,37.50955109,127.079623,서울특별시 송파구 잠실동 195-5,02-423-6264,11:00-19:00
엔비전스,전시/기념관,37.5833184,126.984816,서울특별시 종로구 가회동 1-29,02-313-9977,화-금 11:00-20:00
엘림아트홀,영화/연극/공연,37.48205846,127.013181,서울특별시 서초구 서초동 1451-74,,24시간 영업
엠엘에프,전시/기념관,37.49567866,127.071912,서울특별시 강남구 대치동 514,02-2292-5556,정보없음
엠제이골프,대형체육시설,37.58159382,127.041451,서울특별시 동대문구 제기동 615-1,0507-1384-7001,"토 08:00-20:00,월 화 06:00-22:00,수 06:00-21:00,목 금 06:00-22:00"
엠제이골프,대형체육시설,37.58867015,127.053686,서울특별시 동대문구 회기동 67-3,02-966-7009,"주중 06:00-24:00,토 08:00-20:00,일 10:00-18:00"
엠팟홀,영화/연극/공연,37.51404673,127.029551,서울특별시 강남구 논현동 58-3,02-541-3929,매일 00:00-24:00
여로연습실,영화/연극/공연,37.47711213,126.977453,서울특별시 동작구 사당동 1046-40,,정보없음
여의도공원,공원,37.52680882,126.922284,서울특별시 영등포구 여의도동 2,02-761-4079,24시개방
여의도눈썰매장여의아이스파크,대형레저시설,37.52680882,126.922284,서울특별시 영등포구 여의도동 2,,"매해 12월 초순경-다음해 2월,오전 10시-오후 9시30분"
여의도샛강생태공원반딧불이생태관,전시/기념관,37.51871841,126.921949,서울특별시 영등포구 여의도동 4-9,02-3780-0849,10:00-17:00
여의도한강공원,공원,37.52708516,126.932864,서울특별시 영등포구 여의도동 84-4,02-3780-0561,00:00-24:00
여의도한강공원파크골프장,대형레저시설,37.51908871,126.942306,서울특별시 영등포구 여의도동 70-1,02-3780-0871,08:00-18:00
여해문화공간,영화/연극/공연,37.56309561,127.007211,서울특별시 중구 장충동1가 26-6,02-3396-4114,정보없음
여행자극장,영화/연극/공연,37.58894239,127.004653,서울특별시 성북구 성북동1가 35-8,,정보없음
역사체험늘봄,관광지,37.55656099,126.975157,서울특별시 중구 남대문로5가 526,02-6325-5755,정보없음
연극플레이스혜화,영화/연극/공연,37.58097233,127.003528,서울특별시 종로구 동숭동 1-100,02-741-1011,"평일 3시 open ,주말 12시 open"
연낙재,전시/기념관,37.58198917,127.004253,서울특별시 종로구 동숭동 50-59,02-741-2808,10:00-19:00
연세대학교노천극장,영화/연극/공연,37.56733801,126.919616,서울특별시 서대문구 연희동 446-304,02-2123-2114,정보없음
연세대학교신촌캠퍼스백주년기념관,전시/기념관,37.56380644,126.942931,서울특별시 서대문구 신촌동 134,02-2123-2114,정보없음
연습실 레몬아트,영화/연극/공연,37.48272925,126.980272,서울특별시 동작구 사당동 1009-20,0507-1371-3364,00:00-24:00
연우소극장,영화/연극/공연,37.58698605,127.001764,서울특별시 종로구 혜화동 26-57,02-744-7090,정보없음
연필로명상하기,영화/연극/공연,37.55812675,126.986256,서울특별시 중구 남산동2가 26-5,02-318-4564,10:00-1800
열린극장,영화/연극/공연,37.58370537,127.000357,서울특별시 종로구 명륜2가 21-18,02-743-6474,정보없음
열린문화공간,영화/연극/공연,37.55314654,126.968279,서울특별시 용산구 서계동 1,02-3279-2211,정보없음
열림홀,영화/연극/공연,37.57362152,127.001615,서울특별시 종로구 연지동 136-12,02-3676-3000,정보없음
영등포리틀야구장,대형체육시설,37.54284224,126.886762,서울특별시 영등포구 양화동 143-1,,정보없음
영등포정보문화센타,영화/연극/공연,37.52512811,126.897405,서울특별시 영등포구 당산동3가 250,02-2670-7581,09:00-18:00
영롱이갈대구장1,대형체육시설,37.54502313,126.88576,서울특별시 영등포구 양화동 4-1,02-2670-3522,08:00-18:00
영롱이갈대구장2,대형체육시설,37.5437727,126.886104,서울특별시 영등포구 양화동 12-2,02-2670-4096,08:00-18:00
영산아트홀,영화/연극/공연,37.52927196,126.924893,서울특별시 영등포구 여의도동 12,02-6181-5260,정보없음
영산양재홀,영화/연극/공연,37.48048538,127.038418,서울특별시 서초구 양재동 20-4,02-571-7689,정보없음
영상으로T90호,영화/연극/공연,37.55392487,126.920399,서울특별시 마포구 서교동 354-11,,정보없음
영인문학관,전시/기념관,37.61189247,126.971758,서울특별시 종로구 평창동 499-3,02-379-3182,월 10:30-17:00
영재교육미술관,전시/기념관,37.61262055,126.978078,서울특별시 종로구 평창동 111-16,02-396-8744,11:00-18:00
영축산서울유아숲체험현장,관광지,37.61923977,127.056545,서울특별시 노원구 월계동 500,02-2116-0545,정보없음
영축산유아숲체험장,관광지,37.62332671,127.055271,서울특별시 노원구 월계동 산 130,02-2116-0545,정보없음
영화사레드피터,영화/연극/공연,37.55383879,126.912216,서울특별시 마포구 서교동 444-17,070-7701-4287,정보없음
영희초등학교영희문화관,영화/연극/공연,37.4923004,127.081133,서울특별시 강남구 일원동 617,02-445-9633,정보없음
예감터여민,영화/연극/공연,37.56797986,126.995365,서울특별시 중구 산림동 207-1,02-798-7242,정보없음
예림당아트홀,영화/연극/공연,37.49792419,127.044357,서울특별시 강남구 역삼동 772,02-6413-3689,10:00-18:00
예성화랑,전시/기념관,37.57294978,126.983618,서울특별시 종로구 견지동 92-1,02-738-3630,"월-금 10:00-18:00, 토 12:00-17:00"
예송미술관,전시/기념관,37.50235785,127.09349,서울특별시 송파구 삼전동 62-2,02-2147-3579,10:00-18:00
예술가의집,전시/기념관,37.58050229,127.003256,서울특별시 종로구 동숭동 1-130,02-760-4715,"사무실 월-토 10:00-19:00, 대관 운영 월-토 10:00-20:00"
예술공간라푸푸,영화/연극/공연,37.58305226,127.003995,서울특별시 종로구 동숭동 26,02-744-5879,정보없음
예술공간의식주,전시/기념관,37.5568756,126.912822,서울특별시 마포구 서교동 469-32,0507-1414-9653,화-일13:30-19:00
예술공간혜화,영화/연극/공연,37.58662729,127.000476,서울특별시 종로구 혜화동 74-38,,정보없음
예술나무씨어터,영화/연극/공연,37.49998807,126.884098,서울특별시 구로구 구로동 501,1661-5054,정보없음
예술의기쁨,영화/연극/공연,37.54201785,126.963883,서울특별시 용산구 효창동 5-390,02-713-5129,"화-금 11:00-17:00, 토-일 13:00-17:00"
예술의전당,영화/연극/공연,37.4802402,127.014215,서울특별시 서초구 서초동 700,02-580-1300,정보없음
예술의전당,영화/연극/공연,37.4802402,127.014215,서울특별시 서초구 서초동 700,02-580-1300,공연 일정에 따라 변동
예술의전당,전시/기념관,37.4802402,127.014215,서울특별시 서초구 서초동 700,02-580-1300,10:00-19:00
예술의전당,전시/기념관,37.4802402,127.014215,서울특별시 서초구 서초동 700,02-580-1300,10:00-19:00
예술의전당,전시/기념관,37.4802402,127.014215,서울특별시 서초구 서초동 700,02-580-1300,10:00-19:00
예술의전당국악원박물관,전시/기념관,37.47771881,127.009818,서울특별시 서초구 서초동 740-4,02-580-3130,10:00-18:00
예스24스테이지,영화/연극/공연,37.58274883,127.003161,서울특별시 종로구 동숭동 1-52,02-742-9637,13:00-22:30
예올북촌가,전시/기념관,37.5813123,126.985221,서울특별시 종로구 가회동 177-7,02-735-5878,화요일-토요일오전 11시-오후 5시
예인갤러리,전시/기념관,37.57209731,126.985392,서울특별시 종로구 인사동 194-4,02-722-6062,정보없음
예인아트홀,영화/연극/공연,37.52703665,127.046189,서울특별시 강남구 청담동 100-7,02-549-0408,정보없음
오금공원서울유아숲체험현장,관광지,37.50519118,127.131653,서울특별시 송파구 오금동 51,02-2147-3390,상시개방
오동공원서울유아숲체험현장,관광지,37.63218102,127.032686,서울특별시 강북구 번동 산 17-14,02-901-6935,상시개방
오래된집,전시/기념관,37.594062,126.999606,서울특별시 성북구 성북동 62-10,02-2135-7622,월-토요일 13:00-18:00
오류문화센터,영화/연극/공연,37.49535812,126.846036,서울특별시 구로구 오류동 64-28,0507-1305-7962,정보없음
오목교족구장,대형체육시설,37.52502723,126.880475,서울특별시 영등포구 양평동 488,02-2670-4096,"08:00-10:00, 10:00-12:00, 12:00-14:00, 14:00-16:00, 16:00-18:00"
오아시스아트홀,영화/연극/공연,37.55415856,126.874347,서울특별시 강서구 염창동 293,02-3663-4833,정보없음
오유아트홀,영화/연극/공연,37.48372308,127.046407,서울특별시 강남구 도곡동 459,02-2176-0743,정보없음
오재미동,영화/연극/공연,37.56186025,126.990263,서울특별시 중구 충무로2가 51-3,02-777-0421,11:00-20:00
옥토끼이미징,전시/기념관,37.53590193,126.899613,서울특별시 영등포구 당산동6가 342,02-2675-0792,정보없음
온수공원서울유아숲체험현장,관광지,37.50090463,126.83816,서울특별시 구로구 개봉동 산 2-60,02-860-2396,상시개방
온수공원서울유아숲체험현장,관광지,37.52136216,126.829684,서울특별시 양천구 신월동 331-5,02-860-2396,상시개방
온컬처인,전시/기념관,37.52663341,127.035625,서울특별시 강남구 신사동 644-13,02-3443-7375,정보없음
올댓큐레이팅,전시/기념관,37.52496022,127.040211,서울특별시 강남구 청담동 85-3,,월-토11:00-17:00
올림픽공원,공원,37.5203397,127.115518,서울특별시 송파구 방이동 88,02-410-1114,00:00-24:00
올림픽공원서울올림픽기념관,전시/기념관,37.5203397,127.115518,서울특별시 송파구 방이동 88,02-410-1354,정보없음
올림픽공원소마미술관,전시/기념관,37.51686487,127.118185,서울특별시 송파구 방이동 88-21,02-425-1077,"1관 10:00-18:00, 2관 10:00-19:00"
올림픽공원소마미술관2관,전시/기념관,37.5164648,127.116303,서울특별시 송파구 방이동 88-17,02-425-1077,"1관 10:00-18:00, 2관 10:00-19:00"
올림픽공원송파구립축구장,대형체육시설,37.5203397,127.115518,서울특별시 송파구 방이동 88,02-2180-3786,"평일주간(가격 단위: 2시간)08:00-18:00, 평일야간(가격 단위: 2시간)18:00-22:00"
올림픽공원올팍축구장,대형체육시설,37.5203397,127.115518,서울특별시 송파구 방이동 88,02-2180-3787,"이용시간(평일 09:00-13:00, 일,공휴일 09:00-18:00)"
올미아트스페이스,전시/기념관,37.5736636,126.98271,서울특별시 종로구 견지동 54,02-733-2002,10:30-18:00
올바디골프,대형체육시설,37.52525587,127.055097,서울특별시 강남구 청담동 130,0507-1383-7765,매일 10:00-22:00
와우책문화예술센터,영화/연극/공연,37.54612284,126.923513,서울특별시 마포구 상수동 331-17,02-312-1582,정보없음
와일드와일드,영화/연극/공연,37.52442849,127.037637,서울특별시 강남구 신사동 653-4,02-544-4786,정보없음
왓에버,영화/연극/공연,37.5524358,126.918827,서울특별시 마포구 서교동 372-6,02-324-0814,11:00-23:00
왓챠홀,영화/연극/공연,37.55157882,126.919828,서울특별시 마포구 서교동 368-22,02-3144-0409,"평일(화,수,목) / 금,일,공휴일 / 토요일 10:00-20:00, 13:00-23:00"
외교사료관,전시/기념관,37.48359736,127.029692,서울특별시 서초구 서초동 1376-1,02-3497-8700,오전(10:00-11:30)/오후(14:00-16:00)
외교사전시실,전시/기념관,37.48377204,127.031187,서울특별시 서초구 서초동 1376-2,02-3497-8716,월-금 09:30-17:00 (12:00-13:00 점심시간)
요트라인,대형레저시설,37.50877603,127.080451,서울특별시 송파구 잠실동 198-7,1566-4577,11:00-23:00
용두동집동네극장,영화/연극/공연,37.57914692,127.025916,서울특별시 동대문구 용두동 764-12,,정보없음
용마공원,공원,37.59451469,127.10453,서울특별시 중랑구 망우동 산 69-1,02-2094-2965,00:00-24:00
용마공원용마랜드,관광지,37.59451469,127.10453,서울특별시 중랑구 망우동 산 69-1,02-436-5800,예약제
용마산유아숲체험장,관광지,37.5867954,127.101168,서울특별시 중랑구 면목동 31-25,,정보없음
용산가족공원,공원,37.52011686,126.984592,서울특별시 용산구 용산동6가 68-89,02-792-5661,00:00-24:00
용산구청용산아트홀,영화/연극/공연,37.53245229,126.990479,서울특별시 용산구 이태원동 34-87,02-2199-7260,정보없음
용산도시기억전시관,전시/기념관,37.52690561,126.966566,서울특별시 용산구 한강로3가 98,0507-1377-2590,화-토 10:00-19:00
용산랜드시네마,영화/연극/공연,37.53278886,126.959559,서울특별시 용산구 한강로3가 16-9,1544-8855,정보없음
용산역사박물관,전시/기념관,37.52566804,126.965769,서울특별시 용산구 한강로3가 65-154,02-2199-4621,10:00-18:00
용왕산유아숲체험원,관광지,37.53986909,126.87334,서울특별시 양천구 목동 199-51,02-2620-3574,상시개방
우당기념관,전시/기념관,37.5838936,126.967769,서울특별시 종로구 신교동 6-22,02-755-0610,10:00-18:00
우란1경,전시/기념관,37.54378977,127.054417,서울특별시 성동구 성수동2가 314-12,070-4244-3663,10:00-19:00
우란문화재단,영화/연극/공연,37.54378977,127.054417,서울특별시 성동구 성수동2가 314-12,02-465-1418,월-금오전 10:00-오후 7:00
우리극장,영화/연극/공연,37.58229402,127.002561,서울특별시 종로구 동숭동 1-58,02-747-9988,월-일 10:00-19:00
우리금융아트홀,영화/연극/공연,37.5203397,127.115518,서울특별시 송파구 방이동 88,,정보없음
우리네극장,영화/연극/공연,37.58075445,127.004174,서울특별시 종로구 동숭동 1-145,02-766-0242,정보없음
우리들의작은전시회,전시/기념관,37.60239522,126.91666,서울특별시 은평구 역촌동 36-1,,"화 10:00-22:00/ 수 10:00-19:00/ 목 10:00-22:00/ 금 10:00-19:00/ 토, 일 10:00-18:00"
우리소극장,영화/연극/공연,37.57922623,127.005157,서울특별시 종로구 동숭동 192-8,070-4618-5669,정보없음
우리소리극장,영화/연극/공연,37.55676668,126.918252,서울특별시 마포구 서교동 448-23,02-326-2820,정보없음
우리술대축제,전시/기념관,37.46827871,127.039136,서울특별시 서초구 양재동 232,02-6952-9497,2022.11.18(금)-20(일)
우리옛돌박물관,전시/기념관,37.60089696,126.990134,서울특별시 성북구 성북동 330-605,02-986-1001,"평일 10:00-17:00,주말, 공휴일 10:00-18:00"
우면동금속박물관,전시/기념관,37.45775784,127.012354,서울특별시 서초구 우면동 610-11,02-578-6633,"전시기간 중 11:00-17:00, 월요일 및 공휴일 휴관"
우면산공원서울유아숲체험현장,관광지,37.47750801,127.020158,서울특별시 서초구 서초동 산 36-6,02-2155-6883,정보없음
우면산유아숲체험장,관광지,37.478413,127.02304,서울특별시 서초구 양재동 산 60,02-2155-6869,정보없음
우석뮤지엄,전시/기념관,37.55656393,126.940328,서울특별시 서대문구 창천동 20-25,02-364-8900,"화-금 10:00-17:00, 주말,공휴일11:00-19:00"
우수급식외식산업전,전시/기념관,37.51182391,127.059159,서울특별시 강남구 삼성동 159,02-515-4855,11:00-18:00 (마지막날은 17:00까지)
우이동산악문화허브,전시/기념관,37.66435384,127.010932,서울특별시 강북구 우이동 346,02-994-8848,"10:00-12:00, 13:00-18:00(17:30까지 VR체험 운영)"
우이동유원지,관광지,37.67757639,127.00217,서울특별시 강북구 우이동 산 71-1,02-901-6114,상시개방
우인아트홀,영화/연극/공연,37.56278664,127.076013,서울특별시 광진구 중곡동 252-12,02-468-7816,정보없음
우장공원서울유아숲체험현장,관광지,37.55328448,126.843075,서울특별시 강서구 내발산동 산 19-1,02-2600-4185,상시개방
우장산축구장,대형체육시설,37.550489,126.844678,서울특별시 강서구 화곡동 산 60-1,02-2600-4195,00:00-24:00
우표문화누리,전시/기념관,37.56159874,126.982169,서울특별시 중구 충무로1가 21-1,02-6450-5600,09:00-17:00 (사전예약제 운영)
우표박물관,전시/기념관,37.56159874,126.982169,서울특별시 중구 충무로1가 21-1,02-6450-5600,09:00-17:00
운평문화원,영화/연극/공연,37.58359772,126.893344,서울특별시 은평구 수색동 363-15,02-383-9300,09:00-18:00
운현궁,명승지,37.57569679,126.986981,서울특별시 종로구 운니동 114-10,,09:00-18:00
웃찾사전용공연장,영화/연극/공연,37.55715433,127.040105,서울특별시 성동구 행당동 377,1588-4446,정보없음
워터킹덤워터파크앤스파,대형레저시설,37.47966838,127.124914,서울특별시 송파구 문정동 618,1600-0666,10:00-18:00
원불교소태산기념관,전시/기념관,37.50975909,126.963859,서울특별시 동작구 흑석동 1-3,0507-1330-7722,정보없음
원앤제이,전시/기념관,37.57975606,126.984145,서울특별시 종로구 가회동 130-1,02-745-1644,11:00-18:00
원에스쓰리디,전시/기념관,37.48083481,126.946571,서울특별시 관악구 봉천동 895-13,02-882-9114,정보없음
원픽뮤직,영화/연극/공연,37.55431633,126.938289,서울특별시 마포구 노고산동 31-39,0507-1357-0317,정보없음
월곡인조잔디축구장,대형체육시설,37.6086202,127.042284,서울특별시 성북구 하월곡동 산 2-1,02-909-3497,07:00-20:00
월드글로리아센터,영화/연극/공연,37.54739941,127.146421,서울특별시 강동구 명일동 340-1,02-440-9270,정보없음
월드비전음악원,영화/연극/공연,37.54961617,126.832841,서울특별시 강서구 내발산동 711-11,02-2662-1803,정보없음
월드컬처오픈코리아,영화/연극/공연,37.56387259,126.971254,서울특별시 중구 순화동 2-6,02-6958-8870,정보없음
월드컵공원,공원,37.56352715,126.898437,서울특별시 마포구 성산동 390-1,02-300-5500,상시개방
월드컵공원난지천공원,공원,37.57246315,126.887048,서울특별시 마포구 상암동 1538,02-300-5500,00:00-24:00
월드컵공원난지천공원축구장,대형체육시설,37.57246315,126.887048,서울특별시 마포구 상암동 1538,,정보없음
월드컵공원노을공원,공원,37.56931804,126.878512,서울특별시 마포구 상암동 481-6,02-300-5501,00:00-24:00
월드컵공원하늘공원,공원,37.56907948,126.886318,서울특별시 마포구 상암동 481-72,02-300-5500,00:00-24:00
월드IT쇼,전시/기념관,37.51182391,127.059159,서울특별시 강남구 삼성동 159,02-6000-1322,"2023. 4.19(수)-4. 21(금), 3일간 10:00-17:00(입장마감 16:00)"
월하예당,영화/연극/공연,37.57289823,126.988859,서울특별시 종로구 낙원동 88-2,02-764-1778,09:00-18:00
웨딩앤웨딩박람회,전시/기념관,37.49567866,127.071912,서울특별시 강남구 대치동 514,1599-3676,정보없음
웨스트브릿지라이브홀,영화/연극/공연,37.55364309,126.926165,서울특별시 마포구 서교동 338-10,02-325-9660,AM 10:00-PM 19:00
웨스트웨어하우스,전시/기념관,37.60940705,126.934954,서울특별시 은평구 녹번동 7,,정보없음
웰니스센터,영화/연극/공연,37.57784118,126.988974,서울특별시 종로구 원서동 181-5,02-953-1285,정보없음
웹툰공작소,관광지,37.55923229,126.985598,서울특별시 중구 남산동2가 30-4,,정보없음
위메이크골프,관광지,37.56764125,126.980923,서울특별시 중구 다동 130,0507-1403-0079,매일 00:00-24:00
윈플러스윈,전시/기념관,37.49249643,127.144623,서울특별시 송파구 거여동 565-11,02-2202-8588,정보없음
유구전시장,전시/기념관,37.56804459,127.01089,서울특별시 중구 을지로7가 143,,10:00-20:00
유금와당박물관,전시/기념관,37.59372003,126.962658,서울특별시 종로구 부암동 302-5,02-394-3451,화-토 10:00-17:00
유나이티드역삼갤러리,영화/연극/공연,37.50358084,127.028042,서울특별시 강남구 역삼동 616-12,02-553-0377,10:00-19:00
유니버설아트센터,영화/연극/공연,37.5509798,127.087095,서울특별시 광진구 능동 25,070-7124-1740,화-목09:00-18:00
유니아트홀,전시/기념관,37.54563331,126.91773,서울특별시 마포구 합정동 358-6,02-3141-1909,매일 00:00-24:00
유니코니아디스커버리,전시/기념관,37.53223715,126.957182,서울특별시 용산구 한강로3가 16-48,070-5101-4152,"평일 10:00-18:00, 주말 및 공휴일 11:00-17:00"
유니플렉스,영화/연극/공연,37.58119758,127.00362,서울특별시 종로구 동숭동 1-94,02-766-2115,정보없음
유로세라믹 서울,영화/연극/공연,37.51309649,127.029689,서울특별시 강남구 논현동 128-12,070-4421-7485,정보없음
유리지공예관,전시/기념관,37.45775784,127.012354,서울특별시 서초구 우면동 610-11,02-578-6663,전시기간 중 11:00-17:00
유림아트홀,영화/연극/공연,37.52332558,127.026662,서울특별시 강남구 신사동 567-14,02-514-9600,정보없음
유비엠코퍼레이션한국,전시/기념관,37.59374818,127.07663,서울특별시 중랑구 상봉동 129-3,02-2209-5885,09:00-18:00
유중아트센터,전시/기념관,37.48954312,126.992843,서울특별시 서초구 방배동 851-4,02-536-1108,화요일-일요일 10:00-18:00
유킴스제타커뮤니케이션즈,전시/기념관,37.48950785,126.988004,서울특별시 서초구 방배동 831-2,02-537-8932,매일 00:00-24:00
육군박물관,전시/기념관,37.62373955,127.101093,서울특별시 노원구 공릉동 1-1,02-2197-6608,10:00-17:00
육군사관학교야구장,대형체육시설,37.62973006,127.097959,서울특별시 노원구 공릉동 1-2,02-2289-6854,07:30-19:30
육영수여사전자기념관,전시/기념관,37.547246,127.078304,서울특별시 광진구 능동 18-11,,정보없음
육영재단어린이회관,전시/기념관,37.547246,127.078304,서울특별시 광진구 능동 18-11,02-2204-6028,월-금 09:00-18:00
윤당아트홀,영화/연극/공연,37.52565512,127.03373,서울특별시 강남구 신사동 634-10,02-3446-9795,화-일 10:00-18:00
윤동주문학관,전시/기념관,37.59209694,126.967069,서울특별시 종로구 청운동 3-100,02-2148-4175,화-일 10:00-18:00
윤형빈소극장,영화/연극/공연,37.55226279,126.922696,서울특별시 마포구 서교동 364-1,02-6383-1003,14:00-20:00
은평구민축구장,대형체육시설,37.63061056,126.924844,서울특별시 은평구 진관동 362-2,02-350-5393,06:00-22:00
은평문화예술회관공연장,영화/연극/공연,37.60369969,126.927902,서울특별시 은평구 녹번동 85-4,02-351-3736,09:00-21:00
은평생활문화센터,영화/연극/공연,37.6186624,126.918605,서울특별시 은평구 갈현동 454-2,02-353-1219,10:00-22:00
은평역사한옥박물관,전시/기념관,37.64033363,126.938008,서울특별시 은평구 진관동 135-5,02-351-8524,09:00-18:00
은행사박물관,전시/기념관,37.559439,126.981751,서울특별시 중구 회현동1가 203 (주)우리은행본점,02-2002-5090,월-토요일 10:00-18:00 (입장마감 17:30)
응봉공원서울유아숲체험현장,관광지,37.54625169,127.004311,서울특별시 용산구 한남동 726-180,02-2199-7595,정보없음
응봉공원유아숲체험장,관광지,37.54447444,127.005057,서울특별시 용산구 한남동 산 8-1,02-2199-7595,"평일 10:00-16:00, 숲체험 프로그램은 예약제"
의사이야기,전시/기념관,37.50272175,127.034745,서울특별시 강남구 역삼동 640-18,0507-1417-2242,09:00-21:00
의외의조합,전시/기념관,37.55380141,127.004624,서울특별시 중구 신당동 432-1866,0507-1495-1273,"평일 11:30AM-7:00PM, 주말 11:00AM-8:00PM"
이건용갤러리,전시/기념관,37.57980992,126.971938,서울특별시 종로구 창성동 143-5,02-730-2243,10:00-18:00
이건희기증관,전시/기념관,37.57656745,126.981714,서울특별시 종로구 송현동 48-9,,정보없음
이리자한복전시관,전시/기념관,37.57761565,126.97997,서울특별시 종로구 사간동 74,02-734-9477,10:00-20:00
이봉창의사기념관,전시/기념관,37.54010272,126.960877,서울특별시 용산구 효창동 286-7,02-2199-7240,10:00-17:00 (휴게시간: 12:00-13:00)
이봉창의사전시관(2024년예정),전시/기념관,37.54032766,126.959676,서울특별시 용산구 효창동 286,,정보없음
이비미팅프로페셔널,전시/기념관,37.50874369,127.058342,서울특별시 강남구 삼성동 158-10,02-508-4217,정보없음
이수아트홀,영화/연극/공연,37.57789549,127.004632,서울특별시 종로구 이화동 36-2,1644-4325,"토요일 15:00-20:00,일요일 14:00-19:00"
이승만기념관,전시/기념관,37.57834257,127.006415,서울특별시 종로구 이화동 1,02-762-3171,09:30-17:00
이엔타운,관광지,37.50128898,127.035927,서울특별시 강남구 역삼동 642-3,02-563-0594,정보없음
이원문화센터,영화/연극/공연,37.53786613,126.944394,서울특별시 마포구 마포동 136-1,02-6356-2121,정보없음
이원용골프아카데미클리닉,대형체육시설,37.4829649,126.881285,서울특별시 금천구 가산동 470-5,0507-1407-4094,평일 07:00-22:00
이음예술문화센타,영화/연극/공연,37.58118995,127.002399,서울특별시 종로구 동숭동 1-117,02-760-9700,매일09:00-22:00
이촌한강공원,공원,37.51577067,126.97412,서울특별시 용산구 이촌동 338-1,02-3780-0551,00:00-24:00
이플래너,대형레저시설,37.53412322,126.964262,서울특별시 용산구 한강로2가 15-37,02-713-3445,정보없음
이한열기념관,전시/기념관,37.55504357,126.933865,서울특별시 마포구 노고산동 54-38,032-325-7216,평일 10:00-17:00
이형아트센터,전시/기념관,37.57378822,126.985426,서울특별시 종로구 관훈동 23,02-736-4806,정보없음
이화아트센터,전시/기념관,37.56446452,126.950289,서울특별시 서대문구 대현동 11-1,02-3277-2484,10:00-18:00
이화여자대학교담인복식미술관,전시/기념관,37.56446452,126.950289,서울특별시 서대문구 대현동 11-1,02-3277-3152,"월-금 09:30-17:00, 문화가있는날 09:30-19:00"
이화여자대학교삼성홀,영화/연극/공연,37.56446452,126.950289,서울특별시 서대문구 대현동 11-1,1644-2962,정보없음
이화여자대학교자연사박물관,전시/기념관,37.56446452,126.950289,서울특별시 서대문구 대현동 11-1,02-3277-4700,평일 10:00-16:00 (월-금)
이화익갤러리,전시/기념관,37.57856923,126.982011,서울특별시 종로구 송현동 1-1,02-730-7818,10:00-18:00
인간과로봇과학관,전시/기념관,37.51198046,127.087042,서울특별시 송파구 잠실동 22-6,02-423-5123,10:00-18:00
인덕대학교아정미술관,전시/기념관,37.63034387,127.0545,서울특별시 노원구 월계동 648,02-950-7331,10:00-17:00
인디톡,영화/연극/공연,37.55613816,126.935271,서울특별시 서대문구 창천동 72-1,02-338-5544,정보없음
인디팬,영화/연극/공연,37.54755034,126.921121,서울특별시 마포구 상수동 322-1,02-517-3985,01:00-22:00
인사1길컬쳐스페이스,영화/연극/공연,37.57155788,126.986836,서울특별시 종로구 인사동 133,02-723-7900,정보없음
인사센트럴뮤지엄,전시/기념관,37.57446687,126.983552,서울특별시 종로구 관훈동 155-2,02-6954-2992,10:00-22:00
인사아트센터,전시/기념관,37.57387983,126.984601,서울특별시 종로구 관훈동 188,0507-1409-1020,10:00-19:00
인사아트페어운영위원회,전시/기념관,37.57143815,126.986981,서울특별시 종로구 인사동 131,02-6104-5547,정보없음
인사아트프라자,전시/기념관,37.57385797,126.98561,서울특별시 종로구 관훈동 21,02-722-9969,매일09:00-20:00
인사아트홀2,영화/연극/공연,37.57385797,126.98561,서울특별시 종로구 관훈동 21,02-722-9969,매일09:00-20:00
인서울27골프클럽,대형레저시설,37.54671974,126.795779,서울특별시 강서구 오곡동 1-6,02-6395-8000,예약제
인쇄문화회관,영화/연극/공연,37.5545813,126.919419,서울특별시 마포구 서교동 352-26,02-335-5881,정보없음
인왕산유아숲체험장,관광지,37.58624952,126.954388,서울특별시 서대문구 홍제동 산 1-1,0507-1406-1907,정보없음
인터와이어드스튜디오,전시/기념관,37.51467903,127.032053,서울특별시 강남구 논현동 88-9,,정보없음
인투인미디어,전시/기념관,37.53629223,126.891841,서울특별시 영등포구 양평동5가 1-1,02-2233-4018,정보없음
일루와유달보루,영화/연극/공연,37.6403949,126.940109,서울특별시 은평구 진관동 189-7,,입실 16:00퇴실 11:00
일민미술관,전시/기념관,37.56986776,126.977657,서울특별시 종로구 세종로 139-8,02-2020-2050,11:00-19:00
일본군관사,명승지,37.58478822,126.883089,서울특별시 마포구 상암동 1735,02-3153-9553,상시개방
일상비일상의틈,영화/연극/공연,37.50058313,127.026761,서울특별시 강남구 역삼동 815-5,070-4090-8005,11:00-21:00
일석기념관,전시/기념관,37.58289104,127.004818,서울특별시 종로구 동숭동 25-1,02-744-6501,10:00-18:00
일신홀,영화/연극/공연,37.53716704,127.005517,서울특별시 용산구 한남동 714,02-790-3364,10:00-18:00
일자산공원서울유아숲체험현장,관광지,37.53536921,127.154455,서울특별시 강동구 둔촌동 산 102-4,02-480-1396,상시개방
잇츠굿엔터테인먼트,영화/연극/공연,37.5328255,126.995104,서울특별시 용산구 이태원동 11-15,,정보없음
자양스테이션,영화/연극/공연,37.53462112,127.083026,서울특별시 광진구 자양동 630-41,02-458-4840,정보없음
자유극장,영화/연극/공연,37.58274873,127.003608,서울특별시 종로구 동숭동 1-45,0507-1370-0661,10:00-22:00
자하미술관,전시/기념관,37.58937711,126.960306,서울특별시 종로구 부암동 362-21,02-395-3222,10:00-18:00
작업실옆집,전시/기념관,37.57968086,126.972564,서울특별시 종로구 창성동 122-8,02-793-1115,10:00-18:30
잠실롯데호텔크리스탈볼룸,영화/연극/공연,37.51130961,127.098142,서울특별시 송파구 잠실동 40-1,02-411-7575,정보없음
잠실유수지공원야구장,대형체육시설,37.50307882,127.076897,서울특별시 송파구 잠실동 306,02-448-7330,06:00-22:00
잠실유수지공원어울림축구장,대형체육시설,37.50385168,127.077345,서울특별시 송파구 잠실동 306,,06:30-22:00
잠실종합운동장,대형체육시설,37.51619968,127.07594,서울특별시 송파구 잠실동 10,02-2240-8800,00:00-24:00
잠실종합운동장보조경기장,대형체육시설,37.51619968,127.07594,서울특별시 송파구 잠실동 10,02-2240-8802,00:00-24:00
잠실종합운동장올림픽주경기장,대형체육시설,37.51619968,127.07594,서울특별시 송파구 잠실동 10,02-2240-8800,00:00-24:00
잠실종합운동장잠실야구장,대형체육시설,37.51619968,127.07594,서울특별시 송파구 잠실동 10,1661-0965,경기에따라 다름
잠실한강공원,공원,37.51762763,127.086736,서울특별시 송파구 잠실동 1-1,02-3780-0511,00:00-24:00
잠원한강공원,공원,37.52075055,127.012273,서울특별시 서초구 잠원동 121,02-3780-0531,00:00-24:00
잣절공원유아숲체험원,관광지,37.50199617,126.839723,서울특별시 구로구 개봉동 45-2,02-860-2396,상시개방
장로회신학대학교역사박물관,전시/기념관,37.55008058,127.104754,서울특별시 광진구 광장동 353,02-450-0783,"매주 월-금요일오전 10시-12시, 오후 2시-4시"
장신구박물관,전시/기념관,37.57367857,126.984735,서울특별시 종로구 관훈동 192-11,02-732-6621,10:30-18:30
장지공원서울유아숲체험현장,관광지,37.48534273,127.134692,서울특별시 송파구 장지동 851,02-400-0978,상시개방
장충공원서울유아숲체험현장,관광지,37.5511809,126.996586,서울특별시 중구 장충동2가 산 14-21,02-771-2440,상시개방
장충리틀야구장,대형체육시설,37.55614665,127.003659,서울특별시 중구 장충동2가 산 7-55,02-3783-5997,시합에 따라 다름
재미랑,전시/기념관,37.55831452,126.986289,서울특별시 중구 남산동2가 26-1,02-3455-8356,10:00-19:00
재활용창작품상설전시관,전시/기념관,37.53707416,126.828182,서울특별시 양천구 신월동 51-2,02-2698-3829,10:00-18:00
잭크래프트,영화/연극/공연,37.5736331,127.02507,서울특별시 동대문구 신설동 104-30,02-790-0933,09:30-18:30
전기박물관,전시/기념관,37.48560466,127.028079,서울특별시 서초구 서초동 1355,02-2105-8190,10:00-18:00
전쟁과여성인권박물관,전시/기념관,37.56009763,126.914887,서울특별시 마포구 성산동 39-13,02-392-5252,오전 10시-오후 6시
전쟁기념관,전시/기념관,37.53731405,126.978466,서울특별시 용산구 용산동1가 8,02-709-3114,"09:30-18:00 (입장마감 17:00, 폐관시작 17:40)"
전쟁기념관어린이박물관,전시/기념관,37.53731405,126.978466,서울특별시 용산구 용산동1가 8,02-709-3200,10:00-18:00
전쟁기념관옥외전시장,전시/기념관,37.53731405,126.978466,서울특별시 용산구 용산동1가 8,02-709-3114,화-일 09:30-18:00
전태일기념관,전시/기념관,37.56846645,126.9893,서울특별시 종로구 관수동 152-1,02-318-0903,"하절기 (3월-10월) / 10:00-18:00,동절기 (11월-2월) / 10:00-17:30"
전통문화공간창선당,영화/연극/공연,37.57044853,127.008744,서울특별시 종로구 종로6가 289-3,02-2262-0144,09:00-22:00
전통문화교육관,전시/기념관,37.50682781,127.060465,서울특별시 강남구 대치동 944-22,02-3011-1788,정보없음
전통음식고추장교육장,관광지,37.47336632,127.098029,서울특별시 강남구 자곡동 475-11,02-451-1121,정보없음
전통주갤러리,전시/기념관,37.57841064,126.985839,서울특별시 종로구 재동 54-5,02-555-2283,화-일 10:00-19:00
절두산순교성지 한국천주교순교자박물관,전시/기념관,37.54413544,126.911794,서울특별시 마포구 합정동 96-1,02-3142-4434,화-일 09:30-17:00
정극장,영화/연극/공연,37.58100205,127.003965,서울특별시 종로구 동숭동 1-92,0507-1352-6485,"평일 15:00-19:30,주말 12:00-19:00"
정동1928아트센터,영화/연극/공연,37.56799609,126.973957,서울특별시 중구 정동 1-23,02-722-1928,매일 10:00-19:00
정동극장,영화/연극/공연,37.56593364,126.972844,서울특별시 중구 정동 8-11,02-751-1500,09:00-18:00
정동컬쳐프라자,영화/연극/공연,37.56817327,126.969976,서울특별시 중구 정동 22,02-6731-6750,요일별 상이
정릉유원지,관광지,37.62065966,126.995092,서울특별시 성북구 정릉동 산 1-1,02-568-1291,상시개방
정미소소극장,영화/연극/공연,37.57820858,127.004719,서울특별시 종로구 동숭동 199-17,0507-1358-1669,매일 10:00-22:00
정보통신망정보보호컨퍼런스,전시/기념관,37.51182391,127.059159,서울특별시 강남구 삼성동 159,02-564-9333,10:00-17:00
정순왕후기념공간,전시/기념관,37.57756126,127.018163,서울특별시 종로구 숭인동 58,02-2148-4152,정보없음
정시대학입학정보박람회,전시/기념관,37.51182391,127.059159,서울특별시 강남구 삼성동 159,02-6000-8572,정보없음
정태호소극장,영화/연극/공연,37.55091631,126.923894,서울특별시 마포구 서교동 360-19,02-324-9090,정보없음
정화아트센터,영화/연극/공연,37.55985621,126.984783,서울특별시 중구 남산동1가 8-1,02-3789-2020,평일 09:00-18:00
정효국악박물관,전시/기념관,37.4875493,127.019626,서울특별시 서초구 서초동 1618-55,02-523-6268,"공연대관9:00-17:00 ,13:00-21:00 ,추가대관,9:00-17:00 17:00-21:00"
제2월곡인조잔디구장,대형체육시설,37.60877884,127.043361,서울특별시 성북구 상월곡동 산 1-1,02-909-3497,07:00-21:00
제로디앤씨,전시/기념관,37.51283208,127.057251,서울특별시 강남구 삼성동 159,02-565-3268,정보없음
제록스튜디오,전시/기념관,37.51140772,126.896358,서울특별시 영등포구 문래동1가 45,,정보없음
제이스카이콤,전시/기념관,37.51023365,127.058597,서울특별시 강남구 삼성동 159,02-523-5028,정보없음
제이엘씨어터,영화/연극/공연,37.55314032,126.922221,서울특별시 마포구 서교동 358-116,070-4887-1267,09:00-18:00
제일라아트홀,영화/연극/공연,37.57504416,126.89549,서울특별시 마포구 상암동 30-2,02-309-3355,정보없음
조계사도심포교100주년기념관,전시/기념관,37.5732527,126.981791,서울특별시 종로구 수송동 46-10,02-768-8562,정보없음
조선왕릉전시관,전시/기념관,37.63015392,127.097474,서울특별시 노원구 공릉동 산 223-19,02-972-0370,"2-5월,9-10월 09:00-18:00,6-8월 09:00-18:30,11-1월 09:00-17:30"
조선일보미술관,전시/기념관,37.56789544,126.975209,서울특별시 중구 정동 1-16,02-724-6322,정보없음
졸탄극장,영화/연극/공연,37.57789549,127.004632,서울특별시 종로구 이화동 36-2,1661-3124,"평일 8시,주말 2시, 5시"
종로구립고희동미술관,전시/기념관,37.58318551,126.988885,서울특별시 종로구 원서동 16,02-741-8424,10:00-18:00
종묘,명승지,37.5731338,126.994864,서울특별시 종로구 훈정동 1-2,02-765-0195,"토요일 09:00-18:00 2월-5월, 9월-10월,토요일 09:00-18:30 6월-8월,토요일 09:00-17:30 11월-1월"
종묘광장공원,공원,37.5731338,126.994864,서울특별시 종로구 훈정동 1-2,02-731-0575,상시개방
종이나라박물관,전시/기념관,37.55964972,127.006154,서울특별시 중구 장충동1가 62-35,02-2279-7901,월-토 09:30-18:00
주영갤러리,영화/연극/공연,37.52479907,127.044611,서울특별시 강남구 청담동 95-4,02-543-1048,10:00-18:00
주한일본대사관공보문화원,영화/연극/공연,37.5768624,126.986907,서울특별시 종로구 운니동 114-8,02-765-3011,10:00-17:00 
줄리아나갤러리,전시/기념관,37.52667776,127.042643,서울특별시 강남구 청담동 79-4,02-514-4266,정보없음
중구문화관,전시/기념관,37.5600479,126.985818,서울특별시 중구 남산동2가 9-6,02-3396-6560,평일 09:00-18:00
중랑아트센터,전시/기념관,37.59833282,127.091624,서울특별시 중랑구 상봉동 500,02-3407-6541,10:00-18:00
중랑잔디운동장,대형체육시설,37.60691135,127.113001,서울특별시 중랑구 망우동 73-2,02-2094-2949,"주중 :09:00-18:00, 주말 :09:00-18:00"
중랑천제5체육공원 이화교 풋살장,대형체육시설,37.60524455,127.072198,서울특별시 중랑구 중화동 345-2,02-2247-9611,00:00-24:00
중림창고,영화/연극/공연,37.55986883,126.96711,서울특별시 중구 중림동 441,070-4152-7489,11:00-20:00
중소기업기술혁신대전,전시/기념관,37.51182391,127.059159,서울특별시 강남구 삼성동 159,02-3445-1519,10:00-17:00
중소기업역사관,전시/기념관,37.57675437,126.897898,서울특별시 마포구 상암동 1622,02-2124-3390,월요일-일요일 09:30-17:30
중앙대아트센터대극장,영화/연극/공연,37.50472672,126.953834,서울특별시 동작구 흑석동 221,02-820-6473,정보없음
즐거운가,전시/기념관,37.48426866,127.130015,서울특별시 송파구 문정동 100-9,070-4192-1318,"평일 13:00-21:00,주말 11:00-19:00"
증산체육공원풋살경기장,대형체육시설,37.58427614,126.903145,서울특별시 은평구 증산동 산 18-6,02-351-6554,09 : 00-22 : 00
지니릴레이션,전시/기념관,37.55554747,126.927526,서울특별시 마포구 서교동 334-1,02-336-0447,매일00:00-24:00
지라보스튜디오,대형체육시설,37.52853018,127.034787,서울특별시 강남구 신사동 638-10,0507-1313-7379,06:00-23:00
지오메트리,전시/기념관,37.54720111,126.913892,서울특별시 마포구 합정동 371-4,070-4693-6710,정보없음
지오엑스포,전시/기념관,37.55693135,126.943616,서울특별시 서대문구 대현동 90-85,02-313-3090,09:00-18:00
지인골프크럽,대형체육시설,37.61280486,126.915229,서울특별시 은평구 갈현동 469-4,02-385-0973,정보없음
지즐소극장,영화/연극/공연,37.58477079,126.999664,서울특별시 종로구 명륜2가 8-16,,정보없음
진아트갤러리,전시/기념관,37.57833017,126.973695,서울특별시 종로구 통의동 7-38,02-738-7570,"평일 10:00-18:00 ,주말 10:00-17:00"
진영도기,전시/기념관,37.50177655,126.899738,서울특별시 영등포구 대림동 681-3,02-2678-3771,정보없음
진플라워,영화/연극/공연,37.47451147,127.099258,서울특별시 강남구 자곡동 440-87,02-571-6337,정보없음
짚풀박물관,전시/기념관,37.58490585,126.999843,서울특별시 종로구 명륜2가 8-4,02-743-8787,10:00-17:00
짚풀생활사박물관,전시/기념관,37.58490585,126.999843,서울특별시 종로구 명륜2가 8-4,02-743-8787,10:00-17:00
차문화,관광지,37.57805585,126.980889,서울특별시 종로구 사간동 13,,정보없음
창경궁,명승지,37.57762395,126.993841,서울특별시 종로구 와룡동 2-1,,09:00-21:00
창덕궁,명승지,37.57886973,126.98971,서울특별시 종로구 와룡동 2-71,,09:00-18:00
창덕궁소극장,영화/연극/공연,37.58242629,126.997752,서울특별시 종로구 명륜4가 198-3,02-742-7278,정보없음
창동극장,영화/연극/공연,37.65283932,127.051609,서울특별시 도봉구 창동 16-1,070-8749-3205,정보없음
창동스포츠문화컴플렉스,대형체육시설,37.65682218,127.050837,서울특별시 도봉구 창동 1-24,02-901-5046,정보없음
창동스포츠문화컴플렉스창동게이트볼장,대형체육시설,37.65682218,127.050837,서울특별시 도봉구 창동 1-24,02-901-5046,정보없음
창동스포츠문화컴플렉스축구장,대형체육시설,37.65682218,127.050837,서울특별시 도봉구 창동 1-24,02-901-5044,정보없음
창조비전아트홀,영화/연극/공연,37.55722373,126.947953,서울특별시 서대문구 대현동 67-11,02-761-2777,정보없음
창조소극장,영화/연극/공연,37.58456464,127.000048,서울특별시 종로구 명륜2가 13,0507-1310-1504,10:00-22:00
창희보석예술관,전시/기념관,37.52774624,127.030137,서울특별시 강남구 신사동 614-3,02-545-4540,10:00-18:00
채플린이지골프,대형체육시설,37.48433225,127.045709,서울특별시 강남구 도곡동 422,02-572-4295,예약에 따라 상이
천마근린공원천마축구장,대형체육시설,37.50038417,127.158813,서울특별시 송파구 마천동 산 2,02-403-2395,매일 08:00-22:00
천안함전시관,전시/기념관,37.53731405,126.978466,서울특별시 용산구 용산동1가 8,02-709-3114,매일 09:30-18:00
천연옹달샘,영화/연극/공연,37.56861214,126.961284,서울특별시 서대문구 천연동 98-1,070-8119-6346,"평일 10:00-19:00,주말 10:00-18:00"
천장산우화극장,영화/연극/공연,37.60497289,127.050586,서울특별시 성북구 상월곡동 24-348,02-6906-3105,정보없음
청계7경존치교각,관광지,37.57218171,127.035533,서울특별시 동대문구 용두동 701-6,02-731-2120,상시개방
청계7경터널분수,관광지,37.5698803,127.029295,서울특별시 성동구 하왕십리동 301-9,02-2286-5114,상시개방
청계산자연공원,공원,37.45203345,127.042811,서울특별시 서초구 원지동 63,02-2155-6870,00:00-24:00
청계천,관광지,37.56831147,126.991357,서울특별시 종로구 관수동 150-2,02-2290-6114,정보없음
청계천민속놀이,관광지,37.56933925,126.981378,서울특별시 종로구 서린동 88,02-2286-3402,상시개방
청계천박물관,전시/기념관,37.57126617,127.035043,서울특별시 성동구 마장동 527-4,02-2286-3410,"3월-10월 ,11월-2월 평일09:00-18:00, 토,일,공휴일09:00-18:00"
청계천생태학습장,관광지,37.56970114,127.04515,서울특별시 성동구 마장동 802-2,02-2290-6859,10:00-16:00
청년공간이음,영화/연극/공연,37.47784875,126.9589,서울특별시 관악구 봉천동 1627-10,02-873-3575,10:00-22:00
청년극장,영화/연극/공연,37.58034485,127.004258,서울특별시 종로구 동숭동 1-149,02-745-1433,공연일정에 따라 변동
청년문화공간JU동교동,영화/연극/공연,37.55721147,126.923029,서울특별시 마포구 동교동 158-2,02-338-7830,09:00-18:00
청소년문화의집,영화/연극/공연,37.51365776,126.917078,서울특별시 영등포구 신길동 107-2,02-843-5935,10:00-17:00
청소년센터쉼표,영화/연극/공연,37.55981078,126.936558,서울특별시 서대문구 창천동 83-55,070-8680-0720,정보없음
청와대,관광지,37.58647569,126.974937,서울특별시 종로구 세종로 1,1522-7760,09:00-18:00
청와대사랑채,전시/기념관,37.58254488,126.973059,서울특별시 종로구 효자동 150,02-723-0300,수-월 09:00-18:00
청운동화실,전시/기념관,37.58155162,126.968008,서울특별시 종로구 옥인동 47-40,,11:00-22:00
청원산방성심예공원,전시/기념관,37.58042983,126.986357,서울특별시 종로구 계동 79-12,02-715-3342,평일 10:00-17:00 화-토요일 개방
청호불교문화회관,영화/연극/공연,37.52063014,127.036163,서울특별시 강남구 논현동 98-12,02-517-3052,정보없음
청화랑,전시/기념관,37.52273774,127.047651,서울특별시 강남구 청담동 7-21,02-543-1663,"월-금 10:30-18:00,토 11:00-17:00"
체신기념관,전시/기념관,37.57442907,126.982615,서울특별시 종로구 견지동 39-7,02-734-8369,정보없음
체험세상,관광지,37.55521574,127.07809,서울특별시 광진구 군자동 1-4,,정보없음
초록씨어터,영화/연극/공연,37.58270506,127.002157,서울특별시 종로구 동숭동 1-33,070-8863-0220,매일10:00-19:00
초안산근린공원창골잔디구장,대형체육시설,37.64915283,127.040085,서울특별시 도봉구 창동 677,02-2091-3754,정보없음
초안산체육공원,공원,37.63836253,127.051739,서울특별시 노원구 월계동 산 63-1,02-2289-6865,06:00-22:00
초안산체육공원초안산축구장,대형체육시설,37.63836253,127.051739,서울특별시 노원구 월계동 산 63-1,02-2289-6855,06:00-22:00
초전섬유앤퀄트박물관,전시/기념관,37.55812812,126.98423,서울특별시 중구 남산동1가 20,02-753-4075,월-토10:00-17:00
최양업홀,영화/연극/공연,37.55919341,126.96698,서울특별시 중구 중림동 149-2,02-393-2213,정보없음
축구전시관,전시/기념관,37.57349432,126.969104,서울특별시 종로구 신문로2가 1-131,02-2002-0707,09:00-18:00
춘원당한방박물관,전시/기념관,37.57150054,126.990242,서울특별시 종로구 낙원동 153-1,02-3672-2005,요일별 상이
출판박물관,전시/기념관,37.60869773,126.957076,서울특별시 종로구 구기동 126-4,02-394-6544,10:00-17:00
춤아트아카데미,영화/연극/공연,37.47205431,127.040456,서울특별시 서초구 양재동 244-5,0507-1406-4560,매일 00:00-24:00
충동소극장,영화/연극/공연,37.53227046,127.070634,서울특별시 광진구 자양동 497-4,,정보없음
충무갤러리,전시/기념관,37.56594097,127.014791,서울특별시 중구 흥인동 131,02-2230-6600,오전 9:00-오후10:00
충무공이야기,전시/기념관,37.57184786,126.976168,서울특별시 종로구 세종로 81-3,02-399-1177,오전 10시-오후6시30분(오후6시 입장 마감)
충무아트센터대극장,영화/연극/공연,37.56594097,127.014791,서울특별시 중구 흥인동 131,02-2230-6600,정보없음
충무아트홀,영화/연극/공연,37.56594097,127.014791,서울특별시 중구 흥인동 131,02-2230-6600,오전 9:00-오후 10:00
친친가족문화원,영화/연극/공연,37.51673772,127.105443,서울특별시 송파구 신천동 11-10,02-425-0751,매일 00:00-24:00
친환경유기농무역박람회,전시/기념관,37.51182391,127.059159,서울특별시 강남구 삼성동 159,02-557-6776,"10:00-17:00(입장마감 16:30,토요일 30분 일찍 마감)"
카그아트홀,영화/연극/공연,37.47580269,126.987094,서울특별시 서초구 방배동 479-12,02-565-1394,정보없음
칼박물관,전시/기념관,37.57367857,126.984735,서울특별시 종로구 관훈동 192-11,02-735-4431,"오전 10:00-오후 7:00(평일), 오전 10:00-오후 6:00(토요일), 오전 12:00-오후 6:00(일요일,공휴일)"
캔쿤,대형체육시설,37.4773868,126.987482,서울특별시 서초구 방배동 477-1,02-6052-0054,"주중 10:00-22:00, 주말 10:00-20:00"
캠퍼스디,전시/기념관,37.53633048,126.892384,서울특별시 영등포구 양평동5가 2-5,0507-1345-0930,월-금 09:00-18:00
커넥트커뮤니케이션즈,전시/기념관,37.48701596,127.039572,서울특별시 강남구 도곡동 903-1,02-579-8760,정보없음
커무브,관광지,37.54745246,126.950592,서울특별시 마포구 공덕동 370-4,070-4001-7006,정보없음
컬쳐스페이스엔유,영화/연극/공연,37.58081329,127.003979,서울특별시 종로구 동숭동 1-144,02-731-9199,정보없음
컬쳐씨어터,영화/연극/공연,37.58247727,127.003268,서울특별시 종로구 동숭동 1-73,0507-1486-0213,11:00-20:00
컬쳐앤아이리더스,전시/기념관,37.54540533,127.002797,서울특별시 용산구 한남동 726-322,02-6273-4242,월-금 11:00-20:00
케이라이브,영화/연극/공연,37.56574346,127.007064,서울특별시 중구 을지로6가 21-31,02-2265-0810,정보없음
케이아트,영화/연극/공연,37.55148622,126.924087,서울특별시 마포구 서교동 360-14,070-7613-3002,정보없음
케이지문화교류센터,영화/연극/공연,37.49769174,126.892255,서울특별시 구로구 구로동 106-4,02-861-0818,정보없음
케이팝전용관,영화/연극/공연,37.56470562,126.993214,서울특별시 중구 초동 18-5,02-2274-2121,10:00-22:00
코넥시아,전시/기념관,37.47826843,127.039826,서울특별시 서초구 양재동 81-1,02-573-8953,"월-목 09:00-18:00, 금 09:00-17:00"
코델아트홀,영화/연극/공연,37.58174734,127.004297,서울특별시 종로구 동숭동 50-24,,정보없음
코리아스마트그리드엑스포,전시/기념관,37.51182391,127.059159,서울특별시 강남구 삼성동 159,02-6000-1172,"17-18일: 10시-17시(입장마감 16:30), 19일: 10시-16시(입장마감 15:30)"
코멕스플랜에스,전시/기념관,37.55251942,126.918978,서울특별시 마포구 서교동 372-5,02-322-3706,정보없음
코바코홀,영화/연극/공연,37.52698169,126.871394,서울특별시 양천구 목동 923-5,0507-1394-5700,정보없음
코스모스아트홀,영화/연극/공연,37.48285557,127.011557,서울특별시 서초구 서초동 1461-9,02-522-8844,매일 09:00-21:30
코엑스,전시/기념관,37.51182391,127.059159,서울특별시 강남구 삼성동 159,02-6000-0114,정보없음
코엑스그랜드볼룸,전시/기념관,37.51182391,127.059159,서울특별시 강남구 삼성동 159,02-6000-0114,정보없음
코엑스아쿠아리움,관광지,37.51182391,127.059159,서울특별시 강남구 삼성동 159,02-700-7200,10:00-20:00(입장마감은 1시간전까지)
코엑스아티움,영화/연극/공연,37.51311015,127.059758,서울특별시 강남구 삼성동 159,1661-5628,정보없음
코엑스오디토리움,영화/연극/공연,37.51182391,127.059159,서울특별시 강남구 삼성동 159,02-6000-0114,정보없음
코엑스웨딩박람회,전시/기념관,37.51182391,127.059159,서울특별시 강남구 삼성동 159,02-6207-4114,11:00-20:00
코엑스컨퍼런스룸E,전시/기념관,37.51182391,127.059159,서울특별시 강남구 삼성동 159,02-6000-0114,정보없음
코엑스홀C,영화/연극/공연,37.51182391,127.059159,서울특별시 강남구 삼성동 159,02-6000-1112,정보없음
코엑스홀D,영화/연극/공연,37.51182391,127.059159,서울특별시 강남구 삼성동 159,02-6000-0114,정보없음
코웨이갤러리,전시/기념관,37.4798477,126.895318,서울특별시 구로구 구로동 832,02-2160-5633,요일별 상이
코쿤홀,영화/연극/공연,37.56033419,126.992135,서울특별시 중구 필동1가 24-32,02-2276-2562,10:00-22:00
콘서트하우스,영화/연극/공연,37.48534579,127.010474,서울특별시 서초구 서초동 1535-9,02-588-3130,00:00-24:00
콘텐츠그라운드,영화/연극/공연,37.5809598,127.003708,서울특별시 종로구 동숭동 1-93,070-4452-2091,정보없음
콘텐츠박스,영화/연극/공연,37.58075445,127.004174,서울특별시 종로구 동숭동 1-145,02-747-2232,정보없음
큐씨어터,영화/연극/공연,37.58248888,127.003554,서울특별시 종로구 동숭동 1-74,070-4162-8320,14:00-22:00
크레모나악기연습실,영화/연극/공연,37.55776811,126.943071,서울특별시 서대문구 대현동 101-6,0507-1307-9163,08:00-23:00
크로우골프,대형체육시설,37.57736595,127.028171,서울특별시 동대문구 용두동 233-24,0507-1397-2388,매일 08:00-22:00
크리에이티브통,전시/기념관,37.50146655,127.040433,서울특별시 강남구 역삼동 719-1,02-2034-0615,정보없음
클라우드홀,영화/연극/공연,37.47624974,126.972997,서울특별시 동작구 사당동 1049-4,0507-1410-2461,00:00-24:00
클래비키즈파크,전시/기념관,37.547246,127.078304,서울특별시 광진구 능동 18-11,02-6677-6360,"주말, 공휴일, 방학기간 10:00-18:00"
클럽샤프,영화/연극/공연,37.55361526,126.909254,서울특별시 마포구 망원동 384-23,,"토,일 06:00-24:00"
키넥스,전시/기념관,37.54101026,127.016197,서울특별시 성동구 옥수동 100,0505-211-1555,매일 09:00-18:00
키득키득아트홀,영화/연극/공연,37.58131306,127.004305,서울특별시 종로구 동숭동 128-5,02-3673-1590,매일 10:00-20:00
키미갤러리,전시/기념관,37.61300757,126.974293,서울특별시 종로구 평창동 479-2,02-394-6441,10:30-22:00
키작은소나무,영화/연극/공연,37.58760122,127.003206,서울특별시 종로구 혜화동 37-1,,정보없음
키친페어,전시/기념관,37.51182391,127.059159,서울특별시 강남구 삼성동 159,02-6000-1422,정보없음
타블로갤러리,전시/기념관,37.57378822,126.985426,서울특별시 종로구 관훈동 23,02-723-6081,11:00-18:00
타이니앨리스극장,영화/연극/공연,37.5820588,127.000418,서울특별시 종로구 명륜4가 113-1,0507-1305-0830,정보없음
타이포잔치,전시/기념관,37.55605818,126.972116,서울특별시 중구 봉래동2가 122-28,0507-1416-3501,화-일 11:00-19:00
탄천축구장,대형체육시설,37.49641284,127.100499,서울특별시 송파구 가락동 508,02-448-7330,08:00-20:00
탄허기념불교박물관,전시/기념관,37.47898861,127.102812,서울특별시 강남구 자곡동 285,02-445-8486,오전 10시00분-오후 5시
탈영역우정국,전시/기념관,37.54695056,126.927612,서울특별시 마포구 창전동 390-11,02-336-8553,평일 09:00-19:00
탑골미술관,전시/기념관,37.57596579,126.985853,서울특별시 종로구 경운동 90-3,02-6220-8663,"월-금 10:00-18:00, 토 10:00-15:00"
태릉 체력단련장,대형레저시설,37.62973006,127.097959,서울특별시 노원구 공릉동 1-2,02-970-7320,정보없음
태릉 카카오 스크린골프,대형체육시설,37.61890808,127.075878,서울특별시 노원구 공릉동 617-18,02-971-0753,매일 07:00-01:00
태양의놀이터,관광지,37.56410596,126.892347,서울특별시 마포구 상암동 1535,02-3151-0562,상시개방
텅스텐홀,영화/연극/공연,37.55510476,126.92834,서울특별시 마포구 서교동 335-4,070-8847-7749,"평일 16:00-01:00,주말 16:00-03:00"
테라스가든,영화/연극/공연,37.52732178,126.874619,서울특별시 양천구 목동 916,02-2163-2233,10:30-20:00
테지움테디베어테마파크,관광지,37.57173963,127.015206,서울특별시 종로구 창신동 328-18,1877-0279,매일 08:30-19:00
테크인홀,영화/연극/공연,37.52335113,127.037425,서울특별시 강남구 신사동 652-3,,정보없음
토마토홀,영화/연극/공연,37.54765171,126.910633,서울특별시 마포구 합정동 379-5,02-2128-3366,정보없음
토이키노뮤지엄,전시/기념관,37.56817327,126.969976,서울특별시 중구 정동 22,02-2175-1964,화-토 10:00-17:00
토탈미술관,전시/기념관,37.61212183,126.975675,서울특별시 종로구 평창동 465-16,02-379-7037,11:00-18:00
토포하우스,전시/기념관,37.57409513,126.984325,서울특별시 종로구 관훈동 183,02-734-7555,정보없음
통인화랑,전시/기념관,37.57358312,126.985921,서울특별시 종로구 관훈동 16,02-735-9094,매일 10:30-18:30 화요일-토요일일요일 12:00-17:00
통통역사체험,관광지,37.59951491,126.908367,서울특별시 은평구 신사동 15-59,,정보없음
통합예술교육공동체포이에시스,영화/연극/공연,37.53931701,127.091025,서울특별시 광진구 구의동 210-57,0507-1376-0866,정보없음
투게더투게더,전시/기념관,37.57884381,126.982934,서울특별시 종로구 안국동 17-5,02-738-0738,"화-토 10:00-18:00, 일 12:00-17:00"
튜브스터코리아,대형레저시설,37.5124362,126.995962,서울특별시 서초구 반포동 650,070-4288-1363,"여름 16:00-24:00,봄가을 15:00-23:00"
틈새소극장,영화/연극/공연,37.48391704,126.938889,서울특별시 관악구 봉천동 948-15,0507-1374-2797,정보없음
티오엠,영화/연극/공연,37.58227606,127.003645,서울특별시 종로구 동숭동 1-80,02-6959-6162,10:00-22:00
티월드페스티벌,전시/기념관,37.51182391,127.059159,서울특별시 강남구 삼성동 159,02-6000-8000,오전 10:00-오후 06:00
틴틴홀,영화/연극/공연,37.58160041,127.003554,서울특별시 종로구 동숭동 1-97,02-774-8760,정보없음
파독근로자기념관,전시/기념관,37.46890441,127.044628,서울특별시 서초구 양재동 342-5,02-581-7891,10:00-18:00
파라다이스카지노,대형레저시설,37.55862873,127.111707,서울특별시 광진구 광장동 22-1,1899-0700,00:00-24:00
파라다이스투어,전시/기념관,37.55962115,127.004103,서울특별시 중구 장충동2가 186-210,0507-1433-2000,09:00-18:00
파랑새극장,영화/연극/공연,37.58153269,127.002336,서울특별시 종로구 동숭동 1-115,02-744-0015,10:00-22:00
파랑씨어터,영화/연극/공연,37.58248711,127.002472,서울특별시 종로구 동숭동 1-57,070-4870-1932,공연일정확인
파랑홀,영화/연극/공연,37.47649021,126.974157,서울특별시 동작구 사당동 1049-16,,00:00-24:00
파앤슈어골프스쿨,대형체육시설,37.50967768,127.055536,서울특별시 강남구 삼성동 151-7,02-565-0329,매일 06:00-22:30
파인트리시어터,영화/연극/공연,37.5075964,127.045765,서울특별시 강남구 역삼동 694-34,,정보없음
파크존 골프 아카데미,대형체육시설,37.56720085,127.062754,서울특별시 동대문구 장안동 192-73,02-2213-7200,"주중 08:00-22:00,주말 07:00-18:00"
팔레드서울,전시/기념관,37.57921322,126.973224,서울특별시 종로구 통의동 6,02-730-7707,"화요일-금요일 10:00-19:00, 주말(토요일,일요일) 11:00-18:00"
팡타개라지,영화/연극/공연,37.57206892,126.969011,서울특별시 종로구 신문로2가 1-181,02-730-5516,정보없음
팩토리갤러리,전시/기념관,37.57952171,126.972412,서울특별시 종로구 창성동 127-3,02-733-4883,11:00-19:00
팩토리투,전시/기념관,37.57952171,126.972412,서울특별시 종로구 창성동 127-3,02-733-4883,매일 11:00-19:00
펑키하우스,영화/연극/공연,37.56345745,126.983765,서울특별시 중구 명동2가 50-14,1588-7890,공연일정확인
페리지홀앤갤러리,영화/연극/공연,37.48223159,127.01274,서울특별시 서초구 서초동 1451-51,070-4676-7096,월요일-토요일 10:30-18:00
페이스갤러리,전시/기념관,37.53849875,127.001133,서울특별시 용산구 한남동 740-1,02-790-9388,10:00-18:00
페이퍼돌메이트 아틀리에,전시/기념관,37.57880163,126.982217,서울특별시 종로구 안국동 19-1,070-8879-4373,월-금10:30-16::30
페인터즈정동길전용관,영화/연극/공연,37.56817327,126.969976,서울특별시 중구 정동 22,02-766-7848,정보없음
펭귄오션레저,대형레저시설,37.56852858,126.981627,서울특별시 중구 다동 10,02-3443-1458,평일 08:30-17:30
평강성서유물박물관,전시/기념관,37.49195522,126.844061,서울특별시 구로구 오류동 150-15,02-2686-9496,"매일 10:00-17:00,일요일 13:00-17:00"
평창아트,전시/기념관,37.61271633,126.974917,서울특별시 종로구 평창동 462-2,02-3216-0034,10:00-18:00
평화문화진지,전시/기념관,37.69078014,127.046813,서울특별시 도봉구 도봉동 8,02-3494-1970,화-일 10:00-18:00
평화비소녀상,관광지,37.57447326,126.981095,서울특별시 종로구 수송동 83-1,02-365-4016,상시개방
평화의공원,공원,37.56410596,126.892347,서울특별시 마포구 상암동 1535,02-300-5500,00:00-24:00
포니정홀,전시/기념관,37.51364005,127.061137,서울특별시 강남구 삼성동 160,02-2008-8814,매일 06:00-24:00
포도몰문화센터,영화/연극/공연,37.47716446,126.915154,서울특별시 관악구 신림동 1680-12,02-881-8400,정보없음
포미나,대형체육시설,37.50996659,127.079155,서울특별시 송파구 잠실동 196,0507-1412-9017,"10:00-24:00, 주말 07:00-24:00"
포스코미술관,전시/기념관,37.50581497,127.056131,서울특별시 강남구 대치동 892,02-3457-1665,"10:00-18:00, 30분 전 입장 마감"
포스트극장,영화/연극/공연,37.55413897,126.929673,서울특별시 마포구 창전동 5-92,02-337-5961,정보없음
포커스뮤직,영화/연극/공연,37.4823796,127.010309,서울특별시 서초구 서초동 1482-8,0507-1331-3323,00:00-24:00
포트링,관광지,37.5491168,126.916642,서울특별시 마포구 서교동 394-12,0507-1326-0802,매일 11:00-19:00
폼텍웍스홀,영화/연극/공연,37.5506957,126.917916,서울특별시 마포구 서교동 395-174,0507-1402-3644,유동적
푸룻푸룻뮤지엄,전시/기념관,37.57155788,126.986836,서울특별시 종로구 인사동 133,,정보없음
푸르덴셜생명홍보역사관,전시/기념관,37.49005271,127.032164,서울특별시 강남구 역삼동 838,1588-3374,정보없음
푸르지오아트홀,영화/연극/공연,37.56613918,126.997327,서울특별시 중구 을지로4가 323,02-2288-2864,정보없음
푸른수목원,관광지,37.48196844,126.823669,서울특별시 구로구 항동 31,02-2686-3203,05:00-22:00
푸른수목원KB숲교육센터,영화/연극/공연,37.48533773,126.827625,서울특별시 구로구 항동 222-52,,정보없음
풀무골대장간조형물,관광지,37.57177449,126.896863,서울특별시 마포구 성산동 산 52,02-3153-9553,정보없음
풋볼팬타지움,전시/기념관,37.56828845,126.897273,서울특별시 마포구 성산동 515,02-305-2002,10:00am-6:00pm
프라임아트홀,영화/연극/공연,37.50704384,126.890227,서울특별시 구로구 구로동 3-25,02-2111-3525,정보없음
프렌즈골프스쿨,대형체육시설,37.52746278,127.128732,서울특별시 강동구 성내동 545-8,0507-1376-5146,06:00-23:00
프렌즈스크린서울대입구역,대형체육시설,37.48000009,126.956867,서울특별시 관악구 봉천동 1673-21,02-888-8850,09:00-23:00
프로보크서울,영화/연극/공연,37.5159435,126.900916,서울특별시 영등포구 문래동3가 9,,정보없음
프로젝트박스시야,영화/연극/공연,37.52634436,126.996046,서울특별시 용산구 동빙고동 1-102,070-7606-5577,정보없음
프로젝트스페이스미음,전시/기념관,37.60859487,126.972239,서울특별시 종로구 평창동 148-1,0507-1418-3333,"평일 10:00-18:00, 주말 12:00-15:00"
프리버드라이브홀,영화/연극/공연,37.56008043,126.926869,서울특별시 서대문구 창천동 512-1,,공연에 따라 상이
프리뷰인서울,전시/기념관,37.51182391,127.059159,서울특별시 강남구 삼성동 159,02-528-4057,09:30-18:00
프리즘홀,영화/연극/공연,37.55166545,126.917531,서울특별시 마포구 서교동 395-152,070-8150-2979,매일 10:00-23:00
프린세스요트코리아,대형레저시설,37.53536183,127.084433,서울특별시 광진구 자양동 680-68,02-3436-3549,매일09:00-21:00
프린트베이커리,전시/기념관,37.55862873,127.111707,서울특별시 광진구 광장동 22-1,02-2022-0120,10:00-19:00
플라이짐,대형체육시설,37.48433524,127.029509,서울특별시 서초구 서초동 1354-5,,"주중 6:00-23:00,주말 09:00-18:00"
플래뮤아트센터큐브어린이뮤지엄,전시/기념관,37.47761484,127.124962,서울특별시 송파구 문정동 634,02-2673-2595,"평일 14:00-19:00, 주말 10:00-17:00"
플랩스타디움,대형체육시설,37.47844577,126.885081,서울특별시 금천구 가산동 60-20,02-2109-7000,00:00-24:00
플랫폼74,영화/연극/공연,37.58153326,127.004302,서울특별시 종로구 동숭동 50-44,0507-1305-3249,00:00-24:00
플랫폼라이브,영화/연극/공연,37.51605511,127.034382,서울특별시 강남구 논현동 85-11,02-6929-4470,화-일 11:00-20:00
플랫폼엘컨템포러리아트센터,영화/연극/공연,37.51605511,127.034382,서울특별시 강남구 논현동 85-11,02-6929-4470,11:00-20:00
플랫폼창동61,영화/연극/공연,37.65407759,127.048737,서울특별시 도봉구 창동 1-29,02-993-0561,"평일 10:00-22:00,공휴일 10:00-19:00"
플러스씨어터,영화/연극/공연,37.58081329,127.003979,서울특별시 종로구 동숭동 1-144,02-731-9199,정보없음
플레이더씨어터,영화/연극/공연,37.58057676,127.004586,서울특별시 종로구 동숭동 130-47,02-764-0686,정보없음
플레툰쿤스트할레,영화/연극/공연,37.52050861,127.034917,서울특별시 강남구 논현동 97-22,,정보없음
플렉스라운지,영화/연극/공연,37.55251942,126.918978,서울특별시 마포구 서교동 372-5,0507-1403-4679,매일14:00-23:00
플로팅아일랜드,영화/연극/공연,37.5124362,126.995962,서울특별시 서초구 반포동 650,02-537-2440,정보없음
피규어뮤지엄W,전시/기념관,37.5257998,127.040387,서울특별시 강남구 청담동 84-9,02-512-8865,매일 오전 11시-오후 7시
피노파밀리아,영화/연극/공연,37.6460322,127.079659,서울특별시 노원구 중계동 363-7,0507-1432-0913,10:00-16:00
피스코인터내셔널,전시/기념관,37.50088993,127.032801,서울특별시 강남구 역삼동 637-23,0507-1329-9822,정보없음
피치푸마,대형체육시설,37.53024475,126.8733,서울특별시 양천구 목동 919-7,0507-1379-8017,10:00-24:00
피카디리국제미술관,전시/기념관,37.57102751,126.99123,서울특별시 종로구 돈의동 137,02-762-2005,10:00-19:00
피카소소극장,영화/연극/공연,37.58259066,127.000291,서울특별시 종로구 명륜4가 70-4,02-3672-7971,공연일정에 따라 다름
피케이엠갤러리,전시/기념관,37.57902902,126.982685,서울특별시 종로구 화동 137-1,02-734-9467,10:00-18:00
피크닉PIKNIC,전시/기념관,37.55697639,126.978121,서울특별시 중구 남창동 194,02-318-3233,화-일 11:00-19:00
핀하이골프랩,대형체육시설,37.5240382,126.922902,서울특별시 영등포구 여의도동 23-5,0507-1369-1003,"주중 06:00-22:30,주말 10:00-19:00"
필동문화예술공간예술통,영화/연극/공연,37.56034246,126.991882,서울특별시 중구 필동1가 24-11,02-2276-2400,00:00-24:00
하나투어브이홀,영화/연극/공연,37.5544056,126.921966,서울특별시 마포구 서교동 356-1,02-338-0958,정보없음
하땅세극장,영화/연극/공연,37.58870162,127.005157,서울특별시 성북구 성북동1가 35-29,1600-2238,11:00-21:00
하랑플레이스,영화/연극/공연,37.54844821,126.917857,서울특별시 마포구 합정동 412-8,,00:00-24:00
하마씨어터,영화/연극/공연,37.58226095,127.002772,서울특별시 종로구 동숭동 1-63,02-766-0830,10:30-20:00
하우징브랜드페어,전시/기념관,37.51182391,127.059159,서울특별시 강남구 삼성동 159,02-515-4800,10:00-18:00(입장은 오후 5시까지)
하이브인사이트,전시/기념관,37.52454565,126.964198,서울특별시 용산구 한강로3가 65-9,,화요일-일요일 오전 11시-오후 9시 00분
하이커그라운드,전시/기념관,37.56852858,126.981627,서울특별시 중구 다동 10,02-729-9594,시설마다 상이
하이트컬렉션,전시/기념관,37.521649,127.056768,서울특별시 강남구 청담동 132-12,02-3219-0271,목-일 12:00-18:00
학고재,전시/기념관,37.57512931,126.983767,서울특별시 종로구 관훈동 120,02-720-1524,10:00-18:00
학아재미술관,전시/기념관,37.57708465,126.990407,서울특별시 종로구 와룡동 122,02-766-7647,10:00-19:00
학전그린소극장,영화/연극/공연,37.58389021,127.003075,서울특별시 종로구 동숭동 1-8,02-763-8233,10:00-18:00
학전블루소극장,영화/연극/공연,37.58205712,127.003716,서울특별시 종로구 동숭동 1-79,02-763-8233,10:00-18:00
한강드론공원,공원,37.54724085,127.120052,서울특별시 강동구 천호동 351-1,02-3780-0501,"동절기(10-03월) : 08:00-16:00,하절기(04-09월) : 08:00-18:00"
한강시민공원뚝섬지구수변광장,영화/연극/공연,37.5278619,127.073807,서울특별시 광진구 자양동 435,,정보없음
한강시민공원여의도지구다목적문화마당,영화/연극/공연,37.53325498,126.92018,서울특별시 영등포구 여의도동 82-9,02-3780-0561,상시개방
한국가곡예술마을나음아트홀,영화/연극/공연,37.47486011,127.05081,서울특별시 강남구 개포동 1184-2,02-567-7800,정보없음
한국가구박물관,전시/기념관,37.60037831,126.993449,서울특별시 성북구 성북동 330-577,02-745-0181,10:00-19:00
한국가상증강현실콤플렉스,전시/기념관,37.57942834,126.889783,서울특별시 마포구 상암동 1605,02-2132-0501,10:00-17:00
한국건축산업대전,전시/기념관,37.51182391,127.059159,서울특별시 강남구 삼성동 159,02-3415-6876,오전10시-오후6시
한국고미술상설전시관,전시/기념관,37.57528783,126.986167,서울특별시 종로구 경운동 88,02-730-5601,"평일 10:00-18:00, 토 09:00-16:00"
한국광고문화회관,영화/연극/공연,37.51592726,127.099643,서울특별시 송파구 신천동 7-11,,정보없음
한국광고박물관,전시/기념관,37.51592726,127.099643,서울특별시 송파구 신천동 7-11,02-2144-0116,화-일 09:30-17:30
한국국제교류재단,영화/연극/공연,37.56155336,126.970996,서울특별시 중구 순화동 7,064-804-1000,09:00-18:00
한국국제전시,전시/기념관,37.52079083,126.926912,서울특별시 영등포구 여의도동 36-2,02-761-2512,매일08:30-18:30
한국금융사박물관,전시/기념관,37.56859523,126.976433,서울특별시 중구 태평로1가 62-12,02-2151-7677,10:00-18:00
한국기독교문화예술원,영화/연극/공연,37.50411384,127.098022,서울특별시 송파구 석촌동 7-9,02-474-3874,00:00-24:00
한국기독교선교기념관,전시/기념관,37.5465228,126.911769,서울특별시 마포구 합정동 142-1,02-332-9174,오전 10시-오후 5시
한국기독교역사문화관,전시/기념관,37.57409206,127.024248,서울특별시 동대문구 신설동 104-7,02-2230-5113,정보없음
한국동아시아교육문화원,영화/연극/공연,37.52204,127.037968,서울특별시 강남구 논현동 93-12,02-322-3101,00:00-24:00
한국문인협회평생교육원,영화/연극/공연,37.57524976,126.989103,서울특별시 종로구 익선동 30-6,02-762-4034,매일10:00-18:00
한국문화의집코우스,영화/연극/공연,37.50682781,127.060465,서울특별시 강남구 대치동 944-22,02-3011-1712,정보없음
한국미술정보센터,전시/기념관,37.60004663,126.95666,서울특별시 종로구 홍지동 44,02-730-6227,10:00-17:00
한국사찰음식문화체험관,전시/기념관,37.57604302,126.983827,서울특별시 종로구 안국동 175-3,02-733-4650,매일 09:00-18:00
한국산업마케팅연구원,전시/기념관,37.4904918,127.011587,서울특별시 서초구 서초동 1558-17,02-588-2480,정보없음
한국색동박물관,전시/기념관,37.57388778,126.992091,서울특별시 종로구 권농동 187-25,02-765-9286,화요일-토요일 : 10:00-18:00
한국서도소리연구보존회,영화/연극/공연,37.56112612,127.011712,서울특별시 중구 신당동 387-2,02-2232-5749,"10:00-18:00, 목 08:00-22:00"
한국슬라브문화연구원,영화/연극/공연,37.5496897,126.917086,서울특별시 마포구 서교동 395-28,1644-0686,09:00-18:00
한국승강기안전엑스포,전시/기념관,37.51182391,127.059159,서울특별시 강남구 삼성동 159,02-780-4771,정보없음
한국영화박물관,전시/기념관,37.58045107,126.889894,서울특별시 마포구 상암동 1602,02-3153-2072,"평일(화요일-금요일)10:00-18:30, 주말(토-일) 및 공휴일,10:00-17:30"
한국예술문화원,영화/연극/공연,37.57189615,126.987231,서울특별시 종로구 인사동 43,0507-1443-1239,매일00:00-24:00
한국예절문화원,영화/연극/공연,37.57583117,126.92385,서울특별시 서대문구 남가좌동 336-23,02-391-1988,월-금 오전 9:00-오후 6:00
한국온라인전시장,전시/기념관,37.51188477,127.0323,서울특별시 강남구 논현동 216-3,02-516-4465,정보없음
한국은행본점화폐금융박물관,전시/기념관,37.5625152,126.979724,서울특별시 중구 남대문로3가 110,02-759-4114,화-일 10:00-17:00
한국의집,영화/연극/공연,37.5602235,126.994498,서울특별시 중구 필동2가 80-2,02-2266-9101,오후 12:00-09:30
한국잡지박물관,전시/기념관,37.51976516,126.930241,서울특별시 영등포구 여의도동 44-31,02-360-0041,10:00-18:00
한국전시장치산업협동조합,전시/기념관,37.48731916,127.103108,서울특별시 강남구 수서동 724,02-569-2320,"평일 09:00-18:00, 토요일 09:00-13:00"
한국전통음식박물관,전시/기념관,37.57489958,126.990638,서울특별시 종로구 와룡동 164-2,02-741-5447,"매일 10:00-18:00,매일 입장시간 10:00-17:30"
한국청소년동아리문화연구원,영화/연극/공연,37.60940705,126.934954,서울특별시 은평구 녹번동 7,02-3888-5379,정보없음
한국체육박물관,전시/기념관,37.63478143,127.101692,서울특별시 노원구 공릉동 26-17,02-970-0504,10:00-17:00
한국통신박물관,전시/기념관,37.57215064,126.977792,서울특별시 종로구 세종로 100,,정보없음
한국현대문학관,전시/기념관,37.55962115,127.004103,서울특별시 중구 장충동2가 186-210,02-2277-4857,"평일 10:00-17:00, 토요일 10:00-14:00 (예약자가 있는 경우 개관)"
한국화랑협회,전시/기념관,37.57559548,126.985829,서울특별시 종로구 경운동 89-4,02-733-3706,정보없음
한국힐빙문화원,영화/연극/공연,37.59950526,126.918816,서울특별시 은평구 응암동 111-1,02-359-5003,정보없음
한글전각갤러리,전시/기념관,37.57559548,126.985829,서울특별시 종로구 경운동 89-4,02-723-2324,14:00-18:00
한독골프연습장,대형체육시설,37.58259536,126.936459,서울특별시 서대문구 홍은동 426,02-3446-2707,"평일 06:00-23:00,주말 08:00-22:00"
한류스타홍보전시관,전시/기념관,37.56852858,126.981627,서울특별시 중구 다동 10,02-729-9594,10:00-21:00
한미사진미술관,전시/기념관,37.51659259,127.113956,서울특별시 송파구 방이동 45,02-418-1315,"월-금 10:00-19:00, 토요일 공휴일 11:00-18:30"
한벽원미술관,전시/기념관,37.58288312,126.981564,서울특별시 종로구 팔판동 35-1,02-732-3777,10:00-18:00
한성골프크리닉스쿨,대형체육시설,37.54711053,126.929317,서울특별시 마포구 창전동 333,0507-1410-7798,"주중 10:00-22:30, 토 10:00-19:00, 일 10:00-17:00"
한성백제박물관,전시/기념관,37.51542872,127.120801,서울특별시 송파구 방이동 88-20,02-2152-5800,"평일 : 오전 9시-오후 7시,토, 일, 공휴일 : 오전 9시-오후 7시(단,11-2월 : 오전 9시-오후 6시)"
한성아트홀,영화/연극/공연,37.58374303,126.999963,서울특별시 종로구 명륜2가 41-4,02-741-0251,정보없음
한솔골프연습장,대형체육시설,37.55050639,127.146147,서울특별시 강동구 명일동 315-13,02-426-9090,"월-금 09:00-22:30,토-일 10:00-20:00"
한식문화공간이음,전시/기념관,37.57841064,126.985839,서울특별시 종로구 재동 54-5,02-765-3006,정보없음
한양대엘리트태권도,대형레저시설,37.6028323,127.062285,서울특별시 동대문구 이문동 255-282,02-963-6464,정보없음
한양대학교박물관,전시/기념관,37.55450355,127.046611,서울특별시 성동구 사근동 110,02-2220-1394,오전 10시-오후 5시까지 
한양도성박물관,전시/기념관,37.57285718,127.008513,서울특별시 종로구 종로6가 70-6,02-724-0243,화-일09:00-18:00
한양도성유적박물관,전시/기념관,37.5536951,126.98159,서울특별시 용산구 후암동 30-66,,정보없음
한양레퍼토리,영화/연극/공연,37.58398159,127.002065,서울특별시 종로구 혜화동 185,02-764-6460,정보없음
한얼소극장,영화/연극/공연,37.5867508,127.00164,서울특별시 종로구 혜화동 70-1,02-766-7010,정보없음
한예극장,전시/기념관,37.57820858,127.004719,서울특별시 종로구 동숭동 199-17,0507-1358-1669,매일10:00-22:00
한옥문화원,영화/연극/공연,37.58189511,126.986302,서울특별시 종로구 계동 15-6,02-741-7441,11:00-17:00
한원미술관,전시/기념관,37.48178113,127.015436,서울특별시 서초구 서초동 1449-6,0507-1402-5642,10:00-18:00
한익환서울아트박물관,전시/기념관,37.53802824,127.004991,서울특별시 용산구 한남동 722-9,02-796-0100,10:00-18:00
한전아트센터,영화/연극/공연,37.48560466,127.028079,서울특별시 서초구 서초동 1355,02-2105-8133,공연에 따라 다름
한전아트센터,전시/기념관,37.48560466,127.028079,서울특별시 서초구 서초동 1355,02-3456-5096,10:00-18:00
한지문화산업센터,전시/기념관,37.5795376,126.984404,서울특별시 종로구 재동 8,0507-1488-6600,"10:00-19:00, 매월 마지막 수요일 문화가 있는 날 연장 운영 10:00-21:00"
함석헌기념관,전시/기념관,37.65296162,127.034796,서울특별시 도봉구 쌍문동 81-78,02-905-7007,"화-일, 09:00-18:00"
해리스디자인,전시/기념관,37.57866977,126.81492,서울특별시 강서구 방화동 353-3,,09:00-18:00
해마루축구장,대형체육시설,37.51837597,126.87769,서울특별시 양천구 신정동 871-3,02-2620-3416,문의
해미뮤지컬컴퍼니,영화/연극/공연,37.5507931,127.109907,서울특별시 광진구 광장동 114,070-8161-0550,정보없음
해외유학박람회,전시/기념관,37.51182391,127.059159,서울특별시 강남구 삼성동 159,02-783-8261,11:00-18:00
해외이민투자박람회,전시/기념관,37.51182391,127.059159,서울특별시 강남구 삼성동 159,02-783-8261,11:00-18:00
해피씨어터,영화/연극/공연,37.58186091,127.00258,서울특별시 종로구 동숭동 1-60,0507-1329-7611,매일11:00-19:00
핸드아티코리아,전시/기념관,37.51182391,127.059159,서울특별시 강남구 삼성동 159,02-6121-6252,오전 10:00-오후 6:00
행복골프반포훈련소,대형체육시설,37.50400683,127.021127,서울특별시 서초구 반포동 746-8,02-511-7177,"평일 : 오전 6시 30분-저녁 10시 30분 , 주말 : 오전 9시-저녁 9시 30분"
향나무,명승지,37.57886973,126.98971,서울특별시 종로구 와룡동 2-71,,09:00-21:00
허리우드극장,영화/연극/공연,37.57276352,126.987902,서울특별시 종로구 낙원동 288,02-3672-4232,정보없음
허준박물관,전시/기념관,37.56787245,126.851031,서울특별시 강서구 가양동 26-5,02-3661-8686,평일10:00-18:00
헬로애니멀,관광지,37.66802835,127.047065,서울특별시 도봉구 방학동 720-33,02-955-6619,10:30-19:00
헬로우뮤지움동네미술관,전시/기념관,37.54817447,127.05325,서울특별시 성동구 성수동2가 284-22,0507-1387-4222,10:00-18:00
헬로우아일랜드,전시/기념관,37.54253315,127.053233,서울특별시 성동구 성수동2가 333-94,0507-1329-3536,08:00-22:00
헬스케어이노지움,전시/기념관,37.56135823,126.972996,서울특별시 중구 서소문동 135,070-7791-0777,"월-금 10:00-18:00, 월-금 점심시간 13:00-14:00"
현대갤러리,전시/기념관,37.57730568,126.979823,서울특별시 종로구 사간동 80,02-2287-3500,매일 10:00-18:00
현대모터스튜디오,전시/기념관,37.52127633,127.034369,서울특별시 강남구 논현동 91,1899-6611,시설별 상이
현대백화점목동점물분수대,영화/연극/공연,37.52732178,126.874619,서울특별시 양천구 목동 916,02-2163-2233,10:30-20:00
현대백화점천호점문화홀,영화/연극/공연,37.53897505,127.124441,서울특별시 강동구 천호동 572,02-488-2233,정보없음
현대백화점컬쳐파크문화센터,영화/연극/공연,37.52867748,127.027681,서울특별시 강남구 압구정동 450,02-549-4560,정보없음
현대백화점토파즈이벤트홀,영화/연극/공연,37.52732178,126.874619,서울특별시 양천구 목동 916,02-2163-2233,10:30-20:00
현대아트,영화/연극/공연,37.50963226,127.059443,서울특별시 강남구 삼성동 159-6,02-568-9737,월-금 10:00-18:00
현대예술극장,영화/연극/공연,37.52736612,127.027469,서울특별시 강남구 압구정동 429,,정보없음
현대카드뮤직라이브러리,전시/기념관,37.53663557,127.000702,서울특별시 용산구 한남동 683-132,02-331-6301,12:00-21:00
현대카드스토리지,전시/기념관,37.53681055,127.000866,서울특별시 용산구 한남동 683-131,02-2014-7850,"화-토요일 12:00-21:00,일,공휴일 12:00-18:00"
현대화랑,전시/기념관,37.5766458,126.979859,서울특별시 종로구 사간동 122,02-2287-3591,"화요일-일요일, 오전 10시-오후 6시"
혜곡최순우기념관,전시/기념관,37.59297685,127.00035,서울특별시 성북구 성북동 126-20,02-3675-3402,화-토 10:00-17:00
혜화동1번지극장,영화/연극/공연,37.58637536,127.001345,서울특별시 종로구 혜화동 88-1,,정보없음
혜화아트센터,전시/기념관,37.58496996,127.003098,서울특별시 종로구 혜화동 90-7,02-747-6943,11:00∼18:30
호림박물관,전시/기념관,37.52269761,127.036345,서울특별시 강남구 신사동 651-24,02-541-3523,화요일-토요일 오전 10:30-오후 06:00
호림박물관,전시/기념관,37.4808823,126.918236,서울특별시 관악구 신림동 1707,02-858-2500,10:00-17:00
호림아트센터,전시/기념관,37.52269761,127.036345,서울특별시 강남구 신사동 651-24,02-541-3540,오전 10시-오후 6시
호암산잣나무산림욕장,관광지,37.45105077,126.923277,서울특별시 금천구 시흥동 산 93-1,02-879-6528,정보없음
호암아트홀,영화/연극/공연,37.56155336,126.970996,서울특별시 중구 순화동 7,02-751-9997,요일별 상이
호원아트홀,영화/연극/공연,37.5262902,127.130305,서울특별시 강동구 성내동 435-9,02-482-8794,정보없음
호텔이매지너리,전시/기념관,37.59513292,127.000404,서울특별시 성북구 성북동 3-78,,정보없음
홈테이블데코페어,전시/기념관,37.51182391,127.059159,서울특별시 강남구 삼성동 159,02-554-3122,10:00-19:00
홍대난타극장,영화/연극/공연,37.55319621,126.921175,서울특별시 마포구 서교동 357-5,02-739-8288,정보없음
홍대컨텐츠라운지RUR,영화/연극/공연,37.55513265,126.928114,서울특별시 마포구 서교동 335-3,02-6014-5566,매일 11:00-22:00
홍사소극장,영화/연극/공연,37.58673179,127.001916,서울특별시 종로구 혜화동 64-1,02-2677-1918,정보없음
홍익대대학로아트센터소극장,영화/연극/공연,37.57655858,127.00145,서울특별시 종로구 연건동 128-8,02-742-0300,10:00-22:00
홍익대학교박물관,전시/기념관,37.55251925,126.924991,서울특별시 마포구 상수동 72-1,02-320-1323,13:00-17:00
홍익대학교현대미술관,전시/기념관,37.55251925,126.924991,서울특별시 마포구 상수동 72-1,02-320-3272,"1관 : 월요일-금요일 10:00-18:00,2관 : 화요일-일요일 10:00-18:00"
홍진임시의정원의장기념전시실,전시/기념관,37.53291197,126.916404,서울특별시 영등포구 여의도동 1,02-6788-4211,"월-금 09:00-21:00,토-일 09:00-17:00"
화랑대역사전시관,전시/기념관,37.62425459,127.093283,서울특별시 노원구 공릉동 29-61,070-4179-3777,화요일-일요일(10:00∼18:00)
화랑미술제,전시/기념관,37.49567866,127.071912,서울특별시 강남구 대치동 514,02-733-3706,11:00-19:30
화봉책박물관,전시/기념관,37.57306784,126.985219,서울특별시 종로구 관훈동 197-28,02-737-0057,10:00-19:00
화정박물관,전시/기념관,37.60454485,126.966082,서울특별시 종로구 평창동 273-1,02-2075-0114,화요일-일요일10:00-18:00 (입장마감 17:00)
환경재활용창작품연구회,영화/연극/공연,37.53707416,126.828182,서울특별시 양천구 신월동 51-2,02-2698-3829,10:00-18:00
환기미술관,전시/기념관,37.59408777,126.966114,서울특별시 종로구 부암동 210-8,02-391-7701,10:00-18:00
황학정국궁전시관,전시/기념관,37.57791836,126.963946,서울특별시 종로구 사직동 산 1-1,02-722-1600,매일 10:00-17:00
효명아트홀,영화/연극/공연,37.46841605,126.887662,서울특별시 금천구 가산동 664,02-880-0680,정보없음
효정유스센터,영화/연극/공연,37.54604104,126.967773,서울특별시 용산구 청파동2가 9-1,02-718-3520,정보없음
효창공원백범김구기념관,전시/기념관,37.54427794,126.959253,서울특별시 용산구 효창동 255,02-799-3400,10:00-18:00
효창공원효창운동장,대형체육시설,37.54404088,126.961645,서울특별시 용산구 효창동 3,02-713-1410,"평일: 08:00-22:00, 주말: 08:00-22:00, 공휴일: 08:00-22:00"
효천아트센터,영화/연극/공연,37.58997176,126.998282,서울특별시 종로구 명륜1가 5,02-3676-2352,09:00-18:00
후암스테이지,영화/연극/공연,37.5820588,127.000418,서울특별시 종로구 명륜4가 113-1,0505-894-0202,정보없음
후암스튜디오,영화/연극/공연,37.5820588,127.000418,서울특별시 종로구 명륜4가 113-1,02-747-9139,공연마다 상이
후암시어터,영화/연극/공연,37.5820588,127.000418,서울특별시 종로구 명륜4가 113-1,02-747-2232,정보없음
후원,명승지,37.57886973,126.98971,서울특별시 종로구 와룡동 2-71,,09:00-21:00
흥천사다목적문화센터,영화/연극/공연,37.59796095,127.008119,서울특별시 성북구 돈암동 595,02-929-6611,정보없음
흰물결아트센터화이트홀,영화/연극/공연,37.49343312,127.007282,서울특별시 서초구 서초동 1720-4,02-535-7034,매일 09:00-22:00
힐스테이트상도센트럴파크아파트풋살장,대형체육시설,37.49678998,126.951667,서울특별시 동작구 상도동 531,02-826-8901,정보없음
AB갤러리,전시/기념관,37.49666677,126.998005,서울특별시 서초구 반포동 97-2,02-595-1218,"평일 11:30-19:00 화요일-목요일,주말 14:00-20:00 금요일-토요일"
ABOOKMUSEUM,전시/기념관,37.58555015,126.970475,서울특별시 종로구 청운동 115-1,0507-1308-6026,10:00-18:00
ADM갤러리,전시/기념관,37.49320866,127.035638,서울특별시 강남구 역삼동 834-64,02-554-0594,월-토 11:00-19:00
ALLOFROCK,영화/연극/공연,37.55485624,126.930407,서울특별시 마포구 서교동 325-26,,PM 1:00-PM 11:00 (mon-sun)
AN아트홀,영화/연극/공연,37.58248888,127.003554,서울특별시 종로구 동숭동 1-74,070-8817-5490,정보없음
APMCUEX홀,전시/기념관,37.5674871,127.008079,서울특별시 중구 을지로6가 18-35,02-2217-6363,11:30-24:00
APSHOP,전시/기념관,37.57451501,126.936529,서울특별시 서대문구 연희동 74-2,070-8808-3330,13:00-18:00
AT센터,전시/기념관,37.46827871,127.039136,서울특별시 서초구 양재동 232,02-6300-1114,정보없음
BM아트센터,영화/연극/공연,37.54723685,126.910586,서울특별시 마포구 합정동 377-14,,정보없음
BRAZILHALL,전시/기념관,37.58167877,126.980466,서울특별시 종로구 팔판동 141,02-720-4428,수-일 11:00-18:00
CBS문화센터,영화/연극/공연,37.47537301,127.03598,서울특별시 서초구 양재동 114-2,,정보없음
CGV영등포,영화/연극/공연,37.51723326,126.903716,서울특별시 영등포구 영등포동4가 442,02-2068-7886,정보없음
CJ아지트,영화/연극/공연,37.54424659,126.930342,서울특별시 마포구 신정동 145-9,02-3272-2616,정보없음
CJ아지트,영화/연극/공연,37.58100205,127.003965,서울특별시 종로구 동숭동 1-92,02-6740-1419,정보없음
CKL스테이지,영화/연극/공연,37.56852858,126.981627,서울특별시 중구 다동 10,02-6441-3951,09:00-22:00-
CMB골프,대형체육시설,37.46450018,126.919614,서울특별시 관악구 신림동 1738,0507-1498-8824,"주중 06:00-22:00,주말 10:00-19:00"
CRCOLLECTIVE,전시/기념관,37.5624839,126.920283,서울특별시 마포구 연남동 504-29,02-333-0022,12:00-18:00
DGBD,영화/연극/공연,37.55073973,126.920239,서울특별시 마포구 서교동 395-17,02-322-3792,정보없음
DJ GDR플러스 골프아카데미,대형체육시설,37.53849607,127.127485,서울특별시 강동구 천호동 453-8,0507-1354-1858,07:00-23:00
E스포츠명예의전당,전시/기념관,37.57572697,126.889973,서울특별시 마포구 상암동 1648,070-4225-0975,11:00-18:00
EV6언플러그드그라운드,전시/기념관,37.54697631,127.049549,서울특별시 성동구 성수동1가 14-27,02-2039-8244,매일 11:00-21:00
G&J갤러리,전시/기념관,37.57387983,126.984601,서울특별시 종로구 관훈동 188,02-725-0040,정보없음
G밸리기업시민청,전시/기념관,37.47761902,126.889055,서울특별시 금천구 가산동 60-8,02-2136-4707,평일 09:00-18:00
GDR 골프인 ,대형체육시설,37.56433704,126.99082,서울특별시 중구 초동 72-10,0507-1354-7607,"평일 06:00-24:00,주말 10:00-19:00"
GDR아카데미 더블지에프,대형체육시설,37.51448311,127.033499,서울특별시 강남구 논현동 209,0507-1330-2557,07:00-23:00
GOLF5,대형체육시설,37.64598592,127.081589,서울특별시 노원구 중계동 311-25,0507-1385-8553,"월-금 09:00-22:30,토 09:00-22:00,일 09:00-19:00"
GURO어린이건강체험관,전시/기념관,37.50219095,126.847122,서울특별시 구로구 개봉동 416-140,02-2612-2439,"평일 10:30-11:30 1회,평일 14:00-15:00 2회"
HAPPYSCREEN,전시/기념관,37.56969128,126.980304,서울특별시 종로구 서린동 99,,평일 10:00-18:00
HUMANARTMUSEUM,전시/기념관,37.54607204,127.043442,서울특별시 성동구 성수동1가 668-137,0507-1410-5527,09:00-18:00
IFS프랜차이즈창업박람회,전시/기념관,37.51182391,127.059159,서울특별시 강남구 삼성동 159,02-6000-1565,오전 10시-오후 5시
IGE캐나다조기유학박람회,전시/기념관,37.48842728,127.048778,서울특별시 강남구 도곡동 168,02-2051-0315,오전 11시-오후 5시
IPAC 뮤직홀,영화/연극/공연,37.48361806,127.012836,서울특별시 서초구 서초동 1451-22,0507-1376-7207,10:00-19:00
JA골프스쿨,대형체육시설,37.59700909,127.082071,서울특별시 중랑구 중화동 450,0507-1347-4971,10:00-23:00
JBK컨벤션홀,영화/연극/공연,37.51502737,127.063117,서울특별시 강남구 삼성동 108-6,02-547-6551,09:30-18:30
JCC아트센터,영화/연극/공연,37.58718318,127.001886,서울특별시 종로구 혜화동 53-21,02-2138-7373,정보없음
JMGKOREA,관광지,37.46827871,127.039136,서울특별시 서초구 양재동 232,0507-1422-6773,평일 10:00-06:00
JS아트홀,영화/연극/공연,37.58243263,127.004358,서울특별시 종로구 동숭동 25-11,070-4480-1239,정보없음
JTN아트홀,영화/연극/공연,37.57664412,127.003932,서울특별시 종로구 이화동 139,02-779-1595,"평일 09:30-22:00,토요일 13:00-20:30,일요일 13:00-19:00"
JTN아트홀1관,영화/연극/공연,37.57664412,127.003932,서울특별시 종로구 이화동 139,02-779-1595,정보없음
JTN아트홀2관,영화/연극/공연,37.57664412,127.003932,서울특별시 종로구 이화동 139,02-779-1595,"평일 09:30-22:00,토요일 13:00-20:30,일요일 13:00-19:00"
JTN아트홀3관,영화/연극/공연,37.57664412,127.003932,서울특별시 종로구 이화동 139,0507-1302-1596,정보없음
JTN아트홀4관,영화/연극/공연,37.57664412,127.003932,서울특별시 종로구 이화동 139,02-779-1595,요일별 상이
JYART갤러리,전시/기념관,37.5805685,126.981751,서울특별시 종로구 소격동 35-3,0507-1418-8268,화-일 11:00-18:00
K현대미술관,전시/기념관,37.52437942,127.039172,서울특별시 강남구 신사동 666-7,02-2138-0952,10:00-19:00
KB청춘마루,영화/연극/공연,37.55422005,126.92301,서울특별시 마포구 서교동 345-9,02-3144-7744,월-토 12:00-21:00
KBS아레나,영화/연극/공연,37.55684827,126.847193,서울특별시 강서구 화곡동 1093-76,02-2600-8851,정보없음
KBS홀,영화/연극/공연,37.52596989,126.916717,서울특별시 영등포구 여의도동 18,02-781-1000,공연에 따라 유동적
KFESTIVALMESSE,전시/기념관,37.48393878,126.879574,서울특별시 금천구 가산동 470-8,02-6111-8804,정보없음
KLPGA송미영골프스쿨,대형체육시설,37.48090023,127.000148,서울특별시 서초구 방배동 985-14,02-585-0513,정보없음
KOCCA뮤직스튜디오,영화/연극/공연,37.5203397,127.115518,서울특별시 송파구 방이동 88,061-900-6461,정보없음
KOCCA콘텐츠문화광장,영화/연극/공연,37.59072601,127.044897,서울특별시 동대문구 청량리동 206-9,02-6310-0720,대관 문의 : 월-금 (09:00-18:00)
KOCCA콘텐츠시연장,영화/연극/공연,37.59072601,127.044897,서울특별시 동대문구 청량리동 206-9,02-6310-0720,정보없음
KONTEMPORARY1,전시/기념관,37.53634022,127.001269,서울특별시 용산구 한남동 683-47,,12:30-21:00
KOTRA무역자료실,전시/기념관,37.51035685,127.061024,서울특별시 강남구 삼성동 159-1,02-3460-7406,월-금요일: 오전9시-오후6시
KREIS,영화/연극/공연,37.55321091,127.088346,서울특별시 광진구 능동 256-1,0507-1312-7275,00:00-24:00
KRNET,전시/기념관,37.51283208,127.057251,서울특별시 강남구 삼성동 159,02-562-7041,정보없음
KT&G상상마당,영화/연극/공연,37.50658411,127.065327,서울특별시 강남구 대치동 1002,02-3404-4311,정보없음
KT&G상상마당,영화/연극/공연,37.5509577,126.921063,서울특별시 마포구 서교동 367-5,02-330-6200,11:00-18:00
KT&G상상마당라이브홀,영화/연극/공연,37.5509577,126.921063,서울특별시 마포구 서교동 367-5,02-2014-2024,매일 13:00-23:00
KT스퀘어,영화/연극/공연,37.57215064,126.977792,서울특별시 종로구 세종로 100,1577-5599,09:00-20:00
LEEUM,전시/기념관,37.5381761,126.998909,서울특별시 용산구 한남동 742-12,02-2014-6900,10:00-18:00
LEEUM리움삼성아동교육문화센터,영화/연극/공연,37.53817123,126.998619,서울특별시 용산구 한남동 742-19,02-2014-6835,정보없음
LG아트센터(2022년10월예정),영화/연극/공연,37.56536299,126.829389,서울특별시 강서구 마곡동 812,1661-0017,월-금 10:30-18:00
LGU홈미디어체험관,관광지,37.52378796,126.963509,서울특별시 용산구 한강로3가 65-228,070-4080-3000,정보없음
LIG아트홀,영화/연극/공연,37.49915978,127.030264,서울특별시 강남구 역삼동 649-11,02-331-0094,정보없음
LIG아트홀합정,영화/연극/공연,37.54913801,126.911248,서울특별시 마포구 합정동 471,02-331-0094,정보없음
MBC애드컴,영화/연극/공연,37.560865,126.977729,서울특별시 중구 남대문로3가 30-13 가로판매대63,02-3279-3322,정보없음
MBC월드,전시/기념관,37.58112342,126.890989,서울특별시 마포구 상암동 1603,02-780-0011,정보없음
MJ문화센터,영화/연극/공연,37.5737729,126.973126,서울특별시 종로구 내수동 74,02-499-0311,정보없음
MJ스크린골프,대형체육시설,37.59448655,127.059236,서울특별시 동대문구 이문동 325-20,02-968-0088,"월-토 10:00-22:00,일 10:00-18:00"
MSTAGE,영화/연극/공연,37.55741097,126.935728,서울특별시 서대문구 창천동 57-53,1811-7476,정보없음
MUSEUM209,전시/기념관,37.51387107,127.106364,서울특별시 송파구 신천동 29-1,02-6953-8016,12:00-21:00
NC문화재단HALL,영화/연극/공연,37.57980424,127.004617,서울특별시 종로구 동숭동 187-8,02-6320-2411,정보없음
NEMO,전시/기념관,37.54086944,127.002485,서울특별시 용산구 한남동 727-56,02-6399-7552,정보없음
NH아트홀,영화/연극/공연,37.56578544,126.967577,서울특별시 중구 충정로1가 85,02-3143-5959,정보없음
OCTOBERSEOUL,전시/기념관,37.47861711,127.143759,서울특별시 송파구 장지동 884,02-6405-1090,정보없음
PGA골프,대형체육시설,37.4940693,126.893908,서울특별시 구로구 구로동 120,02-863-4080,매일 00:00-24:00
PIDHALL,영화/연극/공연,37.50959848,127.033567,서울특별시 강남구 논현동 221-7,02-539-5912,오전 9:00-오후 5:00
QED골프아카데미,대형체육시설,37.54752897,127.067417,서울특별시 광진구 화양동 23-5,0507-1306-7072,00:00-24:00
ROOM,영화/연극/공연,37.58161494,127.002807,서울특별시 종로구 동숭동 1-113,0507-1377-2335,정보없음
S앤T커뮤니케이션,전시/기념관,37.47754667,127.000623,서울특별시 서초구 방배동 1024-4,02-3471-8871,정보없음
SAN리허설스튜디오,영화/연극/공연,37.48262222,127.036955,서울특별시 서초구 양재동 14-21,02-578-6756,정보없음
SCC선아트홀,영화/연극/공연,37.47109992,127.043846,서울특별시 서초구 양재동 372-3,02-3434-4923,08:00-22:00
SCCHALL서초,영화/연극/공연,37.48173214,127.014511,서울특별시 서초구 서초동 1450-2,02-3434-4900,예약
SEMA벙커,관광지,37.52517752,126.924877,서울특별시 영등포구 여의도동 23,02-2124-8800,"평일(화-금) 오전 11시-오후 7시, 주말, 공휴일 오전 11시-오후 7시"
SEMA창고,전시/기념관,37.60940705,126.934954,서울특별시 은평구 녹번동 7,02-2124-8946,"평일(화-금) 오전 11시-오후 7시, 주말, 공휴일 오전 11시-오후 7시"
SETEC,전시/기념관,37.49567866,127.071912,서울특별시 강남구 대치동 514,02-2187-4600,정보없음
SH아트홀,영화/연극/공연,37.57990114,127.003569,서울특별시 종로구 동숭동 1-131,02-747-2265,정보없음
SK텔레콤홍보관티움,전시/기념관,37.56648804,126.985128,서울특별시 중구 을지로2가 11,02-6353-6665,10:00-18:00
SOUND360,영화/연극/공연,37.48181402,127.013188,서울특별시 서초구 서초동 1451-84,02-734-3348,정보없음
SPACEXX,전시/기념관,37.51442403,126.895768,서울특별시 영등포구 문래동3가 54-5,,13:00-19:00
SPP국제컨텐츠마켓,전시/기념관,37.53954371,126.997814,서울특별시 용산구 한남동 747-7,070-4705-8860,2022.11.22-23
st홀,영화/연극/공연,37.55447963,126.938535,서울특별시 마포구 노고산동 33-22,02-718-3487,월-금00:00-24:00
STRADEUM,영화/연극/공연,37.53729898,127.000463,서울특별시 용산구 한남동 739-13,02-3019-7500,유동적
SUPKOREA,대형레저시설,37.52684981,127.082375,서울특별시 광진구 자양동 574-1,,"영업시간,매일 09:00-21:00 일몰 시 마감"
SWINGLAB,대형체육시설,37.52020612,126.9318,서울특별시 영등포구 여의도동 43-4,0507-1324-6632,매일 06:00-24:00
T팩토리,전시/기념관,37.55534364,126.922394,서울특별시 마포구 동교동 162-5,070-7470-0001,11:00-21:00
TheK아트홀,영화/연극/공연,37.4682875,127.033065,서울특별시 서초구 양재동 202,02-571-8100,정보없음
TVNJUNGLE,전시/기념관,37.5297718,126.964742,서울특별시 용산구 한강로3가 40-999,02-1670-1525,10:00-22:00
VK아트홀,영화/연극/공연,37.51077107,126.932252,서울특별시 동작구 대방동 23-107,02-825-6208,정보없음
VOFOL,전시/기념관,37.5472031,127.067064,서울특별시 광진구 화양동 23-28,070-4193-8477,정보없음
VSE더힐골프연습장,대형체육시설,37.4488043,126.902416,서울특별시 금천구 시흥동 987-12,0507-1371-5884,"평일 10:00-23:00,주말, 공휴일 09:00-18:00"
WS뮤직홀,영화/연극/공연,37.50784738,127.087637,서울특별시 송파구 잠실동 209-11,,매일 09:00-22:00
WWW스페이스,전시/기념관,37.55528301,126.903788,서울특별시 마포구 망원동 404-32,,"평일 13:00-19:00 ,주말 13:00-19:00"
